<?xml version="1.0" encoding="UTF-8"?>
<gpx creator="StravaGPX" version="1.1" xmlns="http://www.topografix.com/GPX/1/1" xmlns:xsi="http://www.w3.org/2001/XMLSchema-instance" xsi:schemaLocation="http://www.topografix.com/GPX/1/1 http://www.topografix.com/GPX/1/1/gpx.xsd">
 <metadata>
  <name>'26 Chuncheon_Sky Half</name>
  <author>
   <name>SEONGHO KANG</name>
   <link href="https://www.strava.com/athletes/26978016"/>
  </author>
  <copyright author="OpenStreetMap contributors">
   <year>2020</year>
   <license>https://www.openstreetmap.org/copyright</license>
  </copyright>
  <link href="https://www.strava.com/routes/3514185630889299594"/>
 </metadata>
 <trk>
  <name>'26 Chuncheon_Sky Half</name>
  <link href="https://www.strava.com/routes/3514185630889299594"/>
  <type>trail_running</type>
  <trkseg>
   <trkpt lat="37.82040000000001" lon="127.58988000000001">
    <ele>88.11</ele>
   </trkpt>
   <trkpt lat="37.82039" lon="127.58987">
    <ele>88.11</ele>
   </trkpt>
   <trkpt lat="37.82016" lon="127.58977000000002">
    <ele>86.87</ele>
   </trkpt>
   <trkpt lat="37.81996" lon="127.58965">
    <ele>87.87</ele>
   </trkpt>
   <trkpt lat="37.819770000000005" lon="127.58957000000001">
    <ele>89.29</ele>
   </trkpt>
   <trkpt lat="37.81964" lon="127.58955000000002">
    <ele>90.17000000000002</ele>
   </trkpt>
   <trkpt lat="37.819390000000006" lon="127.58961000000001">
    <ele>90.21000000000001</ele>
   </trkpt>
   <trkpt lat="37.81918" lon="127.58970000000001">
    <ele>92.28</ele>
   </trkpt>
   <trkpt lat="37.81895" lon="127.58978">
    <ele>96.14</ele>
   </trkpt>
   <trkpt lat="37.8187" lon="127.58981000000001">
    <ele>97.16000000000001</ele>
   </trkpt>
   <trkpt lat="37.81851" lon="127.58985000000001">
    <ele>98.63000000000001</ele>
   </trkpt>
   <trkpt lat="37.81837" lon="127.58989000000001">
    <ele>100.37000000000002</ele>
   </trkpt>
   <trkpt lat="37.81812" lon="127.58998000000001">
    <ele>107.76</ele>
   </trkpt>
   <trkpt lat="37.81797" lon="127.59006000000001">
    <ele>110.42</ele>
   </trkpt>
   <trkpt lat="37.817780000000006" lon="127.59024000000001">
    <ele>106.67000000000002</ele>
   </trkpt>
   <trkpt lat="37.81765" lon="127.59039000000001">
    <ele>103.39</ele>
   </trkpt>
   <trkpt lat="37.81754" lon="127.59051000000001">
    <ele>100.75</ele>
   </trkpt>
   <trkpt lat="37.817440000000005" lon="127.59061000000001">
    <ele>101.17</ele>
   </trkpt>
   <trkpt lat="37.817260000000005" lon="127.59079000000001">
    <ele>103.51</ele>
   </trkpt>
   <trkpt lat="37.8171" lon="127.59093000000001">
    <ele>106.45</ele>
   </trkpt>
   <trkpt lat="37.816950000000006" lon="127.59105000000001">
    <ele>106.32000000000001</ele>
   </trkpt>
   <trkpt lat="37.81673" lon="127.59121">
    <ele>102.75</ele>
   </trkpt>
   <trkpt lat="37.81654" lon="127.59136000000001">
    <ele>99.83</ele>
   </trkpt>
   <trkpt lat="37.81638" lon="127.59146000000001">
    <ele>99.13000000000001</ele>
   </trkpt>
   <trkpt lat="37.81626" lon="127.59165000000002">
    <ele>98.82000000000001</ele>
   </trkpt>
   <trkpt lat="37.81606" lon="127.59173000000001">
    <ele>100.09</ele>
   </trkpt>
   <trkpt lat="37.815920000000006" lon="127.59171">
    <ele>99.76</ele>
   </trkpt>
   <trkpt lat="37.81582" lon="127.5918">
    <ele>99.76</ele>
   </trkpt>
   <trkpt lat="37.815720000000006" lon="127.59186000000001">
    <ele>106.85000000000001</ele>
   </trkpt>
   <trkpt lat="37.815560000000005" lon="127.59185000000001">
    <ele>108.54</ele>
   </trkpt>
   <trkpt lat="37.81548" lon="127.59123000000001">
    <ele>114.57000000000001</ele>
   </trkpt>
   <trkpt lat="37.815360000000005" lon="127.59104">
    <ele>117.04</ele>
   </trkpt>
   <trkpt lat="37.815160000000006" lon="127.59098000000002">
    <ele>119.11</ele>
   </trkpt>
   <trkpt lat="37.815090000000005" lon="127.59073000000001">
    <ele>121.54</ele>
   </trkpt>
   <trkpt lat="37.81494" lon="127.58989000000001">
    <ele>128.26000000000002</ele>
   </trkpt>
   <trkpt lat="37.81486" lon="127.58977000000002">
    <ele>129.48000000000002</ele>
   </trkpt>
   <trkpt lat="37.81474" lon="127.58950000000002">
    <ele>130.37</ele>
   </trkpt>
   <trkpt lat="37.81461" lon="127.58909000000001">
    <ele>134.85</ele>
   </trkpt>
   <trkpt lat="37.81448" lon="127.58883000000002">
    <ele>137.08</ele>
   </trkpt>
   <trkpt lat="37.81439" lon="127.58859000000001">
    <ele>141.52</ele>
   </trkpt>
   <trkpt lat="37.814350000000005" lon="127.5883">
    <ele>142.76</ele>
   </trkpt>
   <trkpt lat="37.814280000000004" lon="127.58807000000002">
    <ele>146.43</ele>
   </trkpt>
   <trkpt lat="37.81439" lon="127.58781">
    <ele>149.97000000000003</ele>
   </trkpt>
   <trkpt lat="37.81436" lon="127.58761000000001">
    <ele>151.60000000000002</ele>
   </trkpt>
   <trkpt lat="37.81439" lon="127.58754">
    <ele>151.60000000000002</ele>
   </trkpt>
   <trkpt lat="37.81439" lon="127.58721000000001">
    <ele>159.39000000000001</ele>
   </trkpt>
   <trkpt lat="37.814420000000005" lon="127.58691000000002">
    <ele>163.46</ele>
   </trkpt>
   <trkpt lat="37.814400000000006" lon="127.58688000000001">
    <ele>138.44</ele>
   </trkpt>
   <trkpt lat="37.814420000000005" lon="127.58651">
    <ele>142.32</ele>
   </trkpt>
   <trkpt lat="37.814620000000005" lon="127.58617000000001">
    <ele>150.63000000000002</ele>
   </trkpt>
   <trkpt lat="37.814960000000006" lon="127.58577000000001">
    <ele>168.71000000000004</ele>
   </trkpt>
   <trkpt lat="37.81519" lon="127.58547000000002">
    <ele>184.99</ele>
   </trkpt>
   <trkpt lat="37.81519" lon="127.58527000000001">
    <ele>189.76000000000002</ele>
   </trkpt>
   <trkpt lat="37.81515" lon="127.58512">
    <ele>193.9</ele>
   </trkpt>
   <trkpt lat="37.81503" lon="127.58497000000001">
    <ele>194.16000000000003</ele>
   </trkpt>
   <trkpt lat="37.81495" lon="127.58492000000001">
    <ele>198.96</ele>
   </trkpt>
   <trkpt lat="37.8147" lon="127.58491000000001">
    <ele>201.85000000000002</ele>
   </trkpt>
   <trkpt lat="37.814490000000006" lon="127.58493000000001">
    <ele>204.93000000000004</ele>
   </trkpt>
   <trkpt lat="37.81434" lon="127.58499">
    <ele>206.17000000000002</ele>
   </trkpt>
   <trkpt lat="37.814280000000004" lon="127.58492000000001">
    <ele>208.21</ele>
   </trkpt>
   <trkpt lat="37.81427" lon="127.58470000000001">
    <ele>210.81000000000003</ele>
   </trkpt>
   <trkpt lat="37.81432" lon="127.58445">
    <ele>212.09000000000003</ele>
   </trkpt>
   <trkpt lat="37.814750000000004" lon="127.58408000000001">
    <ele>221.52</ele>
   </trkpt>
   <trkpt lat="37.81494" lon="127.58397000000001">
    <ele>226.0</ele>
   </trkpt>
   <trkpt lat="37.814930000000004" lon="127.58385000000001">
    <ele>227.44000000000003</ele>
   </trkpt>
   <trkpt lat="37.814820000000005" lon="127.58376000000001">
    <ele>229.39000000000001</ele>
   </trkpt>
   <trkpt lat="37.814840000000004" lon="127.58374">
    <ele>231.21</ele>
   </trkpt>
   <trkpt lat="37.814600000000006" lon="127.58367000000001">
    <ele>234.51000000000002</ele>
   </trkpt>
   <trkpt lat="37.81445" lon="127.58370000000001">
    <ele>235.26000000000002</ele>
   </trkpt>
   <trkpt lat="37.814240000000005" lon="127.58373000000002">
    <ele>236.82000000000002</ele>
   </trkpt>
   <trkpt lat="37.814220000000006" lon="127.58355000000002">
    <ele>242.00000000000003</ele>
   </trkpt>
   <trkpt lat="37.81425" lon="127.58333">
    <ele>247.92000000000002</ele>
   </trkpt>
   <trkpt lat="37.8143" lon="127.58316">
    <ele>252.65000000000003</ele>
   </trkpt>
   <trkpt lat="37.81441" lon="127.58303000000001">
    <ele>256.15999999999997</ele>
   </trkpt>
   <trkpt lat="37.81454" lon="127.58290000000001">
    <ele>261.12</ele>
   </trkpt>
   <trkpt lat="37.81457" lon="127.58282000000001">
    <ele>264.17</ele>
   </trkpt>
   <trkpt lat="37.814490000000006" lon="127.58275">
    <ele>262.0</ele>
   </trkpt>
   <trkpt lat="37.81445" lon="127.58270000000002">
    <ele>260.69000000000005</ele>
   </trkpt>
   <trkpt lat="37.81456" lon="127.58254000000001">
    <ele>264.85</ele>
   </trkpt>
   <trkpt lat="37.81474" lon="127.58237000000001">
    <ele>270.14000000000004</ele>
   </trkpt>
   <trkpt lat="37.81486" lon="127.58221">
    <ele>271.78000000000003</ele>
   </trkpt>
   <trkpt lat="37.815000000000005" lon="127.58204">
    <ele>275.31</ele>
   </trkpt>
   <trkpt lat="37.815090000000005" lon="127.58151000000001">
    <ele>286.88</ele>
   </trkpt>
   <trkpt lat="37.815070000000006" lon="127.58088000000001">
    <ele>296.89000000000004</ele>
   </trkpt>
   <trkpt lat="37.81535" lon="127.58034">
    <ele>292.45000000000005</ele>
   </trkpt>
   <trkpt lat="37.815540000000006" lon="127.58018000000001">
    <ele>288.59000000000003</ele>
   </trkpt>
   <trkpt lat="37.815780000000004" lon="127.58008000000001">
    <ele>278.72</ele>
   </trkpt>
   <trkpt lat="37.816250000000004" lon="127.57998">
    <ele>260.78000000000003</ele>
   </trkpt>
   <trkpt lat="37.81647" lon="127.57998">
    <ele>256.24</ele>
   </trkpt>
   <trkpt lat="37.81671" lon="127.58002">
    <ele>255.17000000000002</ele>
   </trkpt>
   <trkpt lat="37.816790000000005" lon="127.57999000000001">
    <ele>255.63000000000002</ele>
   </trkpt>
   <trkpt lat="37.816880000000005" lon="127.57983000000002">
    <ele>256.02000000000004</ele>
   </trkpt>
   <trkpt lat="37.817400000000006" lon="127.57935">
    <ele>251.46</ele>
   </trkpt>
   <trkpt lat="37.817890000000006" lon="127.57923000000001">
    <ele>252.78</ele>
   </trkpt>
   <trkpt lat="37.8181" lon="127.57891000000001">
    <ele>257.90000000000003</ele>
   </trkpt>
   <trkpt lat="37.818360000000006" lon="127.57887000000001">
    <ele>257.57</ele>
   </trkpt>
   <trkpt lat="37.81846" lon="127.57880000000002">
    <ele>259.35</ele>
   </trkpt>
   <trkpt lat="37.81864" lon="127.57874000000001">
    <ele>262.85</ele>
   </trkpt>
   <trkpt lat="37.818740000000005" lon="127.57866000000001">
    <ele>263.01</ele>
   </trkpt>
   <trkpt lat="37.819100000000006" lon="127.57821000000001">
    <ele>266.1</ele>
   </trkpt>
   <trkpt lat="37.819230000000005" lon="127.57782000000002">
    <ele>283.64</ele>
   </trkpt>
   <trkpt lat="37.81933" lon="127.57772000000001">
    <ele>285.37</ele>
   </trkpt>
   <trkpt lat="37.819520000000004" lon="127.57761">
    <ele>290.62000000000006</ele>
   </trkpt>
   <trkpt lat="37.819700000000005" lon="127.57758000000001">
    <ele>288.99</ele>
   </trkpt>
   <trkpt lat="37.81983" lon="127.57759000000001">
    <ele>284.98</ele>
   </trkpt>
   <trkpt lat="37.81985" lon="127.57759000000001">
    <ele>278.79</ele>
   </trkpt>
   <trkpt lat="37.82003" lon="127.57747">
    <ele>274.94</ele>
   </trkpt>
   <trkpt lat="37.82016" lon="127.57742">
    <ele>275.78000000000003</ele>
   </trkpt>
   <trkpt lat="37.820310000000006" lon="127.57736000000001">
    <ele>275.99</ele>
   </trkpt>
   <trkpt lat="37.82045" lon="127.57740000000001">
    <ele>278.15</ele>
   </trkpt>
   <trkpt lat="37.82058" lon="127.57747">
    <ele>278.59</ele>
   </trkpt>
   <trkpt lat="37.82072" lon="127.57748000000001">
    <ele>280.54</ele>
   </trkpt>
   <trkpt lat="37.82085" lon="127.57737000000002">
    <ele>284.57000000000005</ele>
   </trkpt>
   <trkpt lat="37.820910000000005" lon="127.57721000000001">
    <ele>285.25</ele>
   </trkpt>
   <trkpt lat="37.82099" lon="127.57698">
    <ele>282.27000000000004</ele>
   </trkpt>
   <trkpt lat="37.82104" lon="127.57678000000001">
    <ele>278.67</ele>
   </trkpt>
   <trkpt lat="37.82112" lon="127.57657">
    <ele>276.96000000000004</ele>
   </trkpt>
   <trkpt lat="37.82124" lon="127.57641000000001">
    <ele>277.83000000000004</ele>
   </trkpt>
   <trkpt lat="37.82141" lon="127.57631">
    <ele>270.02000000000004</ele>
   </trkpt>
   <trkpt lat="37.82173" lon="127.57580000000002">
    <ele>243.36</ele>
   </trkpt>
   <trkpt lat="37.82182" lon="127.57575000000001">
    <ele>243.36</ele>
   </trkpt>
   <trkpt lat="37.82217" lon="127.57568">
    <ele>228.99</ele>
   </trkpt>
   <trkpt lat="37.82222" lon="127.57564">
    <ele>228.99</ele>
   </trkpt>
   <trkpt lat="37.822280000000006" lon="127.57542000000001">
    <ele>220.26000000000002</ele>
   </trkpt>
   <trkpt lat="37.82235" lon="127.57539000000001">
    <ele>217.32000000000002</ele>
   </trkpt>
   <trkpt lat="37.822570000000006" lon="127.57544000000001">
    <ele>212.01</ele>
   </trkpt>
   <trkpt lat="37.822770000000006" lon="127.57528">
    <ele>204.88</ele>
   </trkpt>
   <trkpt lat="37.82309" lon="127.5751">
    <ele>196.43</ele>
   </trkpt>
   <trkpt lat="37.823100000000004" lon="127.5751">
    <ele>196.43</ele>
   </trkpt>
   <trkpt lat="37.823310000000006" lon="127.57500000000002">
    <ele>191.21</ele>
   </trkpt>
   <trkpt lat="37.8239" lon="127.57462000000001">
    <ele>182.04</ele>
   </trkpt>
   <trkpt lat="37.82401" lon="127.57442">
    <ele>177.99</ele>
   </trkpt>
   <trkpt lat="37.8241" lon="127.57436000000001">
    <ele>177.34000000000003</ele>
   </trkpt>
   <trkpt lat="37.824180000000005" lon="127.57411">
    <ele>174.23000000000002</ele>
   </trkpt>
   <trkpt lat="37.824160000000006" lon="127.57399000000001">
    <ele>173.48000000000002</ele>
   </trkpt>
   <trkpt lat="37.82423" lon="127.57388000000002">
    <ele>172.78</ele>
   </trkpt>
   <trkpt lat="37.824220000000004" lon="127.57379000000002">
    <ele>172.20000000000002</ele>
   </trkpt>
   <trkpt lat="37.8243" lon="127.57362">
    <ele>168.78</ele>
   </trkpt>
   <trkpt lat="37.82428" lon="127.57341000000001">
    <ele>166.21</ele>
   </trkpt>
   <trkpt lat="37.824360000000006" lon="127.57282000000001">
    <ele>159.95000000000002</ele>
   </trkpt>
   <trkpt lat="37.824490000000004" lon="127.57245">
    <ele>156.49</ele>
   </trkpt>
   <trkpt lat="37.82466" lon="127.57219">
    <ele>148.77</ele>
   </trkpt>
   <trkpt lat="37.82473" lon="127.57204000000002">
    <ele>146.71</ele>
   </trkpt>
   <trkpt lat="37.824780000000004" lon="127.57174">
    <ele>142.96</ele>
   </trkpt>
   <trkpt lat="37.824760000000005" lon="127.57144000000001">
    <ele>140.83</ele>
   </trkpt>
   <trkpt lat="37.82481000000001" lon="127.57128000000002">
    <ele>138.78</ele>
   </trkpt>
   <trkpt lat="37.824540000000006" lon="127.57046000000001">
    <ele>129.73000000000002</ele>
   </trkpt>
   <trkpt lat="37.82442" lon="127.56972">
    <ele>123.06000000000002</ele>
   </trkpt>
   <trkpt lat="37.824360000000006" lon="127.56926000000001">
    <ele>119.87</ele>
   </trkpt>
   <trkpt lat="37.82452" lon="127.56895000000002">
    <ele>115.43</ele>
   </trkpt>
   <trkpt lat="37.824540000000006" lon="127.56874">
    <ele>114.26</ele>
   </trkpt>
   <trkpt lat="37.82448" lon="127.56835000000001">
    <ele>111.29</ele>
   </trkpt>
   <trkpt lat="37.824270000000006" lon="127.56757">
    <ele>103.76</ele>
   </trkpt>
   <trkpt lat="37.824270000000006" lon="127.56717">
    <ele>101.58</ele>
   </trkpt>
   <trkpt lat="37.82434000000001" lon="127.56663">
    <ele>98.91000000000001</ele>
   </trkpt>
   <trkpt lat="37.82432" lon="127.56617000000001">
    <ele>95.36000000000001</ele>
   </trkpt>
   <trkpt lat="37.824270000000006" lon="127.56581000000001">
    <ele>93.85</ele>
   </trkpt>
   <trkpt lat="37.82415" lon="127.56522000000001">
    <ele>91.35</ele>
   </trkpt>
   <trkpt lat="37.824000000000005" lon="127.56469000000001">
    <ele>89.34</ele>
   </trkpt>
   <trkpt lat="37.823750000000004" lon="127.56406000000001">
    <ele>86.08</ele>
   </trkpt>
   <trkpt lat="37.82365" lon="127.5639">
    <ele>85.52000000000001</ele>
   </trkpt>
   <trkpt lat="37.82368" lon="127.56335000000001">
    <ele>85.68</ele>
   </trkpt>
   <trkpt lat="37.823600000000006" lon="127.56294000000001">
    <ele>86.17</ele>
   </trkpt>
   <trkpt lat="37.82409500014673" lon="127.5627350013878">
    <ele>85.86</ele>
   </trkpt>
   <trkpt lat="37.82459" lon="127.56253000000001">
    <ele>85.14</ele>
   </trkpt>
   <trkpt lat="37.82437" lon="127.56203000000001">
    <ele>85.28</ele>
   </trkpt>
   <trkpt lat="37.824250000000006" lon="127.56183000000001">
    <ele>85.48</ele>
   </trkpt>
   <trkpt lat="37.82412" lon="127.56166">
    <ele>85.71000000000001</ele>
   </trkpt>
   <trkpt lat="37.82396" lon="127.56152000000002">
    <ele>86.47</ele>
   </trkpt>
   <trkpt lat="37.823780000000006" lon="127.5614">
    <ele>86.72</ele>
   </trkpt>
   <trkpt lat="37.823370000000004" lon="127.56123000000001">
    <ele>87.52</ele>
   </trkpt>
   <trkpt lat="37.82323" lon="127.56120000000001">
    <ele>87.52</ele>
   </trkpt>
   <trkpt lat="37.823060000000005" lon="127.56120000000001">
    <ele>88.69</ele>
   </trkpt>
   <trkpt lat="37.822900000000004" lon="127.56117">
    <ele>89.19</ele>
   </trkpt>
   <trkpt lat="37.82276" lon="127.56112000000002">
    <ele>89.19</ele>
   </trkpt>
   <trkpt lat="37.822660000000006" lon="127.56105000000001">
    <ele>89.78000000000002</ele>
   </trkpt>
   <trkpt lat="37.82253" lon="127.56092000000001">
    <ele>90.00000000000001</ele>
   </trkpt>
   <trkpt lat="37.8222" lon="127.56038000000001">
    <ele>91.52</ele>
   </trkpt>
   <trkpt lat="37.822050000000004" lon="127.56006000000001">
    <ele>92.95</ele>
   </trkpt>
   <trkpt lat="37.821960000000004" lon="127.55991000000002">
    <ele>93.68</ele>
   </trkpt>
   <trkpt lat="37.82161" lon="127.55984000000001">
    <ele>96.63000000000001</ele>
   </trkpt>
   <trkpt lat="37.821160000000006" lon="127.55936000000001">
    <ele>100.22</ele>
   </trkpt>
   <trkpt lat="37.82061" lon="127.55885">
    <ele>100.83</ele>
   </trkpt>
   <trkpt lat="37.82041" lon="127.55852000000002">
    <ele>101.8</ele>
   </trkpt>
   <trkpt lat="37.82016" lon="127.55795">
    <ele>103.74000000000001</ele>
   </trkpt>
   <trkpt lat="37.820100000000004" lon="127.55786">
    <ele>103.74000000000001</ele>
   </trkpt>
   <trkpt lat="37.819660000000006" lon="127.55740000000002">
    <ele>107.46000000000001</ele>
   </trkpt>
   <trkpt lat="37.81913" lon="127.55669000000002">
    <ele>109.36000000000001</ele>
   </trkpt>
   <trkpt lat="37.818960000000004" lon="127.55635000000001">
    <ele>110.83000000000001</ele>
   </trkpt>
   <trkpt lat="37.81886" lon="127.55624000000002">
    <ele>112.49000000000001</ele>
   </trkpt>
   <trkpt lat="37.818740000000005" lon="127.55605000000001">
    <ele>114.98</ele>
   </trkpt>
   <trkpt lat="37.818580000000004" lon="127.55575000000002">
    <ele>116.96000000000001</ele>
   </trkpt>
   <trkpt lat="37.81859" lon="127.55577000000001">
    <ele>116.96000000000001</ele>
   </trkpt>
   <trkpt lat="37.8185" lon="127.55559000000001">
    <ele>117.54</ele>
   </trkpt>
   <trkpt lat="37.8181" lon="127.55506000000001">
    <ele>119.31000000000002</ele>
   </trkpt>
   <trkpt lat="37.818000000000005" lon="127.55489000000001">
    <ele>120.44</ele>
   </trkpt>
   <trkpt lat="37.817890000000006" lon="127.55478000000001">
    <ele>120.44</ele>
   </trkpt>
   <trkpt lat="37.817820000000005" lon="127.55466000000001">
    <ele>121.72000000000001</ele>
   </trkpt>
   <trkpt lat="37.817510000000006" lon="127.55439000000001">
    <ele>123.39000000000001</ele>
   </trkpt>
   <trkpt lat="37.817170000000004" lon="127.55395000000001">
    <ele>128.53</ele>
   </trkpt>
   <trkpt lat="37.81696" lon="127.55354000000001">
    <ele>136.37</ele>
   </trkpt>
   <trkpt lat="37.81689" lon="127.55322000000001">
    <ele>140.23000000000002</ele>
   </trkpt>
   <trkpt lat="37.816810000000004" lon="127.55303">
    <ele>141.96</ele>
   </trkpt>
   <trkpt lat="37.81671" lon="127.55259000000001">
    <ele>145.03000000000003</ele>
   </trkpt>
   <trkpt lat="37.81655000000001" lon="127.55229000000001">
    <ele>145.6</ele>
   </trkpt>
   <trkpt lat="37.81629" lon="127.55164">
    <ele>146.82</ele>
   </trkpt>
   <trkpt lat="37.816250000000004" lon="127.55144000000001">
    <ele>147.32</ele>
   </trkpt>
   <trkpt lat="37.816190000000006" lon="127.55136000000002">
    <ele>147.32</ele>
   </trkpt>
   <trkpt lat="37.81613" lon="127.55135000000001">
    <ele>147.61</ele>
   </trkpt>
   <trkpt lat="37.81606" lon="127.55139000000001">
    <ele>147.81000000000003</ele>
   </trkpt>
   <trkpt lat="37.815990000000006" lon="127.55151000000001">
    <ele>148.34</ele>
   </trkpt>
   <trkpt lat="37.81595" lon="127.55195">
    <ele>152.06</ele>
   </trkpt>
   <trkpt lat="37.81589" lon="127.55217">
    <ele>152.88000000000002</ele>
   </trkpt>
   <trkpt lat="37.815810000000006" lon="127.55230000000002">
    <ele>154.73</ele>
   </trkpt>
   <trkpt lat="37.81568" lon="127.55239000000002">
    <ele>155.93</ele>
   </trkpt>
   <trkpt lat="37.81555" lon="127.55238000000001">
    <ele>156.92</ele>
   </trkpt>
   <trkpt lat="37.81539" lon="127.55231">
    <ele>157.55</ele>
   </trkpt>
   <trkpt lat="37.8153" lon="127.55224000000001">
    <ele>157.60000000000002</ele>
   </trkpt>
   <trkpt lat="37.81523" lon="127.55226">
    <ele>157.96</ele>
   </trkpt>
   <trkpt lat="37.81514000000001" lon="127.55233000000001">
    <ele>158.82000000000002</ele>
   </trkpt>
   <trkpt lat="37.815090000000005" lon="127.55244">
    <ele>159.4</ele>
   </trkpt>
   <trkpt lat="37.81503" lon="127.55247000000001">
    <ele>162.62</ele>
   </trkpt>
   <trkpt lat="37.81497" lon="127.55245000000001">
    <ele>162.62</ele>
   </trkpt>
   <trkpt lat="37.81456000047281" lon="127.55212999825406">
    <ele>166.14000000000001</ele>
   </trkpt>
   <trkpt lat="37.814150000000005" lon="127.55181000000002">
    <ele>168.10000000000002</ele>
   </trkpt>
   <trkpt lat="37.81374" lon="127.55153000000001">
    <ele>171.48000000000002</ele>
   </trkpt>
   <trkpt lat="37.813610000000004" lon="127.5515">
    <ele>172.88</ele>
   </trkpt>
   <trkpt lat="37.813520000000004" lon="127.55144000000001">
    <ele>173.47</ele>
   </trkpt>
   <trkpt lat="37.813430000000004" lon="127.55134000000001">
    <ele>175.99</ele>
   </trkpt>
   <trkpt lat="37.81333" lon="127.55127000000002">
    <ele>176.86</ele>
   </trkpt>
   <trkpt lat="37.813250000000004" lon="127.55129000000001">
    <ele>177.32</ele>
   </trkpt>
   <trkpt lat="37.81322" lon="127.55140000000002">
    <ele>177.61</ele>
   </trkpt>
   <trkpt lat="37.813250000000004" lon="127.5515">
    <ele>177.84000000000003</ele>
   </trkpt>
   <trkpt lat="37.81336" lon="127.55174000000001">
    <ele>178.23000000000002</ele>
   </trkpt>
   <trkpt lat="37.813590000000005" lon="127.55203000000002">
    <ele>179.81000000000003</ele>
   </trkpt>
   <trkpt lat="37.81364000000001" lon="127.55214000000001">
    <ele>179.81000000000003</ele>
   </trkpt>
   <trkpt lat="37.813700000000004" lon="127.55247000000001">
    <ele>180.9</ele>
   </trkpt>
   <trkpt lat="37.813790000000004" lon="127.55263000000001">
    <ele>182.26</ele>
   </trkpt>
   <trkpt lat="37.81383" lon="127.55277000000001">
    <ele>182.61</ele>
   </trkpt>
   <trkpt lat="37.81383" lon="127.55291000000001">
    <ele>183.04</ele>
   </trkpt>
   <trkpt lat="37.8136" lon="127.5532">
    <ele>185.10000000000002</ele>
   </trkpt>
   <trkpt lat="37.81351" lon="127.55325">
    <ele>187.19000000000003</ele>
   </trkpt>
   <trkpt lat="37.81335" lon="127.55326000000001">
    <ele>187.19000000000003</ele>
   </trkpt>
   <trkpt lat="37.81316" lon="127.5532">
    <ele>190.31</ele>
   </trkpt>
   <trkpt lat="37.812830000000005" lon="127.55314000000001">
    <ele>194.76000000000002</ele>
   </trkpt>
   <trkpt lat="37.812520000000006" lon="127.55314000000001">
    <ele>198.13000000000002</ele>
   </trkpt>
   <trkpt lat="37.81242" lon="127.55308000000001">
    <ele>198.68</ele>
   </trkpt>
   <trkpt lat="37.81222" lon="127.55285">
    <ele>199.69</ele>
   </trkpt>
   <trkpt lat="37.81212" lon="127.55278000000001">
    <ele>200.68</ele>
   </trkpt>
   <trkpt lat="37.812050000000006" lon="127.55283000000001">
    <ele>201.16</ele>
   </trkpt>
   <trkpt lat="37.81199" lon="127.55297000000002">
    <ele>202.74</ele>
   </trkpt>
   <trkpt lat="37.81194" lon="127.55304000000001">
    <ele>202.74</ele>
   </trkpt>
   <trkpt lat="37.81183" lon="127.55308000000001">
    <ele>204.67000000000002</ele>
   </trkpt>
   <trkpt lat="37.811600000000006" lon="127.55306000000002">
    <ele>208.89000000000001</ele>
   </trkpt>
   <trkpt lat="37.81145" lon="127.55302">
    <ele>210.26000000000002</ele>
   </trkpt>
   <trkpt lat="37.81101" lon="127.55271">
    <ele>220.99</ele>
   </trkpt>
   <trkpt lat="37.810930000000006" lon="127.55263000000001">
    <ele>222.87</ele>
   </trkpt>
   <trkpt lat="37.81089" lon="127.55252000000002">
    <ele>222.87</ele>
   </trkpt>
   <trkpt lat="37.810790000000004" lon="127.5524">
    <ele>229.14000000000001</ele>
   </trkpt>
   <trkpt lat="37.81074" lon="127.55227000000001">
    <ele>229.14000000000001</ele>
   </trkpt>
   <trkpt lat="37.81054" lon="127.55209">
    <ele>233.16</ele>
   </trkpt>
   <trkpt lat="37.81047" lon="127.55210000000001">
    <ele>235.65000000000003</ele>
   </trkpt>
   <trkpt lat="37.81042" lon="127.55218">
    <ele>235.65000000000003</ele>
   </trkpt>
   <trkpt lat="37.81024" lon="127.55269000000001">
    <ele>243.41</ele>
   </trkpt>
   <trkpt lat="37.810190000000006" lon="127.55274000000001">
    <ele>245.08</ele>
   </trkpt>
   <trkpt lat="37.80997" lon="127.55274000000001">
    <ele>249.52</ele>
   </trkpt>
   <trkpt lat="37.80991" lon="127.55270000000002">
    <ele>251.26000000000005</ele>
   </trkpt>
   <trkpt lat="37.80989" lon="127.55262">
    <ele>252.08</ele>
   </trkpt>
   <trkpt lat="37.810030000000005" lon="127.55245000000001">
    <ele>255.56</ele>
   </trkpt>
   <trkpt lat="37.81011" lon="127.55230000000002">
    <ele>256.68</ele>
   </trkpt>
   <trkpt lat="37.810120000000005" lon="127.55215000000001">
    <ele>257.61</ele>
   </trkpt>
   <trkpt lat="37.80995" lon="127.55178000000001">
    <ele>261.90000000000003</ele>
   </trkpt>
   <trkpt lat="37.809920000000005" lon="127.55166000000001">
    <ele>263.20000000000005</ele>
   </trkpt>
   <trkpt lat="37.80995" lon="127.55157000000001">
    <ele>265.27</ele>
   </trkpt>
   <trkpt lat="37.810030000000005" lon="127.5515">
    <ele>266.6</ele>
   </trkpt>
   <trkpt lat="37.81009" lon="127.55140000000002">
    <ele>267.83</ele>
   </trkpt>
   <trkpt lat="37.81031" lon="127.55087000000002">
    <ele>274.8</ele>
   </trkpt>
   <trkpt lat="37.81044" lon="127.55067000000001">
    <ele>278.59</ele>
   </trkpt>
   <trkpt lat="37.81044" lon="127.55057000000001">
    <ele>278.59</ele>
   </trkpt>
   <trkpt lat="37.8104" lon="127.55053000000001">
    <ele>279.66</ele>
   </trkpt>
   <trkpt lat="37.81035" lon="127.55053000000001">
    <ele>279.94</ele>
   </trkpt>
   <trkpt lat="37.80997" lon="127.55114">
    <ele>283.92</ele>
   </trkpt>
   <trkpt lat="37.80984" lon="127.55124">
    <ele>285.26</ele>
   </trkpt>
   <trkpt lat="37.809650000000005" lon="127.55129000000001">
    <ele>288.40999999999997</ele>
   </trkpt>
   <trkpt lat="37.80959" lon="127.55136000000002">
    <ele>288.40999999999997</ele>
   </trkpt>
   <trkpt lat="37.809490000000004" lon="127.55162000000001">
    <ele>291.26</ele>
   </trkpt>
   <trkpt lat="37.80921" lon="127.55186">
    <ele>296.13</ele>
   </trkpt>
   <trkpt lat="37.809110000000004" lon="127.55187000000001">
    <ele>297.24</ele>
   </trkpt>
   <trkpt lat="37.80901" lon="127.55194000000002">
    <ele>299.38000000000005</ele>
   </trkpt>
   <trkpt lat="37.80883" lon="127.55215000000001">
    <ele>301.70000000000005</ele>
   </trkpt>
   <trkpt lat="37.808800000000005" lon="127.55233000000001">
    <ele>303.59000000000003</ele>
   </trkpt>
   <trkpt lat="37.80875" lon="127.55244">
    <ele>305.42</ele>
   </trkpt>
   <trkpt lat="37.808550000000004" lon="127.55261000000002">
    <ele>308.20000000000005</ele>
   </trkpt>
   <trkpt lat="37.808350000000004" lon="127.55288000000002">
    <ele>313.90000000000003</ele>
   </trkpt>
   <trkpt lat="37.80798" lon="127.55301000000001">
    <ele>317.93000000000006</ele>
   </trkpt>
   <trkpt lat="37.807840000000006" lon="127.55310000000001">
    <ele>319.96000000000004</ele>
   </trkpt>
   <trkpt lat="37.807770000000005" lon="127.5532">
    <ele>320.82000000000005</ele>
   </trkpt>
   <trkpt lat="37.807770000000005" lon="127.55329">
    <ele>321.15999999999997</ele>
   </trkpt>
   <trkpt lat="37.80782000000001" lon="127.55335000000001">
    <ele>322.08000000000004</ele>
   </trkpt>
   <trkpt lat="37.80803" lon="127.55350000000001">
    <ele>323.28000000000003</ele>
   </trkpt>
   <trkpt lat="37.808110000000006" lon="127.55361">
    <ele>325.28000000000003</ele>
   </trkpt>
   <trkpt lat="37.808150000000005" lon="127.55372000000001">
    <ele>325.28000000000003</ele>
   </trkpt>
   <trkpt lat="37.808130000000006" lon="127.55385000000001">
    <ele>327.61</ele>
   </trkpt>
   <trkpt lat="37.80803" lon="127.5541">
    <ele>329.68</ele>
   </trkpt>
   <trkpt lat="37.808060000000005" lon="127.55425000000001">
    <ele>332.03000000000003</ele>
   </trkpt>
   <trkpt lat="37.808130000000006" lon="127.55446">
    <ele>334.6</ele>
   </trkpt>
   <trkpt lat="37.80818" lon="127.55508">
    <ele>340.42</ele>
   </trkpt>
   <trkpt lat="37.80832" lon="127.5554">
    <ele>345.19000000000005</ele>
   </trkpt>
   <trkpt lat="37.808330000000005" lon="127.55555000000001">
    <ele>345.19000000000005</ele>
   </trkpt>
   <trkpt lat="37.80832" lon="127.55566000000002">
    <ele>345.19000000000005</ele>
   </trkpt>
   <trkpt lat="37.808420000000005" lon="127.55609000000001">
    <ele>350.93</ele>
   </trkpt>
   <trkpt lat="37.808420000000005" lon="127.55626000000001">
    <ele>351.69</ele>
   </trkpt>
   <trkpt lat="37.808370000000004" lon="127.55634">
    <ele>352.69</ele>
   </trkpt>
   <trkpt lat="37.80828" lon="127.55639000000001">
    <ele>353.04</ele>
   </trkpt>
   <trkpt lat="37.80819" lon="127.55639000000001">
    <ele>354.18000000000006</ele>
   </trkpt>
   <trkpt lat="37.8081" lon="127.55631000000001">
    <ele>355.51000000000005</ele>
   </trkpt>
   <trkpt lat="37.808020000000006" lon="127.55619000000002">
    <ele>356.05</ele>
   </trkpt>
   <trkpt lat="37.807860000000005" lon="127.55602">
    <ele>359.36</ele>
   </trkpt>
   <trkpt lat="37.807770000000005" lon="127.55587000000001">
    <ele>360.86</ele>
   </trkpt>
   <trkpt lat="37.80771" lon="127.55581000000001">
    <ele>362.19</ele>
   </trkpt>
   <trkpt lat="37.807520000000004" lon="127.55575000000002">
    <ele>363.22</ele>
   </trkpt>
   <trkpt lat="37.80744" lon="127.55565000000001">
    <ele>363.77000000000004</ele>
   </trkpt>
   <trkpt lat="37.80738" lon="127.55548000000002">
    <ele>364.51000000000005</ele>
   </trkpt>
   <trkpt lat="37.80727" lon="127.55530000000002">
    <ele>365.69</ele>
   </trkpt>
   <trkpt lat="37.807190000000006" lon="127.55525000000002">
    <ele>366.52</ele>
   </trkpt>
   <trkpt lat="37.80702" lon="127.55526">
    <ele>367.41</ele>
   </trkpt>
   <trkpt lat="37.8068" lon="127.55506000000001">
    <ele>368.45000000000005</ele>
   </trkpt>
   <trkpt lat="37.806700000000006" lon="127.55503000000002">
    <ele>368.79</ele>
   </trkpt>
   <trkpt lat="37.80662" lon="127.55509">
    <ele>369.07</ele>
   </trkpt>
   <trkpt lat="37.80653" lon="127.55519000000001">
    <ele>369.82000000000005</ele>
   </trkpt>
   <trkpt lat="37.80646" lon="127.55523000000001">
    <ele>369.82000000000005</ele>
   </trkpt>
   <trkpt lat="37.806270000000005" lon="127.55520000000001">
    <ele>370.82000000000005</ele>
   </trkpt>
   <trkpt lat="37.806110000000004" lon="127.55521000000002">
    <ele>371.39000000000004</ele>
   </trkpt>
   <trkpt lat="37.80599" lon="127.55524000000001">
    <ele>371.63</ele>
   </trkpt>
   <trkpt lat="37.805890000000005" lon="127.55530000000002">
    <ele>371.9</ele>
   </trkpt>
   <trkpt lat="37.80575" lon="127.55555000000001">
    <ele>372.55000000000007</ele>
   </trkpt>
   <trkpt lat="37.8057" lon="127.55558">
    <ele>372.55000000000007</ele>
   </trkpt>
   <trkpt lat="37.8055" lon="127.55555000000001">
    <ele>374.82000000000005</ele>
   </trkpt>
   <trkpt lat="37.80538" lon="127.55557000000002">
    <ele>374.82000000000005</ele>
   </trkpt>
   <trkpt lat="37.805240000000005" lon="127.55567">
    <ele>377.18</ele>
   </trkpt>
   <trkpt lat="37.80505" lon="127.55590000000001">
    <ele>378.09000000000003</ele>
   </trkpt>
   <trkpt lat="37.80496" lon="127.55594">
    <ele>379.24</ele>
   </trkpt>
   <trkpt lat="37.80462" lon="127.55595000000001">
    <ele>381.74</ele>
   </trkpt>
   <trkpt lat="37.804500000000004" lon="127.55593">
    <ele>382.21000000000004</ele>
   </trkpt>
   <trkpt lat="37.804230000000004" lon="127.55576">
    <ele>383.37000000000006</ele>
   </trkpt>
   <trkpt lat="37.80416" lon="127.55574000000001">
    <ele>383.84000000000003</ele>
   </trkpt>
   <trkpt lat="37.80391" lon="127.55584">
    <ele>385.19</ele>
   </trkpt>
   <trkpt lat="37.80378" lon="127.55578000000001">
    <ele>386.36</ele>
   </trkpt>
   <trkpt lat="37.803540000000005" lon="127.55572000000001">
    <ele>387.0</ele>
   </trkpt>
   <trkpt lat="37.80346" lon="127.55564000000001">
    <ele>387.17</ele>
   </trkpt>
   <trkpt lat="37.80317" lon="127.55519000000001">
    <ele>389.79</ele>
   </trkpt>
   <trkpt lat="37.80285000000001" lon="127.55512000000002">
    <ele>391.84000000000003</ele>
   </trkpt>
   <trkpt lat="37.80279" lon="127.55516000000001">
    <ele>391.95</ele>
   </trkpt>
   <trkpt lat="37.80275" lon="127.55524000000001">
    <ele>391.95</ele>
   </trkpt>
   <trkpt lat="37.802760000000006" lon="127.55543000000002">
    <ele>392.59000000000003</ele>
   </trkpt>
   <trkpt lat="37.802800000000005" lon="127.55561000000002">
    <ele>392.92</ele>
   </trkpt>
   <trkpt lat="37.80279" lon="127.55573000000001">
    <ele>393.46000000000004</ele>
   </trkpt>
   <trkpt lat="37.80275" lon="127.55586000000001">
    <ele>393.76000000000005</ele>
   </trkpt>
   <trkpt lat="37.80272" lon="127.55588000000002">
    <ele>393.76000000000005</ele>
   </trkpt>
   <trkpt lat="37.80252" lon="127.55604000000001">
    <ele>394.8</ele>
   </trkpt>
   <trkpt lat="37.80241" lon="127.55608000000001">
    <ele>396.5400000000001</ele>
   </trkpt>
   <trkpt lat="37.802350000000004" lon="127.55618000000001">
    <ele>396.84000000000003</ele>
   </trkpt>
   <trkpt lat="37.80234" lon="127.55631000000001">
    <ele>397.32</ele>
   </trkpt>
   <trkpt lat="37.80241" lon="127.55642000000002">
    <ele>397.62</ele>
   </trkpt>
   <trkpt lat="37.80256" lon="127.55648000000001">
    <ele>397.9800000000001</ele>
   </trkpt>
   <trkpt lat="37.80272" lon="127.55658000000001">
    <ele>398.65000000000003</ele>
   </trkpt>
   <trkpt lat="37.802800000000005" lon="127.55669000000002">
    <ele>398.77</ele>
   </trkpt>
   <trkpt lat="37.80281" lon="127.55684000000001">
    <ele>398.9800000000001</ele>
   </trkpt>
   <trkpt lat="37.80275" lon="127.55699000000001">
    <ele>399.52000000000004</ele>
   </trkpt>
   <trkpt lat="37.80268" lon="127.5571">
    <ele>399.52000000000004</ele>
   </trkpt>
   <trkpt lat="37.802550000000004" lon="127.55720000000001">
    <ele>399.97</ele>
   </trkpt>
   <trkpt lat="37.802220000000005" lon="127.55740000000002">
    <ele>401.0</ele>
   </trkpt>
   <trkpt lat="37.802110000000006" lon="127.55751000000001">
    <ele>401.57000000000005</ele>
   </trkpt>
   <trkpt lat="37.802060000000004" lon="127.55763000000002">
    <ele>401.8</ele>
   </trkpt>
   <trkpt lat="37.8021" lon="127.55778000000001">
    <ele>402.16</ele>
   </trkpt>
   <trkpt lat="37.80219" lon="127.55789000000001">
    <ele>402.53000000000003</ele>
   </trkpt>
   <trkpt lat="37.802260000000004" lon="127.55804">
    <ele>403.07000000000005</ele>
   </trkpt>
   <trkpt lat="37.80223" lon="127.55817">
    <ele>403.51000000000005</ele>
   </trkpt>
   <trkpt lat="37.801750000000006" lon="127.55867">
    <ele>407.13000000000005</ele>
   </trkpt>
   <trkpt lat="37.80169" lon="127.55882000000001">
    <ele>407.41</ele>
   </trkpt>
   <trkpt lat="37.801680000000005" lon="127.55891000000001">
    <ele>407.55</ele>
   </trkpt>
   <trkpt lat="37.801730000000006" lon="127.55903">
    <ele>407.55</ele>
   </trkpt>
   <trkpt lat="37.801820000000006" lon="127.55911">
    <ele>407.63000000000005</ele>
   </trkpt>
   <trkpt lat="37.802020000000006" lon="127.55916">
    <ele>408.03000000000003</ele>
   </trkpt>
   <trkpt lat="37.80218" lon="127.55929">
    <ele>408.81</ele>
   </trkpt>
   <trkpt lat="37.802350000000004" lon="127.55926000000001">
    <ele>409.14000000000004</ele>
   </trkpt>
   <trkpt lat="37.80241" lon="127.55930000000001">
    <ele>412.0</ele>
   </trkpt>
   <trkpt lat="37.80248" lon="127.55940000000001">
    <ele>412.0</ele>
   </trkpt>
   <trkpt lat="37.802620000000005" lon="127.5597">
    <ele>413.19000000000005</ele>
   </trkpt>
   <trkpt lat="37.80275" lon="127.55980000000001">
    <ele>413.81</ele>
   </trkpt>
   <trkpt lat="37.803020000000004" lon="127.55978">
    <ele>414.0</ele>
   </trkpt>
   <trkpt lat="37.803090000000005" lon="127.55987">
    <ele>413.97</ele>
   </trkpt>
   <trkpt lat="37.803020000000004" lon="127.56035000000001">
    <ele>413.62000000000006</ele>
   </trkpt>
   <trkpt lat="37.80293" lon="127.56047000000001">
    <ele>413.2</ele>
   </trkpt>
   <trkpt lat="37.80277" lon="127.56055">
    <ele>412.81</ele>
   </trkpt>
   <trkpt lat="37.802530000000004" lon="127.56070000000001">
    <ele>412.22</ele>
   </trkpt>
   <trkpt lat="37.801950000000005" lon="127.5609">
    <ele>410.54</ele>
   </trkpt>
   <trkpt lat="37.801820000000006" lon="127.561">
    <ele>410.24000000000007</ele>
   </trkpt>
   <trkpt lat="37.80176" lon="127.56117">
    <ele>409.93</ele>
   </trkpt>
   <trkpt lat="37.801790000000004" lon="127.56132000000001">
    <ele>409.64000000000004</ele>
   </trkpt>
   <trkpt lat="37.80196" lon="127.56165000000001">
    <ele>408.08000000000004</ele>
   </trkpt>
   <trkpt lat="37.80201" lon="127.56179000000002">
    <ele>407.76</ele>
   </trkpt>
   <trkpt lat="37.802" lon="127.56189">
    <ele>407.48</ele>
   </trkpt>
   <trkpt lat="37.801750000000006" lon="127.56203000000001">
    <ele>406.88</ele>
   </trkpt>
   <trkpt lat="37.801640000000006" lon="127.56219000000002">
    <ele>406.30000000000007</ele>
   </trkpt>
   <trkpt lat="37.801570000000005" lon="127.56236000000001">
    <ele>404.99</ele>
   </trkpt>
   <trkpt lat="37.80162" lon="127.56252">
    <ele>404.76</ele>
   </trkpt>
   <trkpt lat="37.80196" lon="127.56303000000001">
    <ele>400.13000000000005</ele>
   </trkpt>
   <trkpt lat="37.80196" lon="127.56315000000001">
    <ele>400.13000000000005</ele>
   </trkpt>
   <trkpt lat="37.80187" lon="127.56324000000001">
    <ele>399.08000000000004</ele>
   </trkpt>
   <trkpt lat="37.801500000000004" lon="127.56335000000001">
    <ele>396.74</ele>
   </trkpt>
   <trkpt lat="37.801370000000006" lon="127.56336000000002">
    <ele>396.21</ele>
   </trkpt>
   <trkpt lat="37.80127" lon="127.56329000000001">
    <ele>395.86</ele>
   </trkpt>
   <trkpt lat="37.80095" lon="127.56294000000001">
    <ele>394.97</ele>
   </trkpt>
   <trkpt lat="37.80082" lon="127.56287">
    <ele>394.86</ele>
   </trkpt>
   <trkpt lat="37.800250000000005" lon="127.56286000000001">
    <ele>393.21000000000004</ele>
   </trkpt>
   <trkpt lat="37.79992" lon="127.56294000000001">
    <ele>391.35</ele>
   </trkpt>
   <trkpt lat="37.799800000000005" lon="127.56305">
    <ele>390.47</ele>
   </trkpt>
   <trkpt lat="37.79974" lon="127.56320000000001">
    <ele>390.47</ele>
   </trkpt>
   <trkpt lat="37.7997" lon="127.56355">
    <ele>388.98</ele>
   </trkpt>
   <trkpt lat="37.799640000000004" lon="127.56361000000001">
    <ele>388.19000000000005</ele>
   </trkpt>
   <trkpt lat="37.79939" lon="127.56370000000001">
    <ele>386.91</ele>
   </trkpt>
   <trkpt lat="37.799290000000006" lon="127.56380000000001">
    <ele>386.51</ele>
   </trkpt>
   <trkpt lat="37.79914" lon="127.56405000000001">
    <ele>385.62</ele>
   </trkpt>
   <trkpt lat="37.799080000000004" lon="127.56408">
    <ele>385.24</ele>
   </trkpt>
   <trkpt lat="37.79900000000001" lon="127.56407000000002">
    <ele>385.24</ele>
   </trkpt>
   <trkpt lat="37.79892" lon="127.56402000000001">
    <ele>382.68</ele>
   </trkpt>
   <trkpt lat="37.798480000000005" lon="127.56367000000002">
    <ele>378.8</ele>
   </trkpt>
   <trkpt lat="37.798390000000005" lon="127.56366000000001">
    <ele>377.84</ele>
   </trkpt>
   <trkpt lat="37.798300000000005" lon="127.56369000000001">
    <ele>377.49000000000007</ele>
   </trkpt>
   <trkpt lat="37.79818" lon="127.56379000000001">
    <ele>375.96000000000004</ele>
   </trkpt>
   <trkpt lat="37.798080000000006" lon="127.56399">
    <ele>374.52000000000004</ele>
   </trkpt>
   <trkpt lat="37.79797000000001" lon="127.56413">
    <ele>372.76000000000005</ele>
   </trkpt>
   <trkpt lat="37.79766" lon="127.56437000000001">
    <ele>370.23</ele>
   </trkpt>
   <trkpt lat="37.79759" lon="127.56437000000001">
    <ele>370.23</ele>
   </trkpt>
   <trkpt lat="37.797360000000005" lon="127.56432000000001">
    <ele>368.7300000000001</ele>
   </trkpt>
   <trkpt lat="37.79728" lon="127.56433000000001">
    <ele>368.50000000000006</ele>
   </trkpt>
   <trkpt lat="37.79724" lon="127.56437000000001">
    <ele>368.2300000000001</ele>
   </trkpt>
   <trkpt lat="37.79719" lon="127.56453">
    <ele>366.88000000000005</ele>
   </trkpt>
   <trkpt lat="37.797160000000005" lon="127.56474000000001">
    <ele>365.74</ele>
   </trkpt>
   <trkpt lat="37.79697" lon="127.56522000000001">
    <ele>362.91</ele>
   </trkpt>
   <trkpt lat="37.79697" lon="127.56557000000001">
    <ele>361.19</ele>
   </trkpt>
   <trkpt lat="37.796940000000006" lon="127.56566000000001">
    <ele>361.19</ele>
   </trkpt>
   <trkpt lat="37.79674" lon="127.56584000000001">
    <ele>359.3</ele>
   </trkpt>
   <trkpt lat="37.796690000000005" lon="127.56600000000002">
    <ele>358.48</ele>
   </trkpt>
   <trkpt lat="37.796730000000004" lon="127.56614">
    <ele>357.62000000000006</ele>
   </trkpt>
   <trkpt lat="37.79679" lon="127.56623">
    <ele>356.65000000000003</ele>
   </trkpt>
   <trkpt lat="37.79677" lon="127.56636000000002">
    <ele>356.18000000000006</ele>
   </trkpt>
   <trkpt lat="37.796730000000004" lon="127.56642000000001">
    <ele>356.18000000000006</ele>
   </trkpt>
   <trkpt lat="37.79672" lon="127.56645000000002">
    <ele>356.18000000000006</ele>
   </trkpt>
   <trkpt lat="37.7965" lon="127.56653000000001">
    <ele>354.74000000000007</ele>
   </trkpt>
   <trkpt lat="37.796350000000004" lon="127.56662000000001">
    <ele>354.31</ele>
   </trkpt>
   <trkpt lat="37.79628" lon="127.56703000000002">
    <ele>352.88</ele>
   </trkpt>
   <trkpt lat="37.79627" lon="127.56735">
    <ele>350.89000000000004</ele>
   </trkpt>
   <trkpt lat="37.796290000000006" lon="127.56749">
    <ele>350.61</ele>
   </trkpt>
   <trkpt lat="37.79645" lon="127.56761000000002">
    <ele>349.88</ele>
   </trkpt>
   <trkpt lat="37.796620000000004" lon="127.56768000000001">
    <ele>348.74000000000007</ele>
   </trkpt>
   <trkpt lat="37.796780000000005" lon="127.56782000000001">
    <ele>347.7</ele>
   </trkpt>
   <trkpt lat="37.796980000000005" lon="127.56809000000001">
    <ele>345.68000000000006</ele>
   </trkpt>
   <trkpt lat="37.797090000000004" lon="127.56819000000002">
    <ele>344.17</ele>
   </trkpt>
   <trkpt lat="37.79712" lon="127.56830000000001">
    <ele>343.53</ele>
   </trkpt>
   <trkpt lat="37.797160000000005" lon="127.56885000000001">
    <ele>341.68</ele>
   </trkpt>
   <trkpt lat="37.797000000000004" lon="127.56930000000001">
    <ele>339.90000000000003</ele>
   </trkpt>
   <trkpt lat="37.79701" lon="127.56951000000001">
    <ele>339.22</ele>
   </trkpt>
   <trkpt lat="37.79728" lon="127.56998000000002">
    <ele>337.41</ele>
   </trkpt>
   <trkpt lat="37.797430000000006" lon="127.57013">
    <ele>336.54</ele>
   </trkpt>
   <trkpt lat="37.79758" lon="127.57035">
    <ele>335.16</ele>
   </trkpt>
   <trkpt lat="37.79771" lon="127.57048">
    <ele>333.95000000000005</ele>
   </trkpt>
   <trkpt lat="37.79775" lon="127.57065000000001">
    <ele>333.43</ele>
   </trkpt>
   <trkpt lat="37.797740000000005" lon="127.57087000000001">
    <ele>331.77</ele>
   </trkpt>
   <trkpt lat="37.79784" lon="127.57114000000001">
    <ele>330.64000000000004</ele>
   </trkpt>
   <trkpt lat="37.797920000000005" lon="127.57150000000001">
    <ele>329.46000000000004</ele>
   </trkpt>
   <trkpt lat="37.798" lon="127.57162000000001">
    <ele>328.32</ele>
   </trkpt>
   <trkpt lat="37.79797000000001" lon="127.57178">
    <ele>328.09000000000003</ele>
   </trkpt>
   <trkpt lat="37.79778" lon="127.57203000000001">
    <ele>325.70000000000005</ele>
   </trkpt>
   <trkpt lat="37.797700000000006" lon="127.57237">
    <ele>324.59999999999997</ele>
   </trkpt>
   <trkpt lat="37.79775" lon="127.57265000000001">
    <ele>323.27</ele>
   </trkpt>
   <trkpt lat="37.797740000000005" lon="127.57285000000002">
    <ele>322.90000000000003</ele>
   </trkpt>
   <trkpt lat="37.797470000000004" lon="127.57318000000001">
    <ele>321.31000000000006</ele>
   </trkpt>
   <trkpt lat="37.79742" lon="127.57319000000001">
    <ele>321.12</ele>
   </trkpt>
   <trkpt lat="37.797380000000004" lon="127.57315000000001">
    <ele>321.12</ele>
   </trkpt>
   <trkpt lat="37.79728" lon="127.57294000000002">
    <ele>320.5</ele>
   </trkpt>
   <trkpt lat="37.797180000000004" lon="127.57284000000001">
    <ele>319.39</ele>
   </trkpt>
   <trkpt lat="37.797070000000005" lon="127.57279000000001">
    <ele>318.38000000000005</ele>
   </trkpt>
   <trkpt lat="37.796510000000005" lon="127.57276000000002">
    <ele>314.66</ele>
   </trkpt>
   <trkpt lat="37.796420000000005" lon="127.57264">
    <ele>314.66</ele>
   </trkpt>
   <trkpt lat="37.79641" lon="127.57245">
    <ele>311.4</ele>
   </trkpt>
   <trkpt lat="37.79646" lon="127.57223">
    <ele>310.71000000000004</ele>
   </trkpt>
   <trkpt lat="37.79654" lon="127.57201">
    <ele>309.09000000000003</ele>
   </trkpt>
   <trkpt lat="37.796760000000006" lon="127.57161">
    <ele>306.67</ele>
   </trkpt>
   <trkpt lat="37.79677" lon="127.57151">
    <ele>306.13</ele>
   </trkpt>
   <trkpt lat="37.796690000000005" lon="127.57129">
    <ele>304.99</ele>
   </trkpt>
   <trkpt lat="37.79656000000001" lon="127.57114000000001">
    <ele>303.98</ele>
   </trkpt>
   <trkpt lat="37.7965" lon="127.57111">
    <ele>303.98</ele>
   </trkpt>
   <trkpt lat="37.79643" lon="127.57111">
    <ele>303.98</ele>
   </trkpt>
   <trkpt lat="37.79621" lon="127.57126000000001">
    <ele>302.46</ele>
   </trkpt>
   <trkpt lat="37.796020000000006" lon="127.57132000000001">
    <ele>300.94000000000005</ele>
   </trkpt>
   <trkpt lat="37.795910000000006" lon="127.57126000000001">
    <ele>300.94000000000005</ele>
   </trkpt>
   <trkpt lat="37.79583" lon="127.57112000000001">
    <ele>299.14</ele>
   </trkpt>
   <trkpt lat="37.79574" lon="127.57082000000001">
    <ele>297.49</ele>
   </trkpt>
   <trkpt lat="37.795640000000006" lon="127.57034000000002">
    <ele>294.11</ele>
   </trkpt>
   <trkpt lat="37.795550000000006" lon="127.57028000000001">
    <ele>294.11</ele>
   </trkpt>
   <trkpt lat="37.79536" lon="127.57033000000001">
    <ele>293.66</ele>
   </trkpt>
   <trkpt lat="37.79527" lon="127.57026">
    <ele>292.82</ele>
   </trkpt>
   <trkpt lat="37.79511" lon="127.57007000000002">
    <ele>291.84999999999997</ele>
   </trkpt>
   <trkpt lat="37.79502" lon="127.57006000000001">
    <ele>291.44000000000005</ele>
   </trkpt>
   <trkpt lat="37.79493" lon="127.57021000000002">
    <ele>290.81</ele>
   </trkpt>
   <trkpt lat="37.794850000000004" lon="127.57073000000001">
    <ele>291.6</ele>
   </trkpt>
   <trkpt lat="37.79475" lon="127.57087000000001">
    <ele>291.84999999999997</ele>
   </trkpt>
   <trkpt lat="37.79468" lon="127.57108000000001">
    <ele>292.28000000000003</ele>
   </trkpt>
   <trkpt lat="37.79475" lon="127.57132000000001">
    <ele>293.25</ele>
   </trkpt>
   <trkpt lat="37.79475" lon="127.57153000000001">
    <ele>294.00000000000006</ele>
   </trkpt>
   <trkpt lat="37.79467" lon="127.57169">
    <ele>294.13</ele>
   </trkpt>
   <trkpt lat="37.794520000000006" lon="127.57187">
    <ele>294.29</ele>
   </trkpt>
   <trkpt lat="37.79444" lon="127.57203000000001">
    <ele>294.66</ele>
   </trkpt>
   <trkpt lat="37.79433" lon="127.57204000000002">
    <ele>294.66</ele>
   </trkpt>
   <trkpt lat="37.794230000000006" lon="127.57198000000001">
    <ele>295.17</ele>
   </trkpt>
   <trkpt lat="37.79412000000001" lon="127.57188000000001">
    <ele>295.44000000000005</ele>
   </trkpt>
   <trkpt lat="37.79383" lon="127.57175000000001">
    <ele>297.25</ele>
   </trkpt>
   <trkpt lat="37.79327" lon="127.57126000000001">
    <ele>301.36</ele>
   </trkpt>
   <trkpt lat="37.79314" lon="127.57123000000001">
    <ele>301.79</ele>
   </trkpt>
   <trkpt lat="37.79309000000001" lon="127.57139000000001">
    <ele>302.26000000000005</ele>
   </trkpt>
   <trkpt lat="37.79307" lon="127.57167000000001">
    <ele>303.20000000000005</ele>
   </trkpt>
   <trkpt lat="37.7931" lon="127.57190000000001">
    <ele>304.22</ele>
   </trkpt>
   <trkpt lat="37.79323" lon="127.57233000000001">
    <ele>304.96</ele>
   </trkpt>
   <trkpt lat="37.793350000000004" lon="127.57264">
    <ele>305.44000000000005</ele>
   </trkpt>
   <trkpt lat="37.793330000000005" lon="127.57281">
    <ele>305.99</ele>
   </trkpt>
   <trkpt lat="37.79323" lon="127.57292000000001">
    <ele>306.3</ele>
   </trkpt>
   <trkpt lat="37.79314" lon="127.57306000000001">
    <ele>306.47</ele>
   </trkpt>
   <trkpt lat="37.7931" lon="127.57320000000001">
    <ele>306.72</ele>
   </trkpt>
   <trkpt lat="37.79316" lon="127.57333000000001">
    <ele>307.06</ele>
   </trkpt>
   <trkpt lat="37.79339" lon="127.57356000000001">
    <ele>308.28</ele>
   </trkpt>
   <trkpt lat="37.793400000000005" lon="127.57372000000001">
    <ele>309.12</ele>
   </trkpt>
   <trkpt lat="37.79332" lon="127.5738">
    <ele>309.51</ele>
   </trkpt>
   <trkpt lat="37.79261" lon="127.57425">
    <ele>312.63</ele>
   </trkpt>
   <trkpt lat="37.792550000000006" lon="127.57435000000001">
    <ele>312.74</ele>
   </trkpt>
   <trkpt lat="37.79251" lon="127.57450000000001">
    <ele>312.85</ele>
   </trkpt>
   <trkpt lat="37.79254" lon="127.57466000000001">
    <ele>312.76000000000005</ele>
   </trkpt>
   <trkpt lat="37.79287" lon="127.57503000000001">
    <ele>312.01</ele>
   </trkpt>
   <trkpt lat="37.792930000000005" lon="127.57514">
    <ele>311.57</ele>
   </trkpt>
   <trkpt lat="37.79292" lon="127.57526000000001">
    <ele>310.99000000000007</ele>
   </trkpt>
   <trkpt lat="37.79281" lon="127.57533000000001">
    <ele>309.37</ele>
   </trkpt>
   <trkpt lat="37.79245" lon="127.57547000000001">
    <ele>308.22</ele>
   </trkpt>
   <trkpt lat="37.79233" lon="127.57555">
    <ele>306.92</ele>
   </trkpt>
   <trkpt lat="37.79227" lon="127.57574000000001">
    <ele>305.98</ele>
   </trkpt>
   <trkpt lat="37.792320000000004" lon="127.57586">
    <ele>305.4</ele>
   </trkpt>
   <trkpt lat="37.79263" lon="127.57625000000002">
    <ele>302.35</ele>
   </trkpt>
   <trkpt lat="37.79271" lon="127.57642000000001">
    <ele>302.35</ele>
   </trkpt>
   <trkpt lat="37.79265" lon="127.57663000000001">
    <ele>299.19</ele>
   </trkpt>
   <trkpt lat="37.792570000000005" lon="127.57676000000001">
    <ele>299.19</ele>
   </trkpt>
   <trkpt lat="37.79245" lon="127.57682000000001">
    <ele>299.19</ele>
   </trkpt>
   <trkpt lat="37.79223" lon="127.57673000000001">
    <ele>297.78000000000003</ele>
   </trkpt>
   <trkpt lat="37.792100000000005" lon="127.57671">
    <ele>297.3</ele>
   </trkpt>
   <trkpt lat="37.792010000000005" lon="127.57677000000001">
    <ele>297.3</ele>
   </trkpt>
   <trkpt lat="37.79193" lon="127.57690000000001">
    <ele>296.00000000000006</ele>
   </trkpt>
   <trkpt lat="37.79186" lon="127.57708000000001">
    <ele>294.85</ele>
   </trkpt>
   <trkpt lat="37.79177" lon="127.57718000000001">
    <ele>294.33000000000004</ele>
   </trkpt>
   <trkpt lat="37.79137" lon="127.57732000000001">
    <ele>292.76</ele>
   </trkpt>
   <trkpt lat="37.79126" lon="127.57742">
    <ele>291.69</ele>
   </trkpt>
   <trkpt lat="37.791180000000004" lon="127.57761">
    <ele>290.37</ele>
   </trkpt>
   <trkpt lat="37.79115" lon="127.57780000000001">
    <ele>289.54</ele>
   </trkpt>
   <trkpt lat="37.791160000000005" lon="127.57803000000001">
    <ele>288.74</ele>
   </trkpt>
   <trkpt lat="37.79108" lon="127.57817000000001">
    <ele>287.96000000000004</ele>
   </trkpt>
   <trkpt lat="37.790960000000005" lon="127.57816000000001">
    <ele>286.94</ele>
   </trkpt>
   <trkpt lat="37.790580000000006" lon="127.57793000000001">
    <ele>281.79</ele>
   </trkpt>
   <trkpt lat="37.79046" lon="127.57793000000001">
    <ele>281.14</ele>
   </trkpt>
   <trkpt lat="37.79036" lon="127.57798000000001">
    <ele>280.63000000000005</ele>
   </trkpt>
   <trkpt lat="37.790200000000006" lon="127.57813000000002">
    <ele>279.75</ele>
   </trkpt>
   <trkpt lat="37.790110000000006" lon="127.57830000000001">
    <ele>279.23</ele>
   </trkpt>
   <trkpt lat="37.79008" lon="127.57847000000001">
    <ele>277.84000000000003</ele>
   </trkpt>
   <trkpt lat="37.790130000000005" lon="127.57864000000001">
    <ele>276.48</ele>
   </trkpt>
   <trkpt lat="37.790130000000005" lon="127.57876000000002">
    <ele>276.17</ele>
   </trkpt>
   <trkpt lat="37.79008" lon="127.57884000000001">
    <ele>275.89000000000004</ele>
   </trkpt>
   <trkpt lat="37.789770000000004" lon="127.57891000000001">
    <ele>274.40000000000003</ele>
   </trkpt>
   <trkpt lat="37.78969" lon="127.57889000000002">
    <ele>274.04</ele>
   </trkpt>
   <trkpt lat="37.789620000000006" lon="127.57883000000001">
    <ele>273.82</ele>
   </trkpt>
   <trkpt lat="37.789460000000005" lon="127.57853000000001">
    <ele>271.85</ele>
   </trkpt>
   <trkpt lat="37.78931" lon="127.57843000000001">
    <ele>271.63000000000005</ele>
   </trkpt>
   <trkpt lat="37.789210000000004" lon="127.57840000000002">
    <ele>270.90000000000003</ele>
   </trkpt>
   <trkpt lat="37.78911" lon="127.57842000000001">
    <ele>270.48</ele>
   </trkpt>
   <trkpt lat="37.789" lon="127.57847000000001">
    <ele>270.3</ele>
   </trkpt>
   <trkpt lat="37.788880000000006" lon="127.57849000000002">
    <ele>269.7</ele>
   </trkpt>
   <trkpt lat="37.78878" lon="127.57837">
    <ele>268.97</ele>
   </trkpt>
   <trkpt lat="37.78873" lon="127.57816000000001">
    <ele>268.34000000000003</ele>
   </trkpt>
   <trkpt lat="37.78875" lon="127.57799000000001">
    <ele>267.78000000000003</ele>
   </trkpt>
   <trkpt lat="37.78886" lon="127.57776000000001">
    <ele>267.19000000000005</ele>
   </trkpt>
   <trkpt lat="37.78889" lon="127.57762000000001">
    <ele>266.70000000000005</ele>
   </trkpt>
   <trkpt lat="37.78886" lon="127.57751">
    <ele>266.70000000000005</ele>
   </trkpt>
   <trkpt lat="37.7886" lon="127.57721000000001">
    <ele>264.72</ele>
   </trkpt>
   <trkpt lat="37.788500000000006" lon="127.57704000000001">
    <ele>263.55</ele>
   </trkpt>
   <trkpt lat="37.78851" lon="127.57689">
    <ele>262.93</ele>
   </trkpt>
   <trkpt lat="37.788590000000006" lon="127.57664000000001">
    <ele>261.22</ele>
   </trkpt>
   <trkpt lat="37.78871" lon="127.57643000000002">
    <ele>260.59999999999997</ele>
   </trkpt>
   <trkpt lat="37.788970000000006" lon="127.57613">
    <ele>257.86</ele>
   </trkpt>
   <trkpt lat="37.789060000000006" lon="127.57593000000001">
    <ele>257.01</ele>
   </trkpt>
   <trkpt lat="37.789260000000006" lon="127.57557000000001">
    <ele>253.52</ele>
   </trkpt>
   <trkpt lat="37.78934" lon="127.57540000000002">
    <ele>252.76000000000005</ele>
   </trkpt>
   <trkpt lat="37.78929" lon="127.57525000000001">
    <ele>252.57000000000002</ele>
   </trkpt>
   <trkpt lat="37.78896" lon="127.57519">
    <ele>253.84</ele>
   </trkpt>
   <trkpt lat="37.78871" lon="127.57518000000002">
    <ele>255.25000000000003</ele>
   </trkpt>
   <trkpt lat="37.78853" lon="127.57515000000001">
    <ele>256.36</ele>
   </trkpt>
   <trkpt lat="37.788380000000004" lon="127.57521000000001">
    <ele>256.87000000000006</ele>
   </trkpt>
   <trkpt lat="37.7882" lon="127.57542000000001">
    <ele>258.70000000000005</ele>
   </trkpt>
   <trkpt lat="37.787850000000006" lon="127.57563">
    <ele>259.21</ele>
   </trkpt>
   <trkpt lat="37.78773" lon="127.57565000000001">
    <ele>259.0</ele>
   </trkpt>
   <trkpt lat="37.78763" lon="127.57556000000001">
    <ele>258.94</ele>
   </trkpt>
   <trkpt lat="37.787510000000005" lon="127.57535000000001">
    <ele>258.93</ele>
   </trkpt>
   <trkpt lat="37.78735" lon="127.57488000000001">
    <ele>259.71</ele>
   </trkpt>
   <trkpt lat="37.78726" lon="127.57477000000002">
    <ele>259.71</ele>
   </trkpt>
   <trkpt lat="37.78698" lon="127.57456">
    <ele>260.49</ele>
   </trkpt>
   <trkpt lat="37.786770000000004" lon="127.57453000000001">
    <ele>261.15000000000003</ele>
   </trkpt>
   <trkpt lat="37.78667" lon="127.57456">
    <ele>261.15000000000003</ele>
   </trkpt>
   <trkpt lat="37.786620000000006" lon="127.57466000000001">
    <ele>261.35</ele>
   </trkpt>
   <trkpt lat="37.78669" lon="127.57497000000001">
    <ele>262.31000000000006</ele>
   </trkpt>
   <trkpt lat="37.786680000000004" lon="127.57512000000001">
    <ele>262.82</ele>
   </trkpt>
   <trkpt lat="37.786570000000005" lon="127.57540000000002">
    <ele>263.78000000000003</ele>
   </trkpt>
   <trkpt lat="37.786590000000004" lon="127.57555">
    <ele>265.17</ele>
   </trkpt>
   <trkpt lat="37.786730000000006" lon="127.57575000000001">
    <ele>265.83</ele>
   </trkpt>
   <trkpt lat="37.786820000000006" lon="127.57596000000001">
    <ele>266.26</ele>
   </trkpt>
   <trkpt lat="37.786820000000006" lon="127.57616000000002">
    <ele>266.81000000000006</ele>
   </trkpt>
   <trkpt lat="37.78678" lon="127.57631">
    <ele>267.02000000000004</ele>
   </trkpt>
   <trkpt lat="37.786860000000004" lon="127.57658">
    <ele>268.08000000000004</ele>
   </trkpt>
   <trkpt lat="37.78687" lon="127.57673000000001">
    <ele>268.45</ele>
   </trkpt>
   <trkpt lat="37.786840000000005" lon="127.57676000000001">
    <ele>268.45</ele>
   </trkpt>
   <trkpt lat="37.78685" lon="127.57675">
    <ele>268.45</ele>
   </trkpt>
   <trkpt lat="37.78679" lon="127.57685000000001">
    <ele>268.79</ele>
   </trkpt>
   <trkpt lat="37.786680000000004" lon="127.57693">
    <ele>268.79</ele>
   </trkpt>
   <trkpt lat="37.786640000000006" lon="127.57706000000002">
    <ele>269.58000000000004</ele>
   </trkpt>
   <trkpt lat="37.786730000000006" lon="127.57752">
    <ele>271.24</ele>
   </trkpt>
   <trkpt lat="37.78667" lon="127.57797000000001">
    <ele>272.15</ele>
   </trkpt>
   <trkpt lat="37.786730000000006" lon="127.57828">
    <ele>273.09</ele>
   </trkpt>
   <trkpt lat="37.78680000000001" lon="127.57847000000001">
    <ele>274.07000000000005</ele>
   </trkpt>
   <trkpt lat="37.786750000000005" lon="127.57862000000002">
    <ele>274.1</ele>
   </trkpt>
   <trkpt lat="37.78667" lon="127.57867000000002">
    <ele>273.77</ele>
   </trkpt>
   <trkpt lat="37.786440000000006" lon="127.57864000000001">
    <ele>272.2</ele>
   </trkpt>
   <trkpt lat="37.786280000000005" lon="127.57854">
    <ele>271.61</ele>
   </trkpt>
   <trkpt lat="37.78605" lon="127.57833000000001">
    <ele>270.85</ele>
   </trkpt>
   <trkpt lat="37.78591" lon="127.57827">
    <ele>270.62</ele>
   </trkpt>
   <trkpt lat="37.785680000000006" lon="127.57832">
    <ele>270.36</ele>
   </trkpt>
   <trkpt lat="37.785500000000006" lon="127.57827">
    <ele>269.92</ele>
   </trkpt>
   <trkpt lat="37.78522" lon="127.57814">
    <ele>268.7</ele>
   </trkpt>
   <trkpt lat="37.78506" lon="127.57794000000001">
    <ele>268.07000000000005</ele>
   </trkpt>
   <trkpt lat="37.78488" lon="127.57753000000001">
    <ele>266.83</ele>
   </trkpt>
   <trkpt lat="37.784780000000005" lon="127.57739000000001">
    <ele>266.13000000000005</ele>
   </trkpt>
   <trkpt lat="37.78461" lon="127.57734">
    <ele>265.54</ele>
   </trkpt>
   <trkpt lat="37.7845" lon="127.57735000000001">
    <ele>265.36</ele>
   </trkpt>
   <trkpt lat="37.78446" lon="127.57746000000002">
    <ele>265.31000000000006</ele>
   </trkpt>
   <trkpt lat="37.78459" lon="127.57788000000001">
    <ele>264.65</ele>
   </trkpt>
   <trkpt lat="37.78464" lon="127.57820000000001">
    <ele>263.72</ele>
   </trkpt>
   <trkpt lat="37.784780000000005" lon="127.57864000000001">
    <ele>262.6</ele>
   </trkpt>
   <trkpt lat="37.78484" lon="127.57897000000001">
    <ele>261.22</ele>
   </trkpt>
   <trkpt lat="37.78501" lon="127.57924000000001">
    <ele>259.82</ele>
   </trkpt>
   <trkpt lat="37.78522" lon="127.57951000000001">
    <ele>259.12</ele>
   </trkpt>
   <trkpt lat="37.785270000000004" lon="127.57964000000001">
    <ele>258.21</ele>
   </trkpt>
   <trkpt lat="37.78524" lon="127.57975">
    <ele>258.21</ele>
   </trkpt>
   <trkpt lat="37.78511" lon="127.57988000000002">
    <ele>257.69</ele>
   </trkpt>
   <trkpt lat="37.78501" lon="127.58007">
    <ele>257.46000000000004</ele>
   </trkpt>
   <trkpt lat="37.78486" lon="127.58026000000001">
    <ele>257.20000000000005</ele>
   </trkpt>
   <trkpt lat="37.784760000000006" lon="127.58028000000002">
    <ele>257.20000000000005</ele>
   </trkpt>
   <trkpt lat="37.78459" lon="127.5802">
    <ele>255.97000000000003</ele>
   </trkpt>
   <trkpt lat="37.784400000000005" lon="127.58007">
    <ele>255.43000000000004</ele>
   </trkpt>
   <trkpt lat="37.78428" lon="127.57991000000001">
    <ele>255.21000000000004</ele>
   </trkpt>
   <trkpt lat="37.784180000000006" lon="127.57984">
    <ele>255.07000000000002</ele>
   </trkpt>
   <trkpt lat="37.783910000000006" lon="127.57984">
    <ele>254.54000000000005</ele>
   </trkpt>
   <trkpt lat="37.78365" lon="127.57975">
    <ele>253.14000000000001</ele>
   </trkpt>
   <trkpt lat="37.783570000000005" lon="127.57982000000001">
    <ele>252.70000000000002</ele>
   </trkpt>
   <trkpt lat="37.783570000000005" lon="127.57997000000002">
    <ele>252.47000000000003</ele>
   </trkpt>
   <trkpt lat="37.7837" lon="127.58024">
    <ele>252.03000000000003</ele>
   </trkpt>
   <trkpt lat="37.78412" lon="127.58090000000001">
    <ele>249.82000000000002</ele>
   </trkpt>
   <trkpt lat="37.784180000000006" lon="127.58105">
    <ele>249.47000000000003</ele>
   </trkpt>
   <trkpt lat="37.784180000000006" lon="127.58121000000001">
    <ele>248.98</ele>
   </trkpt>
   <trkpt lat="37.78407" lon="127.58140000000002">
    <ele>247.49</ele>
   </trkpt>
   <trkpt lat="37.783910000000006" lon="127.58155000000001">
    <ele>245.78000000000003</ele>
   </trkpt>
   <trkpt lat="37.783770000000004" lon="127.58174000000001">
    <ele>244.26000000000002</ele>
   </trkpt>
   <trkpt lat="37.7836" lon="127.58182000000001">
    <ele>244.26000000000002</ele>
   </trkpt>
   <trkpt lat="37.7834" lon="127.58189000000002">
    <ele>241.67000000000002</ele>
   </trkpt>
   <trkpt lat="37.783060000000006" lon="127.58220000000001">
    <ele>240.17000000000002</ele>
   </trkpt>
   <trkpt lat="37.783030000000004" lon="127.58236000000001">
    <ele>240.29000000000002</ele>
   </trkpt>
   <trkpt lat="37.783100000000005" lon="127.58245000000001">
    <ele>240.65000000000003</ele>
   </trkpt>
   <trkpt lat="37.78347" lon="127.58256000000002">
    <ele>242.09000000000003</ele>
   </trkpt>
   <trkpt lat="37.78358" lon="127.58265000000002">
    <ele>241.99</ele>
   </trkpt>
   <trkpt lat="37.783620000000006" lon="127.5828">
    <ele>241.76000000000002</ele>
   </trkpt>
   <trkpt lat="37.783620000000006" lon="127.58296000000001">
    <ele>241.69</ele>
   </trkpt>
   <trkpt lat="37.783680000000004" lon="127.58310000000002">
    <ele>242.00000000000003</ele>
   </trkpt>
   <trkpt lat="37.783770000000004" lon="127.58311">
    <ele>242.52</ele>
   </trkpt>
   <trkpt lat="37.783910000000006" lon="127.58298">
    <ele>243.01000000000002</ele>
   </trkpt>
   <trkpt lat="37.784090000000006" lon="127.58272000000001">
    <ele>244.89000000000001</ele>
   </trkpt>
   <trkpt lat="37.784180000000006" lon="127.58254000000001">
    <ele>245.58</ele>
   </trkpt>
   <trkpt lat="37.784290000000006" lon="127.58248">
    <ele>246.19000000000003</ele>
   </trkpt>
   <trkpt lat="37.78441" lon="127.58251000000001">
    <ele>246.38000000000002</ele>
   </trkpt>
   <trkpt lat="37.784690000000005" lon="127.58272000000001">
    <ele>249.98</ele>
   </trkpt>
   <trkpt lat="37.78481" lon="127.58274000000002">
    <ele>249.98</ele>
   </trkpt>
   <trkpt lat="37.78488" lon="127.58263000000001">
    <ele>251.28</ele>
   </trkpt>
   <trkpt lat="37.78493" lon="127.58234000000002">
    <ele>253.41000000000003</ele>
   </trkpt>
   <trkpt lat="37.78499" lon="127.58233000000001">
    <ele>253.97000000000003</ele>
   </trkpt>
   <trkpt lat="37.784940000000006" lon="127.58279000000002">
    <ele>257.09999999999997</ele>
   </trkpt>
   <trkpt lat="37.78495" lon="127.58302">
    <ele>259.36</ele>
   </trkpt>
   <trkpt lat="37.78488" lon="127.58317000000001">
    <ele>260.33</ele>
   </trkpt>
   <trkpt lat="37.78477" lon="127.5832">
    <ele>262.52000000000004</ele>
   </trkpt>
   <trkpt lat="37.784690000000005" lon="127.58310000000002">
    <ele>263.12</ele>
   </trkpt>
   <trkpt lat="37.78452" lon="127.58295000000001">
    <ele>266.52000000000004</ele>
   </trkpt>
   <trkpt lat="37.784380000000006" lon="127.58291000000001">
    <ele>270.29</ele>
   </trkpt>
   <trkpt lat="37.78426" lon="127.58298">
    <ele>272.45000000000005</ele>
   </trkpt>
   <trkpt lat="37.784180000000006" lon="127.58316">
    <ele>274.45000000000005</ele>
   </trkpt>
   <trkpt lat="37.784150000000004" lon="127.58342">
    <ele>276.99</ele>
   </trkpt>
   <trkpt lat="37.78417" lon="127.58366000000001">
    <ele>279.19000000000005</ele>
   </trkpt>
   <trkpt lat="37.78416" lon="127.58387">
    <ele>280.13000000000005</ele>
   </trkpt>
   <trkpt lat="37.78421" lon="127.58406000000001">
    <ele>282.28000000000003</ele>
   </trkpt>
   <trkpt lat="37.784240000000004" lon="127.58428">
    <ele>284.36</ele>
   </trkpt>
   <trkpt lat="37.78419" lon="127.58440000000002">
    <ele>286.14</ele>
   </trkpt>
   <trkpt lat="37.783970000000004" lon="127.58445">
    <ele>288.82</ele>
   </trkpt>
   <trkpt lat="37.78385" lon="127.58457000000001">
    <ele>291.94000000000005</ele>
   </trkpt>
   <trkpt lat="37.783480000000004" lon="127.58538000000001">
    <ele>306.97</ele>
   </trkpt>
   <trkpt lat="37.78336" lon="127.58536000000001">
    <ele>308.37</ele>
   </trkpt>
   <trkpt lat="37.78325" lon="127.58521">
    <ele>310.63</ele>
   </trkpt>
   <trkpt lat="37.783170000000005" lon="127.58501000000001">
    <ele>312.48</ele>
   </trkpt>
   <trkpt lat="37.783100000000005" lon="127.58474000000001">
    <ele>314.8</ele>
   </trkpt>
   <trkpt lat="37.78307" lon="127.58455000000001">
    <ele>315.53000000000003</ele>
   </trkpt>
   <trkpt lat="37.782990000000005" lon="127.58446">
    <ele>317.09000000000003</ele>
   </trkpt>
   <trkpt lat="37.78285" lon="127.58446">
    <ele>317.64000000000004</ele>
   </trkpt>
   <trkpt lat="37.782500000000006" lon="127.58489000000002">
    <ele>320.74</ele>
   </trkpt>
   <trkpt lat="37.78235" lon="127.58502000000001">
    <ele>322.11</ele>
   </trkpt>
   <trkpt lat="37.78219" lon="127.58507000000002">
    <ele>324.59000000000003</ele>
   </trkpt>
   <trkpt lat="37.782070000000004" lon="127.58496000000001">
    <ele>325.94</ele>
   </trkpt>
   <trkpt lat="37.78201" lon="127.58474000000001">
    <ele>327.33</ele>
   </trkpt>
   <trkpt lat="37.78195" lon="127.58422000000002">
    <ele>328.97</ele>
   </trkpt>
   <trkpt lat="37.78188" lon="127.58409000000002">
    <ele>329.26000000000005</ele>
   </trkpt>
   <trkpt lat="37.78181" lon="127.58405">
    <ele>329.32</ele>
   </trkpt>
   <trkpt lat="37.781690000000005" lon="127.58409000000002">
    <ele>329.28000000000003</ele>
   </trkpt>
   <trkpt lat="37.78117" lon="127.58434000000001">
    <ele>328.02000000000004</ele>
   </trkpt>
   <trkpt lat="37.781000000000006" lon="127.58434000000001">
    <ele>328.24</ele>
   </trkpt>
   <trkpt lat="37.78092" lon="127.58428">
    <ele>328.59000000000003</ele>
   </trkpt>
   <trkpt lat="37.78085" lon="127.58388000000001">
    <ele>330.54</ele>
   </trkpt>
   <trkpt lat="37.78074" lon="127.5836">
    <ele>332.9800000000001</ele>
   </trkpt>
   <trkpt lat="37.780710000000006" lon="127.58339000000001">
    <ele>334.44</ele>
   </trkpt>
   <trkpt lat="37.780750000000005" lon="127.58316">
    <ele>336.98</ele>
   </trkpt>
   <trkpt lat="37.780710000000006" lon="127.58303000000001">
    <ele>338.06</ele>
   </trkpt>
   <trkpt lat="37.780350000000006" lon="127.58262">
    <ele>342.63000000000005</ele>
   </trkpt>
   <trkpt lat="37.780300000000004" lon="127.58249">
    <ele>346.58000000000004</ele>
   </trkpt>
   <trkpt lat="37.780370000000005" lon="127.58209000000001">
    <ele>350.39000000000004</ele>
   </trkpt>
   <trkpt lat="37.78049" lon="127.58192000000001">
    <ele>353.40999999999997</ele>
   </trkpt>
   <trkpt lat="37.78056" lon="127.58172">
    <ele>357.59000000000003</ele>
   </trkpt>
   <trkpt lat="37.78051" lon="127.58140000000002">
    <ele>363.24</ele>
   </trkpt>
   <trkpt lat="37.780440000000006" lon="127.58125000000001">
    <ele>363.24</ele>
   </trkpt>
   <trkpt lat="37.78029" lon="127.58113000000002">
    <ele>368.00000000000006</ele>
   </trkpt>
   <trkpt lat="37.78023" lon="127.58100000000002">
    <ele>368.00000000000006</ele>
   </trkpt>
   <trkpt lat="37.780300000000004" lon="127.58030000000001">
    <ele>377.51</ele>
   </trkpt>
   <trkpt lat="37.780390000000004" lon="127.57967000000001">
    <ele>380.82000000000005</ele>
   </trkpt>
   <trkpt lat="37.78029" lon="127.57954000000001">
    <ele>380.8</ele>
   </trkpt>
   <trkpt lat="37.78016" lon="127.57968000000001">
    <ele>381.46000000000004</ele>
   </trkpt>
   <trkpt lat="37.780120000000004" lon="127.57978000000001">
    <ele>382.38000000000005</ele>
   </trkpt>
   <trkpt lat="37.780120000000004" lon="127.58004000000001">
    <ele>385.76000000000005</ele>
   </trkpt>
   <trkpt lat="37.78005" lon="127.58035000000001">
    <ele>393.01</ele>
   </trkpt>
   <trkpt lat="37.779880000000006" lon="127.58068000000002">
    <ele>397.71</ele>
   </trkpt>
   <trkpt lat="37.779810000000005" lon="127.58104000000002">
    <ele>402.72</ele>
   </trkpt>
   <trkpt lat="37.77998" lon="127.58144000000001">
    <ele>401.94</ele>
   </trkpt>
   <trkpt lat="37.77998" lon="127.58245000000001">
    <ele>381.45</ele>
   </trkpt>
   <trkpt lat="37.77996" lon="127.58351">
    <ele>394.07000000000005</ele>
   </trkpt>
   <trkpt lat="37.77989" lon="127.58418">
    <ele>406.27000000000004</ele>
   </trkpt>
   <trkpt lat="37.77971" lon="127.58470000000001">
    <ele>426.12000000000006</ele>
   </trkpt>
   <trkpt lat="37.77975" lon="127.58497000000001">
    <ele>436.76000000000005</ele>
   </trkpt>
   <trkpt lat="37.78022000054089" lon="127.58532999770584">
    <ele>420.32</ele>
   </trkpt>
   <trkpt lat="37.78069" lon="127.58569000000001">
    <ele>418.35</ele>
   </trkpt>
   <trkpt lat="37.781110000000005" lon="127.58574000000002">
    <ele>421.1</ele>
   </trkpt>
   <trkpt lat="37.78148" lon="127.58593">
    <ele>411.96000000000004</ele>
   </trkpt>
   <trkpt lat="37.78175" lon="127.58616">
    <ele>406.76</ele>
   </trkpt>
   <trkpt lat="37.782050000000005" lon="127.58637000000002">
    <ele>406.89000000000004</ele>
   </trkpt>
   <trkpt lat="37.782590000000006" lon="127.58664000000002">
    <ele>418.44</ele>
   </trkpt>
   <trkpt lat="37.782920000000004" lon="127.58725000000001">
    <ele>427.69</ele>
   </trkpt>
   <trkpt lat="37.783030000000004" lon="127.58768">
    <ele>419.58</ele>
   </trkpt>
   <trkpt lat="37.783120000000004" lon="127.58848">
    <ele>425.08</ele>
   </trkpt>
   <trkpt lat="37.78313" lon="127.58893">
    <ele>426.76</ele>
   </trkpt>
   <trkpt lat="37.783500000000004" lon="127.58930000000001">
    <ele>412.33000000000004</ele>
   </trkpt>
   <trkpt lat="37.78369" lon="127.58959000000002">
    <ele>407.08000000000004</ele>
   </trkpt>
   <trkpt lat="37.78378" lon="127.59">
    <ele>402.26</ele>
   </trkpt>
   <trkpt lat="37.7839" lon="127.59030000000001">
    <ele>405.44</ele>
   </trkpt>
   <trkpt lat="37.784240000000004" lon="127.59062000000002">
    <ele>397.95000000000005</ele>
   </trkpt>
   <trkpt lat="37.78475" lon="127.59094">
    <ele>400.61</ele>
   </trkpt>
   <trkpt lat="37.784870000000005" lon="127.59106000000001">
    <ele>402.95000000000005</ele>
   </trkpt>
   <trkpt lat="37.78506" lon="127.59141000000001">
    <ele>401.26</ele>
   </trkpt>
   <trkpt lat="37.78526" lon="127.59158000000001">
    <ele>400.54</ele>
   </trkpt>
   <trkpt lat="37.78555" lon="127.59175">
    <ele>403.26</ele>
   </trkpt>
   <trkpt lat="37.78582" lon="127.59205000000001">
    <ele>407.08000000000004</ele>
   </trkpt>
   <trkpt lat="37.78595" lon="127.59229">
    <ele>412.53</ele>
   </trkpt>
   <trkpt lat="37.78624000000001" lon="127.59244000000001">
    <ele>416.92</ele>
   </trkpt>
   <trkpt lat="37.7866" lon="127.59276000000001">
    <ele>424.55</ele>
   </trkpt>
   <trkpt lat="37.7871" lon="127.59339000000001">
    <ele>450.86</ele>
   </trkpt>
   <trkpt lat="37.78723" lon="127.59365000000001">
    <ele>450.67</ele>
   </trkpt>
   <trkpt lat="37.787290000000006" lon="127.59368">
    <ele>450.67</ele>
   </trkpt>
   <trkpt lat="37.78743" lon="127.59371000000002">
    <ele>447.16</ele>
   </trkpt>
   <trkpt lat="37.787760000000006" lon="127.59399">
    <ele>445.59000000000003</ele>
   </trkpt>
   <trkpt lat="37.788380000000004" lon="127.59417">
    <ele>454.52000000000004</ele>
   </trkpt>
   <trkpt lat="37.788610000000006" lon="127.59454000000001">
    <ele>454.87000000000006</ele>
   </trkpt>
   <trkpt lat="37.788720000000005" lon="127.59467000000001">
    <ele>452.88000000000005</ele>
   </trkpt>
   <trkpt lat="37.78895" lon="127.59474000000002">
    <ele>446.70000000000005</ele>
   </trkpt>
   <trkpt lat="37.78922" lon="127.59466">
    <ele>442.54</ele>
   </trkpt>
   <trkpt lat="37.789570000000005" lon="127.59466">
    <ele>434.9</ele>
   </trkpt>
   <trkpt lat="37.789750000000005" lon="127.59474000000002">
    <ele>431.51000000000005</ele>
   </trkpt>
   <trkpt lat="37.79003" lon="127.59505000000001">
    <ele>423.09000000000003</ele>
   </trkpt>
   <trkpt lat="37.79063" lon="127.59523000000002">
    <ele>417.94</ele>
   </trkpt>
   <trkpt lat="37.79074" lon="127.59533">
    <ele>415.81</ele>
   </trkpt>
   <trkpt lat="37.79084" lon="127.59563000000001">
    <ele>411.75000000000006</ele>
   </trkpt>
   <trkpt lat="37.790850000000006" lon="127.59601">
    <ele>400.28000000000003</ele>
   </trkpt>
   <trkpt lat="37.790710000000004" lon="127.59694">
    <ele>397.73</ele>
   </trkpt>
   <trkpt lat="37.79083" lon="127.59718000000001">
    <ele>392.52000000000004</ele>
   </trkpt>
   <trkpt lat="37.79084" lon="127.59758000000001">
    <ele>387.20000000000005</ele>
   </trkpt>
   <trkpt lat="37.790890000000005" lon="127.59782000000001">
    <ele>390.15000000000003</ele>
   </trkpt>
   <trkpt lat="37.791050000000006" lon="127.59799000000001">
    <ele>390.47</ele>
   </trkpt>
   <trkpt lat="37.791270000000004" lon="127.59845000000001">
    <ele>397.15000000000003</ele>
   </trkpt>
   <trkpt lat="37.79153" lon="127.59847">
    <ele>391.43000000000006</ele>
   </trkpt>
   <trkpt lat="37.791630000000005" lon="127.59852000000001">
    <ele>391.43000000000006</ele>
   </trkpt>
   <trkpt lat="37.79162" lon="127.59851">
    <ele>391.43000000000006</ele>
   </trkpt>
   <trkpt lat="37.791700000000006" lon="127.59855000000002">
    <ele>389.08000000000004</ele>
   </trkpt>
   <trkpt lat="37.79175" lon="127.59876000000001">
    <ele>385.64000000000004</ele>
   </trkpt>
   <trkpt lat="37.791830000000004" lon="127.59892">
    <ele>386.65000000000003</ele>
   </trkpt>
   <trkpt lat="37.79191" lon="127.59915000000001">
    <ele>388.6</ele>
   </trkpt>
   <trkpt lat="37.79189" lon="127.59945">
    <ele>386.49000000000007</ele>
   </trkpt>
   <trkpt lat="37.79205" lon="127.59997000000001">
    <ele>386.64000000000004</ele>
   </trkpt>
   <trkpt lat="37.79222" lon="127.60069000000001">
    <ele>389.40000000000003</ele>
   </trkpt>
   <trkpt lat="37.79229" lon="127.60084">
    <ele>383.19</ele>
   </trkpt>
   <trkpt lat="37.792480000000005" lon="127.60095000000001">
    <ele>377.87</ele>
   </trkpt>
   <trkpt lat="37.79256" lon="127.60109000000001">
    <ele>376.11000000000007</ele>
   </trkpt>
   <trkpt lat="37.792770000000004" lon="127.60111">
    <ele>374.8</ele>
   </trkpt>
   <trkpt lat="37.79283" lon="127.60119000000002">
    <ele>375.79</ele>
   </trkpt>
   <trkpt lat="37.79289" lon="127.60123000000002">
    <ele>377.67</ele>
   </trkpt>
   <trkpt lat="37.79307" lon="127.60125000000001">
    <ele>379.75</ele>
   </trkpt>
   <trkpt lat="37.793220000000005" lon="127.60142">
    <ele>378.25</ele>
   </trkpt>
   <trkpt lat="37.79328" lon="127.60159000000002">
    <ele>375.9</ele>
   </trkpt>
   <trkpt lat="37.7935" lon="127.60192">
    <ele>369.87</ele>
   </trkpt>
   <trkpt lat="37.793600000000005" lon="127.60213000000002">
    <ele>367.24</ele>
   </trkpt>
   <trkpt lat="37.793710000000004" lon="127.60229000000001">
    <ele>366.47</ele>
   </trkpt>
   <trkpt lat="37.79381" lon="127.60233000000001">
    <ele>366.61</ele>
   </trkpt>
   <trkpt lat="37.79408" lon="127.60229000000001">
    <ele>366.17</ele>
   </trkpt>
   <trkpt lat="37.794200000000004" lon="127.60224000000001">
    <ele>364.78000000000003</ele>
   </trkpt>
   <trkpt lat="37.794250000000005" lon="127.60217000000002">
    <ele>364.39000000000004</ele>
   </trkpt>
   <trkpt lat="37.794500000000006" lon="127.60196">
    <ele>363.68</ele>
   </trkpt>
   <trkpt lat="37.79462" lon="127.60193000000001">
    <ele>363.06000000000006</ele>
   </trkpt>
   <trkpt lat="37.79482" lon="127.60191">
    <ele>361.90000000000003</ele>
   </trkpt>
   <trkpt lat="37.794830000000005" lon="127.60191">
    <ele>361.90000000000003</ele>
   </trkpt>
   <trkpt lat="37.79536" lon="127.60189000000001">
    <ele>362.92</ele>
   </trkpt>
   <trkpt lat="37.79585" lon="127.60203000000001">
    <ele>373.84</ele>
   </trkpt>
   <trkpt lat="37.79596" lon="127.60212000000001">
    <ele>375.14000000000004</ele>
   </trkpt>
   <trkpt lat="37.796260000000004" lon="127.60221000000001">
    <ele>381.06</ele>
   </trkpt>
   <trkpt lat="37.796400000000006" lon="127.60229000000001">
    <ele>383.78000000000003</ele>
   </trkpt>
   <trkpt lat="37.79672" lon="127.60238000000001">
    <ele>394.59000000000003</ele>
   </trkpt>
   <trkpt lat="37.796980000000005" lon="127.60251000000001">
    <ele>400.20000000000005</ele>
   </trkpt>
   <trkpt lat="37.79704" lon="127.60251000000001">
    <ele>400.57000000000005</ele>
   </trkpt>
   <trkpt lat="37.79715" lon="127.60257000000001">
    <ele>400.73</ele>
   </trkpt>
   <trkpt lat="37.79744" lon="127.60289000000002">
    <ele>401.39000000000004</ele>
   </trkpt>
   <trkpt lat="37.79769" lon="127.60310000000001">
    <ele>401.28000000000003</ele>
   </trkpt>
   <trkpt lat="37.797920000000005" lon="127.60299">
    <ele>395.92</ele>
   </trkpt>
   <trkpt lat="37.79816" lon="127.60280000000002">
    <ele>395.83</ele>
   </trkpt>
   <trkpt lat="37.79829" lon="127.60280000000002">
    <ele>394.29</ele>
   </trkpt>
   <trkpt lat="37.79838" lon="127.60285">
    <ele>392.08000000000004</ele>
   </trkpt>
   <trkpt lat="37.798500000000004" lon="127.60281">
    <ele>389.47</ele>
   </trkpt>
   <trkpt lat="37.79865" lon="127.60280000000002">
    <ele>382.54</ele>
   </trkpt>
   <trkpt lat="37.79867" lon="127.60240000000002">
    <ele>375.61000000000007</ele>
   </trkpt>
   <trkpt lat="37.798750000000005" lon="127.60237000000001">
    <ele>375.21000000000004</ele>
   </trkpt>
   <trkpt lat="37.798860000000005" lon="127.60238000000001">
    <ele>375.06</ele>
   </trkpt>
   <trkpt lat="37.799530000000004" lon="127.60261000000001">
    <ele>372.54</ele>
   </trkpt>
   <trkpt lat="37.799800000000005" lon="127.60266000000001">
    <ele>369.47</ele>
   </trkpt>
   <trkpt lat="37.800000000000004" lon="127.60263">
    <ele>369.25</ele>
   </trkpt>
   <trkpt lat="37.80002" lon="127.60266000000001">
    <ele>369.27000000000004</ele>
   </trkpt>
   <trkpt lat="37.800110000000004" lon="127.60267">
    <ele>369.39000000000004</ele>
   </trkpt>
   <trkpt lat="37.80064" lon="127.60253000000002">
    <ele>365.4</ele>
   </trkpt>
   <trkpt lat="37.80075" lon="127.60244000000002">
    <ele>364.79</ele>
   </trkpt>
   <trkpt lat="37.80093" lon="127.60221000000001">
    <ele>364.95000000000005</ele>
   </trkpt>
   <trkpt lat="37.801140000000004" lon="127.60198000000001">
    <ele>366.27000000000004</ele>
   </trkpt>
   <trkpt lat="37.801480000000005" lon="127.60194000000001">
    <ele>368.49</ele>
   </trkpt>
   <trkpt lat="37.80163" lon="127.60187">
    <ele>371.04</ele>
   </trkpt>
   <trkpt lat="37.802" lon="127.60154000000001">
    <ele>376.74</ele>
   </trkpt>
   <trkpt lat="37.802400000000006" lon="127.60154000000001">
    <ele>373.11000000000007</ele>
   </trkpt>
   <trkpt lat="37.802730000000004" lon="127.60144000000001">
    <ele>370.06000000000006</ele>
   </trkpt>
   <trkpt lat="37.802780000000006" lon="127.60131000000001">
    <ele>370.00000000000006</ele>
   </trkpt>
   <trkpt lat="37.80301" lon="127.60128000000002">
    <ele>365.99</ele>
   </trkpt>
   <trkpt lat="37.803250000000006" lon="127.60128000000002">
    <ele>367.6700000000001</ele>
   </trkpt>
   <trkpt lat="37.80342" lon="127.60129">
    <ele>369.82000000000005</ele>
   </trkpt>
   <trkpt lat="37.80353" lon="127.60128000000002">
    <ele>372.1700000000001</ele>
   </trkpt>
   <trkpt lat="37.803650000000005" lon="127.60123000000002">
    <ele>376.02000000000004</ele>
   </trkpt>
   <trkpt lat="37.803790000000006" lon="127.60113000000001">
    <ele>374.85</ele>
   </trkpt>
   <trkpt lat="37.80387" lon="127.60102">
    <ele>371.4</ele>
   </trkpt>
   <trkpt lat="37.803940000000004" lon="127.60087000000001">
    <ele>362.68</ele>
   </trkpt>
   <trkpt lat="37.803990000000006" lon="127.60061000000002">
    <ele>351.08</ele>
   </trkpt>
   <trkpt lat="37.804050000000004" lon="127.60046000000001">
    <ele>346.62</ele>
   </trkpt>
   <trkpt lat="37.80397" lon="127.60036000000001">
    <ele>341.59</ele>
   </trkpt>
   <trkpt lat="37.80397" lon="127.60020000000002">
    <ele>336.62</ele>
   </trkpt>
   <trkpt lat="37.804030000000004" lon="127.60009000000001">
    <ele>333.46000000000004</ele>
   </trkpt>
   <trkpt lat="37.804140000000004" lon="127.59998000000002">
    <ele>332.96000000000004</ele>
   </trkpt>
   <trkpt lat="37.80404" lon="127.59992000000001">
    <ele>327.14000000000004</ele>
   </trkpt>
   <trkpt lat="37.80389" lon="127.59995">
    <ele>323.51</ele>
   </trkpt>
   <trkpt lat="37.80377" lon="127.59997000000001">
    <ele>319.39</ele>
   </trkpt>
   <trkpt lat="37.80368" lon="127.60001000000001">
    <ele>321.75000000000006</ele>
   </trkpt>
   <trkpt lat="37.803580000000004" lon="127.5999">
    <ele>320.84000000000003</ele>
   </trkpt>
   <trkpt lat="37.80357" lon="127.59972">
    <ele>317.88000000000005</ele>
   </trkpt>
   <trkpt lat="37.803630000000005" lon="127.5995">
    <ele>308.62</ele>
   </trkpt>
   <trkpt lat="37.803740000000005" lon="127.59933000000001">
    <ele>298.43</ele>
   </trkpt>
   <trkpt lat="37.80407" lon="127.59884000000001">
    <ele>278.38</ele>
   </trkpt>
   <trkpt lat="37.80429" lon="127.59867000000001">
    <ele>266.67</ele>
   </trkpt>
   <trkpt lat="37.80458" lon="127.59839000000001">
    <ele>248.65</ele>
   </trkpt>
   <trkpt lat="37.80471" lon="127.59823000000002">
    <ele>236.60000000000002</ele>
   </trkpt>
   <trkpt lat="37.80476" lon="127.59810000000002">
    <ele>233.39000000000001</ele>
   </trkpt>
   <trkpt lat="37.80482000000001" lon="127.59792000000002">
    <ele>231.64000000000001</ele>
   </trkpt>
   <trkpt lat="37.80491" lon="127.59771">
    <ele>232.48000000000002</ele>
   </trkpt>
   <trkpt lat="37.80496" lon="127.59751000000001">
    <ele>230.71</ele>
   </trkpt>
   <trkpt lat="37.805" lon="127.59736000000001">
    <ele>227.53</ele>
   </trkpt>
   <trkpt lat="37.805060000000005" lon="127.59722000000001">
    <ele>222.71</ele>
   </trkpt>
   <trkpt lat="37.805130000000005" lon="127.59699">
    <ele>213.69000000000003</ele>
   </trkpt>
   <trkpt lat="37.805240000000005" lon="127.59680000000002">
    <ele>207.78000000000003</ele>
   </trkpt>
   <trkpt lat="37.80534" lon="127.59664000000001">
    <ele>203.19</ele>
   </trkpt>
   <trkpt lat="37.80541" lon="127.59644000000002">
    <ele>202.49</ele>
   </trkpt>
   <trkpt lat="37.80545" lon="127.59625000000001">
    <ele>204.94</ele>
   </trkpt>
   <trkpt lat="37.80559" lon="127.59616000000001">
    <ele>200.89000000000001</ele>
   </trkpt>
   <trkpt lat="37.80579" lon="127.59603000000001">
    <ele>193.85000000000002</ele>
   </trkpt>
   <trkpt lat="37.805890000000005" lon="127.59593000000001">
    <ele>191.45000000000002</ele>
   </trkpt>
   <trkpt lat="37.805960000000006" lon="127.59584000000001">
    <ele>191.07000000000002</ele>
   </trkpt>
   <trkpt lat="37.80603" lon="127.59572000000001">
    <ele>188.74</ele>
   </trkpt>
   <trkpt lat="37.80608" lon="127.59561000000001">
    <ele>187.32000000000002</ele>
   </trkpt>
   <trkpt lat="37.80612" lon="127.59554000000001">
    <ele>185.61</ele>
   </trkpt>
   <trkpt lat="37.806160000000006" lon="127.59538">
    <ele>182.16000000000003</ele>
   </trkpt>
   <trkpt lat="37.80621" lon="127.59525000000001">
    <ele>177.41</ele>
   </trkpt>
   <trkpt lat="37.80626" lon="127.59511">
    <ele>175.15000000000003</ele>
   </trkpt>
   <trkpt lat="37.8063" lon="127.59496000000001">
    <ele>173.15000000000003</ele>
   </trkpt>
   <trkpt lat="37.80631" lon="127.59488">
    <ele>171.69</ele>
   </trkpt>
   <trkpt lat="37.806380000000004" lon="127.59478000000001">
    <ele>170.16</ele>
   </trkpt>
   <trkpt lat="37.80651" lon="127.59467000000001">
    <ele>171.21</ele>
   </trkpt>
   <trkpt lat="37.806630000000006" lon="127.59455000000001">
    <ele>171.94</ele>
   </trkpt>
   <trkpt lat="37.80677" lon="127.59456000000002">
    <ele>170.63</ele>
   </trkpt>
   <trkpt lat="37.806960000000004" lon="127.59458000000001">
    <ele>169.67000000000002</ele>
   </trkpt>
   <trkpt lat="37.80716" lon="127.59456000000002">
    <ele>169.8</ele>
   </trkpt>
   <trkpt lat="37.80727" lon="127.59450000000001">
    <ele>170.86</ele>
   </trkpt>
   <trkpt lat="37.807410000000004" lon="127.59441000000001">
    <ele>171.15000000000003</ele>
   </trkpt>
   <trkpt lat="37.80756" lon="127.59444">
    <ele>170.68000000000004</ele>
   </trkpt>
   <trkpt lat="37.80771" lon="127.59450000000001">
    <ele>168.82000000000002</ele>
   </trkpt>
   <trkpt lat="37.8078" lon="127.59453">
    <ele>166.83</ele>
   </trkpt>
   <trkpt lat="37.80791" lon="127.59453">
    <ele>165.16</ele>
   </trkpt>
   <trkpt lat="37.80801" lon="127.59449000000001">
    <ele>164.56</ele>
   </trkpt>
   <trkpt lat="37.808110000000006" lon="127.59447000000002">
    <ele>165.33</ele>
   </trkpt>
   <trkpt lat="37.80823" lon="127.59446000000001">
    <ele>168.03</ele>
   </trkpt>
   <trkpt lat="37.80836" lon="127.59446000000001">
    <ele>168.66</ele>
   </trkpt>
   <trkpt lat="37.808420000000005" lon="127.59448">
    <ele>168.14000000000001</ele>
   </trkpt>
   <trkpt lat="37.80854" lon="127.59450000000001">
    <ele>166.39000000000001</ele>
   </trkpt>
   <trkpt lat="37.808670000000006" lon="127.59455000000001">
    <ele>164.21</ele>
   </trkpt>
   <trkpt lat="37.808820000000004" lon="127.59458000000001">
    <ele>162.60000000000002</ele>
   </trkpt>
   <trkpt lat="37.80894" lon="127.59461000000002">
    <ele>161.92000000000002</ele>
   </trkpt>
   <trkpt lat="37.80906" lon="127.59464000000001">
    <ele>161.21</ele>
   </trkpt>
   <trkpt lat="37.80912" lon="127.59464000000001">
    <ele>160.71</ele>
   </trkpt>
   <trkpt lat="37.809200000000004" lon="127.59468000000001">
    <ele>160.95000000000002</ele>
   </trkpt>
   <trkpt lat="37.80937" lon="127.59467000000001">
    <ele>158.41000000000003</ele>
   </trkpt>
   <trkpt lat="37.80948" lon="127.59469000000001">
    <ele>155.35000000000002</ele>
   </trkpt>
   <trkpt lat="37.80962" lon="127.59476000000001">
    <ele>152.06</ele>
   </trkpt>
   <trkpt lat="37.80975" lon="127.59476000000001">
    <ele>148.14000000000001</ele>
   </trkpt>
   <trkpt lat="37.80984" lon="127.59470000000002">
    <ele>147.20000000000002</ele>
   </trkpt>
   <trkpt lat="37.80998" lon="127.59470000000002">
    <ele>145.14000000000001</ele>
   </trkpt>
   <trkpt lat="37.81009" lon="127.59468000000001">
    <ele>143.04</ele>
   </trkpt>
   <trkpt lat="37.8102" lon="127.59465000000002">
    <ele>141.74</ele>
   </trkpt>
   <trkpt lat="37.810300000000005" lon="127.59466">
    <ele>140.63</ele>
   </trkpt>
   <trkpt lat="37.81038" lon="127.59470000000002">
    <ele>140.13</ele>
   </trkpt>
   <trkpt lat="37.81045" lon="127.59474000000002">
    <ele>140.20000000000002</ele>
   </trkpt>
   <trkpt lat="37.81064000000001" lon="127.59475">
    <ele>141.33</ele>
   </trkpt>
   <trkpt lat="37.810700000000004" lon="127.59470000000002">
    <ele>140.51000000000002</ele>
   </trkpt>
   <trkpt lat="37.810790000000004" lon="127.59457">
    <ele>138.19</ele>
   </trkpt>
   <trkpt lat="37.810880000000004" lon="127.59449000000001">
    <ele>136.97</ele>
   </trkpt>
   <trkpt lat="37.810990000000004" lon="127.59447000000002">
    <ele>136.03</ele>
   </trkpt>
   <trkpt lat="37.811110000000006" lon="127.59453">
    <ele>136.35</ele>
   </trkpt>
   <trkpt lat="37.811220000000006" lon="127.59462">
    <ele>137.21</ele>
   </trkpt>
   <trkpt lat="37.811350000000004" lon="127.59468000000001">
    <ele>137.65</ele>
   </trkpt>
   <trkpt lat="37.811440000000005" lon="127.59474000000002">
    <ele>138.01000000000002</ele>
   </trkpt>
   <trkpt lat="37.81156" lon="127.59481000000001">
    <ele>137.03</ele>
   </trkpt>
   <trkpt lat="37.81168" lon="127.59485000000001">
    <ele>135.26000000000002</ele>
   </trkpt>
   <trkpt lat="37.811820000000004" lon="127.59489">
    <ele>132.04000000000002</ele>
   </trkpt>
   <trkpt lat="37.81195" lon="127.59492000000002">
    <ele>129.32999999999998</ele>
   </trkpt>
   <trkpt lat="37.812050000000006" lon="127.59496000000001">
    <ele>129.14000000000001</ele>
   </trkpt>
   <trkpt lat="37.81217" lon="127.59491000000001">
    <ele>125.34</ele>
   </trkpt>
   <trkpt lat="37.812250000000006" lon="127.59485000000001">
    <ele>124.98</ele>
   </trkpt>
   <trkpt lat="37.81239" lon="127.59477000000001">
    <ele>125.32000000000001</ele>
   </trkpt>
   <trkpt lat="37.81255" lon="127.59467000000001">
    <ele>125.17</ele>
   </trkpt>
   <trkpt lat="37.812670000000004" lon="127.59462">
    <ele>123.51</ele>
   </trkpt>
   <trkpt lat="37.812780000000004" lon="127.59452000000002">
    <ele>116.15</ele>
   </trkpt>
   <trkpt lat="37.812900000000006" lon="127.59445000000001">
    <ele>113.06</ele>
   </trkpt>
   <trkpt lat="37.81304" lon="127.59439">
    <ele>113.77000000000001</ele>
   </trkpt>
   <trkpt lat="37.81322" lon="127.59422">
    <ele>117.80000000000001</ele>
   </trkpt>
   <trkpt lat="37.81338" lon="127.59409000000001">
    <ele>121.92000000000002</ele>
   </trkpt>
   <trkpt lat="37.81349" lon="127.59398000000002">
    <ele>123.57000000000001</ele>
   </trkpt>
   <trkpt lat="37.8136" lon="127.59387000000001">
    <ele>121.03000000000002</ele>
   </trkpt>
   <trkpt lat="37.813680000000005" lon="127.59377">
    <ele>118.06000000000002</ele>
   </trkpt>
   <trkpt lat="37.813750000000006" lon="127.59370000000001">
    <ele>115.9</ele>
   </trkpt>
   <trkpt lat="37.813880000000005" lon="127.59365000000001">
    <ele>115.69000000000001</ele>
   </trkpt>
   <trkpt lat="37.814080000000004" lon="127.59357000000001">
    <ele>117.03</ele>
   </trkpt>
   <trkpt lat="37.81429" lon="127.59347000000001">
    <ele>117.19000000000001</ele>
   </trkpt>
   <trkpt lat="37.81439" lon="127.59340000000002">
    <ele>115.04</ele>
   </trkpt>
   <trkpt lat="37.814510000000006" lon="127.59330000000001">
    <ele>113.16000000000001</ele>
   </trkpt>
   <trkpt lat="37.81466" lon="127.59317000000001">
    <ele>111.42</ele>
   </trkpt>
   <trkpt lat="37.814870000000006" lon="127.59302000000001">
    <ele>113.64</ele>
   </trkpt>
   <trkpt lat="37.8151" lon="127.59288000000001">
    <ele>116.74000000000001</ele>
   </trkpt>
   <trkpt lat="37.815200000000004" lon="127.59278">
    <ele>119.05</ele>
   </trkpt>
   <trkpt lat="37.81533" lon="127.59271000000001">
    <ele>119.03000000000002</ele>
   </trkpt>
   <trkpt lat="37.815450000000006" lon="127.59263000000001">
    <ele>118.53</ele>
   </trkpt>
   <trkpt lat="37.81562" lon="127.59250000000002">
    <ele>118.35000000000001</ele>
   </trkpt>
   <trkpt lat="37.81591" lon="127.59230000000001">
    <ele>114.66000000000001</ele>
   </trkpt>
   <trkpt lat="37.81616" lon="127.59214000000001">
    <ele>109.28</ele>
   </trkpt>
   <trkpt lat="37.81618" lon="127.59192000000002">
    <ele>102.49000000000001</ele>
   </trkpt>
   <trkpt lat="37.81618" lon="127.59173000000001">
    <ele>99.5</ele>
   </trkpt>
   <trkpt lat="37.816340000000004" lon="127.59157">
    <ele>98.14</ele>
   </trkpt>
   <trkpt lat="37.81644" lon="127.59147000000002">
    <ele>98.93</ele>
   </trkpt>
   <trkpt lat="37.81664" lon="127.59132000000001">
    <ele>100.57000000000001</ele>
   </trkpt>
   <trkpt lat="37.81685" lon="127.59117">
    <ele>104.18</ele>
   </trkpt>
   <trkpt lat="37.81705" lon="127.59102000000001">
    <ele>105.50000000000001</ele>
   </trkpt>
   <trkpt lat="37.817240000000005" lon="127.59084000000001">
    <ele>102.69</ele>
   </trkpt>
   <trkpt lat="37.817370000000004" lon="127.59070000000001">
    <ele>102.37</ele>
   </trkpt>
   <trkpt lat="37.817510000000006" lon="127.59057000000001">
    <ele>99.25</ele>
   </trkpt>
   <trkpt lat="37.817840000000004" lon="127.59021000000001">
    <ele>107.83000000000001</ele>
   </trkpt>
   <trkpt lat="37.81806" lon="127.59004000000002">
    <ele>107.38</ele>
   </trkpt>
   <trkpt lat="37.8183" lon="127.58994000000001">
    <ele>99.88000000000001</ele>
   </trkpt>
   <trkpt lat="37.818650000000005" lon="127.58984000000001">
    <ele>97.38000000000001</ele>
   </trkpt>
   <trkpt lat="37.81888" lon="127.58982000000002">
    <ele>95.88000000000001</ele>
   </trkpt>
   <trkpt lat="37.819280000000006" lon="127.58968000000002">
    <ele>90.26</ele>
   </trkpt>
   <trkpt lat="37.819570000000006" lon="127.58958000000001">
    <ele>90.03000000000002</ele>
   </trkpt>
   <trkpt lat="37.81973" lon="127.58956">
    <ele>89.42000000000002</ele>
   </trkpt>
   <trkpt lat="37.81991" lon="127.58963000000001">
    <ele>88.81000000000002</ele>
   </trkpt>
   <trkpt lat="37.82012" lon="127.58974">
    <ele>87.02000000000001</ele>
   </trkpt>
   <trkpt lat="37.82039" lon="127.58987">
    <ele>88.11</ele>
   </trkpt>
  </trkseg>
 </trk>
</gpx>
