<?xml version="1.0" encoding="UTF-8"?>
<gpx version="1.1" creator="RUNRUUN GPX Creator" xmlns="http://www.topografix.com/GPX/1/1">
  <trk>
    <name>비슬청도둘레길22k</name>
    <trkseg>
      <trkpt lat="35.69374979648171" lon="128.50576758384707">
        <ele>405.5</ele>
      </trkpt>
      <trkpt lat="35.69375" lon="128.505801">
        <ele>407.3</ele>
      </trkpt>
      <trkpt lat="35.693736" lon="128.505802">
        <ele>409.3</ele>
      </trkpt>
      <trkpt lat="35.693658" lon="128.505893">
        <ele>411.4</ele>
      </trkpt>
      <trkpt lat="35.693586" lon="128.506065">
        <ele>413.4</ele>
      </trkpt>
      <trkpt lat="35.69343" lon="128.506571">
        <ele>415.3</ele>
      </trkpt>
      <trkpt lat="35.693304" lon="128.506832">
        <ele>417.1</ele>
      </trkpt>
      <trkpt lat="35.693344622634505" lon="128.50686192512515">
        <ele>418.8</ele>
      </trkpt>
      <trkpt lat="35.693304" lon="128.506832">
        <ele>420.3</ele>
      </trkpt>
      <trkpt lat="35.693291" lon="128.50686">
        <ele>421.8</ele>
      </trkpt>
      <trkpt lat="35.693235" lon="128.506912">
        <ele>423.2</ele>
      </trkpt>
      <trkpt lat="35.693158" lon="128.506948">
        <ele>424.6</ele>
      </trkpt>
      <trkpt lat="35.692794" lon="128.506987">
        <ele>425.9</ele>
      </trkpt>
      <trkpt lat="35.692697" lon="128.507021">
        <ele>427.1</ele>
      </trkpt>
      <trkpt lat="35.692574" lon="128.50713">
        <ele>428.3</ele>
      </trkpt>
      <trkpt lat="35.692386" lon="128.507217">
        <ele>429.5</ele>
      </trkpt>
      <trkpt lat="35.692181" lon="128.507261">
        <ele>432.2</ele>
      </trkpt>
      <trkpt lat="35.692002" lon="128.507329">
        <ele>434.8</ele>
      </trkpt>
      <trkpt lat="35.691871" lon="128.507452">
        <ele>437.3</ele>
      </trkpt>
      <trkpt lat="35.691791" lon="128.507622">
        <ele>439.8</ele>
      </trkpt>
      <trkpt lat="35.691657" lon="128.507676">
        <ele>442.2</ele>
      </trkpt>
      <trkpt lat="35.69157" lon="128.507756">
        <ele>444.6</ele>
      </trkpt>
      <trkpt lat="35.691437" lon="128.507928">
        <ele>446.9</ele>
      </trkpt>
      <trkpt lat="35.691343" lon="128.508195">
        <ele>449.3</ele>
      </trkpt>
      <trkpt lat="35.69135357715343" lon="128.50820124149325">
        <ele>451.6</ele>
      </trkpt>
      <trkpt lat="35.691343" lon="128.508195">
        <ele>453.9</ele>
      </trkpt>
      <trkpt lat="35.691319" lon="128.508266">
        <ele>456.2</ele>
      </trkpt>
      <trkpt lat="35.691287" lon="128.508504">
        <ele>458.5</ele>
      </trkpt>
      <trkpt lat="35.691165" lon="128.508848">
        <ele>460.9</ele>
      </trkpt>
      <trkpt lat="35.691047" lon="128.509041">
        <ele>463.2</ele>
      </trkpt>
      <trkpt lat="35.691012" lon="128.509298">
        <ele>465.6</ele>
      </trkpt>
      <trkpt lat="35.690875" lon="128.509585">
        <ele>468.0</ele>
      </trkpt>
      <trkpt lat="35.690873" lon="128.509674">
        <ele>470.0</ele>
      </trkpt>
      <trkpt lat="35.690936" lon="128.509765">
        <ele>471.9</ele>
      </trkpt>
      <trkpt lat="35.691059" lon="128.509881">
        <ele>473.7</ele>
      </trkpt>
      <trkpt lat="35.69104" lon="128.509904">
        <ele>475.5</ele>
      </trkpt>
      <trkpt lat="35.69104278949384" lon="128.50990712642673">
        <ele>477.3</ele>
      </trkpt>
      <trkpt lat="35.69104" lon="128.509904">
        <ele>479.2</ele>
      </trkpt>
      <trkpt lat="35.691024" lon="128.509927">
        <ele>481.2</ele>
      </trkpt>
      <trkpt lat="35.690889" lon="128.510108">
        <ele>483.3</ele>
      </trkpt>
      <trkpt lat="35.690768" lon="128.510539">
        <ele>485.4</ele>
      </trkpt>
      <trkpt lat="35.690681" lon="128.510749">
        <ele>487.7</ele>
      </trkpt>
      <trkpt lat="35.690436" lon="128.511346">
        <ele>490.0</ele>
      </trkpt>
      <trkpt lat="35.690339" lon="128.511583">
        <ele>492.4</ele>
      </trkpt>
      <trkpt lat="35.690135" lon="128.511926">
        <ele>494.9</ele>
      </trkpt>
      <trkpt lat="35.690043" lon="128.512257">
        <ele>497.4</ele>
      </trkpt>
      <trkpt lat="35.689893" lon="128.512512">
        <ele>499.9</ele>
      </trkpt>
      <trkpt lat="35.689849" lon="128.512588">
        <ele>502.6</ele>
      </trkpt>
      <trkpt lat="35.689726" lon="128.513016">
        <ele>505.2</ele>
      </trkpt>
      <trkpt lat="35.689708" lon="128.513173">
        <ele>507.9</ele>
      </trkpt>
      <trkpt lat="35.689609" lon="128.51336">
        <ele>510.7</ele>
      </trkpt>
      <trkpt lat="35.689558" lon="128.513455">
        <ele>513.4</ele>
      </trkpt>
      <trkpt lat="35.68956" lon="128.513615">
        <ele>516.2</ele>
      </trkpt>
      <trkpt lat="35.689596303891896" lon="128.51364612579349">
        <ele>519.0</ele>
      </trkpt>
      <trkpt lat="35.68956" lon="128.513616">
        <ele>521.9</ele>
      </trkpt>
      <trkpt lat="35.689443" lon="128.513827">
        <ele>524.8</ele>
      </trkpt>
      <trkpt lat="35.68941" lon="128.514013">
        <ele>527.7</ele>
      </trkpt>
      <trkpt lat="35.689395" lon="128.514208">
        <ele>530.7</ele>
      </trkpt>
      <trkpt lat="35.68942" lon="128.514381">
        <ele>533.7</ele>
      </trkpt>
      <trkpt lat="35.689518" lon="128.514518">
        <ele>536.7</ele>
      </trkpt>
      <trkpt lat="35.689558" lon="128.514611">
        <ele>539.7</ele>
      </trkpt>
      <trkpt lat="35.689551" lon="128.514737">
        <ele>542.8</ele>
      </trkpt>
      <trkpt lat="35.689492" lon="128.515115">
        <ele>545.8</ele>
      </trkpt>
      <trkpt lat="35.689508" lon="128.515354">
        <ele>548.8</ele>
      </trkpt>
      <trkpt lat="35.689573" lon="128.515582">
        <ele>551.9</ele>
      </trkpt>
      <trkpt lat="35.689641" lon="128.515728">
        <ele>554.9</ele>
      </trkpt>
      <trkpt lat="35.68964" lon="128.515977">
        <ele>557.9</ele>
      </trkpt>
      <trkpt lat="35.689745" lon="128.516393">
        <ele>560.9</ele>
      </trkpt>
      <trkpt lat="35.689785" lon="128.516748">
        <ele>563.8</ele>
      </trkpt>
      <trkpt lat="35.689851" lon="128.516951">
        <ele>566.7</ele>
      </trkpt>
      <trkpt lat="35.689965" lon="128.517188">
        <ele>569.6</ele>
      </trkpt>
      <trkpt lat="35.690034" lon="128.517543">
        <ele>572.5</ele>
      </trkpt>
      <trkpt lat="35.690083" lon="128.51771">
        <ele>575.3</ele>
      </trkpt>
      <trkpt lat="35.690125" lon="128.517944">
        <ele>578.1</ele>
      </trkpt>
      <trkpt lat="35.690177" lon="128.518177">
        <ele>580.8</ele>
      </trkpt>
      <trkpt lat="35.690173" lon="128.518201">
        <ele>583.6</ele>
      </trkpt>
      <trkpt lat="35.690125" lon="128.518487">
        <ele>586.3</ele>
      </trkpt>
      <trkpt lat="35.690147" lon="128.518678">
        <ele>589.0</ele>
      </trkpt>
      <trkpt lat="35.690153988194915" lon="128.51867794990542">
        <ele>591.6</ele>
      </trkpt>
      <trkpt lat="35.690147" lon="128.518678">
        <ele>594.3</ele>
      </trkpt>
      <trkpt lat="35.690154" lon="128.518739">
        <ele>597.0</ele>
      </trkpt>
      <trkpt lat="35.690273" lon="128.518918">
        <ele>599.6</ele>
      </trkpt>
      <trkpt lat="35.690456" lon="128.518982">
        <ele>602.3</ele>
      </trkpt>
      <trkpt lat="35.690521" lon="128.519063">
        <ele>605.0</ele>
      </trkpt>
      <trkpt lat="35.69055" lon="128.519328">
        <ele>607.7</ele>
      </trkpt>
      <trkpt lat="35.690643" lon="128.519531">
        <ele>610.4</ele>
      </trkpt>
      <trkpt lat="35.690649" lon="128.519604">
        <ele>613.1</ele>
      </trkpt>
      <trkpt lat="35.690657" lon="128.519921">
        <ele>615.8</ele>
      </trkpt>
      <trkpt lat="35.690678" lon="128.520063">
        <ele>618.4</ele>
      </trkpt>
      <trkpt lat="35.690801" lon="128.520256">
        <ele>621.1</ele>
      </trkpt>
      <trkpt lat="35.690838" lon="128.520445">
        <ele>623.8</ele>
      </trkpt>
      <trkpt lat="35.690844" lon="128.520532">
        <ele>626.5</ele>
      </trkpt>
      <trkpt lat="35.690815" lon="128.520678">
        <ele>629.3</ele>
      </trkpt>
      <trkpt lat="35.690805" lon="128.520904">
        <ele>632.0</ele>
      </trkpt>
      <trkpt lat="35.690825" lon="128.520994">
        <ele>634.8</ele>
      </trkpt>
      <trkpt lat="35.690881" lon="128.52109">
        <ele>637.6</ele>
      </trkpt>
      <trkpt lat="35.691056" lon="128.521252">
        <ele>640.4</ele>
      </trkpt>
      <trkpt lat="35.691175" lon="128.521374">
        <ele>643.3</ele>
      </trkpt>
      <trkpt lat="35.691185" lon="128.521503">
        <ele>646.2</ele>
      </trkpt>
      <trkpt lat="35.691002" lon="128.521895">
        <ele>649.1</ele>
      </trkpt>
      <trkpt lat="35.690933" lon="128.522541">
        <ele>652.1</ele>
      </trkpt>
      <trkpt lat="35.690975" lon="128.522823">
        <ele>655.0</ele>
      </trkpt>
      <trkpt lat="35.691071" lon="128.522942">
        <ele>658.0</ele>
      </trkpt>
      <trkpt lat="35.691079" lon="128.523078">
        <ele>661.0</ele>
      </trkpt>
      <trkpt lat="35.691086357930295" lon="128.52309465408328">
        <ele>664.0</ele>
      </trkpt>
      <trkpt lat="35.691078" lon="128.523094">
        <ele>667.0</ele>
      </trkpt>
      <trkpt lat="35.691075" lon="128.523305">
        <ele>670.0</ele>
      </trkpt>
      <trkpt lat="35.691109" lon="128.523403">
        <ele>673.0</ele>
      </trkpt>
      <trkpt lat="35.691159" lon="128.523516">
        <ele>676.1</ele>
      </trkpt>
      <trkpt lat="35.691207" lon="128.523771">
        <ele>679.2</ele>
      </trkpt>
      <trkpt lat="35.6913" lon="128.524118">
        <ele>682.3</ele>
      </trkpt>
      <trkpt lat="35.691275" lon="128.524216">
        <ele>685.4</ele>
      </trkpt>
      <trkpt lat="35.691321" lon="128.524348">
        <ele>688.5</ele>
      </trkpt>
      <trkpt lat="35.691361" lon="128.524373">
        <ele>691.6</ele>
      </trkpt>
      <trkpt lat="35.691416" lon="128.524521">
        <ele>694.8</ele>
      </trkpt>
      <trkpt lat="35.691464" lon="128.524692">
        <ele>697.9</ele>
      </trkpt>
      <trkpt lat="35.691477" lon="128.524826">
        <ele>701.0</ele>
      </trkpt>
      <trkpt lat="35.691459" lon="128.525025">
        <ele>704.2</ele>
      </trkpt>
      <trkpt lat="35.69142" lon="128.525212">
        <ele>707.4</ele>
      </trkpt>
      <trkpt lat="35.691414" lon="128.525442">
        <ele>710.6</ele>
      </trkpt>
      <trkpt lat="35.691488" lon="128.525635">
        <ele>713.8</ele>
      </trkpt>
      <trkpt lat="35.691564" lon="128.525792">
        <ele>717.0</ele>
      </trkpt>
      <trkpt lat="35.691677" lon="128.525923">
        <ele>720.2</ele>
      </trkpt>
      <trkpt lat="35.691743" lon="128.526032">
        <ele>723.4</ele>
      </trkpt>
      <trkpt lat="35.691845" lon="128.526312">
        <ele>726.6</ele>
      </trkpt>
      <trkpt lat="35.691861" lon="128.526414">
        <ele>729.7</ele>
      </trkpt>
      <trkpt lat="35.691882" lon="128.526528">
        <ele>732.9</ele>
      </trkpt>
      <trkpt lat="35.691845" lon="128.526589">
        <ele>736.0</ele>
      </trkpt>
      <trkpt lat="35.691853" lon="128.526618">
        <ele>739.2</ele>
      </trkpt>
      <trkpt lat="35.691896726510834" lon="128.52659940719604">
        <ele>742.4</ele>
      </trkpt>
      <trkpt lat="35.691853" lon="128.526618">
        <ele>745.5</ele>
      </trkpt>
      <trkpt lat="35.691891" lon="128.526738">
        <ele>748.7</ele>
      </trkpt>
      <trkpt lat="35.691937" lon="128.526794">
        <ele>751.9</ele>
      </trkpt>
      <trkpt lat="35.692013" lon="128.526848">
        <ele>755.1</ele>
      </trkpt>
      <trkpt lat="35.692039" lon="128.526928">
        <ele>758.4</ele>
      </trkpt>
      <trkpt lat="35.692134" lon="128.526967">
        <ele>761.6</ele>
      </trkpt>
      <trkpt lat="35.692218" lon="128.52704">
        <ele>764.9</ele>
      </trkpt>
      <trkpt lat="35.692325" lon="128.527093">
        <ele>768.2</ele>
      </trkpt>
      <trkpt lat="35.692443" lon="128.527309">
        <ele>771.5</ele>
      </trkpt>
      <trkpt lat="35.692493" lon="128.527414">
        <ele>774.8</ele>
      </trkpt>
      <trkpt lat="35.692464" lon="128.527507">
        <ele>778.1</ele>
      </trkpt>
      <trkpt lat="35.692477" lon="128.52757">
        <ele>781.4</ele>
      </trkpt>
      <trkpt lat="35.692486" lon="128.527714">
        <ele>784.8</ele>
      </trkpt>
      <trkpt lat="35.692577" lon="128.527823">
        <ele>788.1</ele>
      </trkpt>
      <trkpt lat="35.69266" lon="128.527946">
        <ele>791.5</ele>
      </trkpt>
      <trkpt lat="35.692684" lon="128.52803">
        <ele>794.9</ele>
      </trkpt>
      <trkpt lat="35.692745" lon="128.528117">
        <ele>798.4</ele>
      </trkpt>
      <trkpt lat="35.69275" lon="128.528176">
        <ele>801.8</ele>
      </trkpt>
      <trkpt lat="35.692716" lon="128.528266">
        <ele>805.2</ele>
      </trkpt>
      <trkpt lat="35.692642" lon="128.528291">
        <ele>808.7</ele>
      </trkpt>
      <trkpt lat="35.69262" lon="128.528431">
        <ele>812.2</ele>
      </trkpt>
      <trkpt lat="35.692666" lon="128.528618">
        <ele>815.8</ele>
      </trkpt>
      <trkpt lat="35.692725" lon="128.5288">
        <ele>819.3</ele>
      </trkpt>
      <trkpt lat="35.692751" lon="128.52884">
        <ele>822.9</ele>
      </trkpt>
      <trkpt lat="35.69282" lon="128.528845">
        <ele>826.6</ele>
      </trkpt>
      <trkpt lat="35.692995" lon="128.528926">
        <ele>830.3</ele>
      </trkpt>
      <trkpt lat="35.693018" lon="128.52899">
        <ele>834.0</ele>
      </trkpt>
      <trkpt lat="35.693109" lon="128.529038">
        <ele>837.7</ele>
      </trkpt>
      <trkpt lat="35.693206" lon="128.529152">
        <ele>841.4</ele>
      </trkpt>
      <trkpt lat="35.69325" lon="128.529237">
        <ele>845.2</ele>
      </trkpt>
      <trkpt lat="35.693316" lon="128.529307">
        <ele>849.0</ele>
      </trkpt>
      <trkpt lat="35.693361" lon="128.529307">
        <ele>852.8</ele>
      </trkpt>
      <trkpt lat="35.69336059726962" lon="128.52954626083377">
        <ele>856.6</ele>
      </trkpt>
      <trkpt lat="35.693361" lon="128.529307">
        <ele>860.5</ele>
      </trkpt>
      <trkpt lat="35.693433" lon="128.529307">
        <ele>864.3</ele>
      </trkpt>
      <trkpt lat="35.693539" lon="128.529354">
        <ele>868.2</ele>
      </trkpt>
      <trkpt lat="35.693607" lon="128.529458">
        <ele>872.1</ele>
      </trkpt>
      <trkpt lat="35.693624" lon="128.529504">
        <ele>876.1</ele>
      </trkpt>
      <trkpt lat="35.693667" lon="128.529574">
        <ele>880.0</ele>
      </trkpt>
      <trkpt lat="35.693775" lon="128.529637">
        <ele>884.0</ele>
      </trkpt>
      <trkpt lat="35.693875" lon="128.529886">
        <ele>888.0</ele>
      </trkpt>
      <trkpt lat="35.693939" lon="128.530076">
        <ele>892.0</ele>
      </trkpt>
      <trkpt lat="35.694002" lon="128.530121">
        <ele>895.9</ele>
      </trkpt>
      <trkpt lat="35.694068" lon="128.530199">
        <ele>899.9</ele>
      </trkpt>
      <trkpt lat="35.694123" lon="128.530206">
        <ele>903.8</ele>
      </trkpt>
      <trkpt lat="35.694223" lon="128.530339">
        <ele>907.7</ele>
      </trkpt>
      <trkpt lat="35.694284" lon="128.53039">
        <ele>911.6</ele>
      </trkpt>
      <trkpt lat="35.694389" lon="128.53044">
        <ele>915.4</ele>
      </trkpt>
      <trkpt lat="35.694433" lon="128.530495">
        <ele>919.2</ele>
      </trkpt>
      <trkpt lat="35.694502" lon="128.530599">
        <ele>923.0</ele>
      </trkpt>
      <trkpt lat="35.694628" lon="128.530667">
        <ele>926.6</ele>
      </trkpt>
      <trkpt lat="35.694689" lon="128.530756">
        <ele>930.3</ele>
      </trkpt>
      <trkpt lat="35.694725" lon="128.530846">
        <ele>933.8</ele>
      </trkpt>
      <trkpt lat="35.694708" lon="128.53091">
        <ele>937.3</ele>
      </trkpt>
      <trkpt lat="35.694765" lon="128.531034">
        <ele>940.7</ele>
      </trkpt>
      <trkpt lat="35.694905" lon="128.531151">
        <ele>944.0</ele>
      </trkpt>
      <trkpt lat="35.694953" lon="128.531163">
        <ele>947.3</ele>
      </trkpt>
      <trkpt lat="35.69501" lon="128.53123">
        <ele>950.5</ele>
      </trkpt>
      <trkpt lat="35.69502" lon="128.531309">
        <ele>953.6</ele>
      </trkpt>
      <trkpt lat="35.695118" lon="128.5314">
        <ele>956.7</ele>
      </trkpt>
      <trkpt lat="35.695149" lon="128.531569">
        <ele>959.7</ele>
      </trkpt>
      <trkpt lat="35.695224" lon="128.531735">
        <ele>962.6</ele>
      </trkpt>
      <trkpt lat="35.695269" lon="128.531778">
        <ele>965.5</ele>
      </trkpt>
      <trkpt lat="35.695368" lon="128.531786">
        <ele>968.2</ele>
      </trkpt>
      <trkpt lat="35.695462" lon="128.531863">
        <ele>970.9</ele>
      </trkpt>
      <trkpt lat="35.695572" lon="128.531883">
        <ele>973.5</ele>
      </trkpt>
      <trkpt lat="35.69571" lon="128.531871">
        <ele>975.9</ele>
      </trkpt>
      <trkpt lat="35.695803" lon="128.531899">
        <ele>978.3</ele>
      </trkpt>
      <trkpt lat="35.695847" lon="128.53201">
        <ele>980.5</ele>
      </trkpt>
      <trkpt lat="35.695853" lon="128.532026">
        <ele>982.6</ele>
      </trkpt>
      <trkpt lat="35.695935" lon="128.532099">
        <ele>984.6</ele>
      </trkpt>
      <trkpt lat="35.695984" lon="128.532274">
        <ele>986.5</ele>
      </trkpt>
      <trkpt lat="35.696045" lon="128.532258">
        <ele>988.2</ele>
      </trkpt>
      <trkpt lat="35.6960617168288" lon="128.53225708007815">
        <ele>989.8</ele>
      </trkpt>
      <trkpt lat="35.696054" lon="128.532247">
        <ele>991.3</ele>
      </trkpt>
      <trkpt lat="35.696045" lon="128.532258">
        <ele>992.7</ele>
      </trkpt>
      <trkpt lat="35.695984" lon="128.532274">
        <ele>994.0</ele>
      </trkpt>
      <trkpt lat="35.695923" lon="128.532352">
        <ele>995.1</ele>
      </trkpt>
      <trkpt lat="35.695878" lon="128.532514">
        <ele>996.2</ele>
      </trkpt>
      <trkpt lat="35.69584" lon="128.532604">
        <ele>997.1</ele>
      </trkpt>
      <trkpt lat="35.695656" lon="128.532688">
        <ele>998.0</ele>
      </trkpt>
      <trkpt lat="35.695659" lon="128.532777">
        <ele>998.7</ele>
      </trkpt>
      <trkpt lat="35.695631" lon="128.53293">
        <ele>999.4</ele>
      </trkpt>
      <trkpt lat="35.695577" lon="128.533173">
        <ele>1000.0</ele>
      </trkpt>
      <trkpt lat="35.695469" lon="128.533535">
        <ele>1000.5</ele>
      </trkpt>
      <trkpt lat="35.695298" lon="128.533881">
        <ele>1000.9</ele>
      </trkpt>
      <trkpt lat="35.695201" lon="128.533993">
        <ele>1001.2</ele>
      </trkpt>
      <trkpt lat="35.694851" lon="128.534251">
        <ele>1001.3</ele>
      </trkpt>
      <trkpt lat="35.69464" lon="128.53452">
        <ele>1001.3</ele>
      </trkpt>
      <trkpt lat="35.694318" lon="128.534944">
        <ele>1001.2</ele>
      </trkpt>
      <trkpt lat="35.694265" lon="128.534958">
        <ele>1000.9</ele>
      </trkpt>
      <trkpt lat="35.693959" lon="128.535139">
        <ele>1000.5</ele>
      </trkpt>
      <trkpt lat="35.693894" lon="128.534999">
        <ele>999.9</ele>
      </trkpt>
      <trkpt lat="35.69393" lon="128.534844">
        <ele>999.2</ele>
      </trkpt>
      <trkpt lat="35.69382" lon="128.534607">
        <ele>998.4</ele>
      </trkpt>
      <trkpt lat="35.693629" lon="128.534441">
        <ele>997.4</ele>
      </trkpt>
      <trkpt lat="35.693399" lon="128.534432">
        <ele>996.3</ele>
      </trkpt>
      <trkpt lat="35.69322" lon="128.534267">
        <ele>995.1</ele>
      </trkpt>
      <trkpt lat="35.6932" lon="128.534156">
        <ele>993.8</ele>
      </trkpt>
      <trkpt lat="35.693054" lon="128.534004">
        <ele>992.4</ele>
      </trkpt>
      <trkpt lat="35.692969" lon="128.534008">
        <ele>991.0</ele>
      </trkpt>
      <trkpt lat="35.692685" lon="128.53405">
        <ele>989.5</ele>
      </trkpt>
      <trkpt lat="35.692526" lon="128.533983">
        <ele>987.9</ele>
      </trkpt>
      <trkpt lat="35.69237" lon="128.534008">
        <ele>986.3</ele>
      </trkpt>
      <trkpt lat="35.692128" lon="128.533843">
        <ele>984.7</ele>
      </trkpt>
      <trkpt lat="35.692111" lon="128.533814">
        <ele>983.0</ele>
      </trkpt>
      <trkpt lat="35.69194900807201" lon="128.5339593887329">
        <ele>981.3</ele>
      </trkpt>
      <trkpt lat="35.692111" lon="128.533814">
        <ele>979.6</ele>
      </trkpt>
      <trkpt lat="35.692051" lon="128.533712">
        <ele>977.9</ele>
      </trkpt>
      <trkpt lat="35.691768" lon="128.533693">
        <ele>976.2</ele>
      </trkpt>
      <trkpt lat="35.691705" lon="128.533648">
        <ele>974.4</ele>
      </trkpt>
      <trkpt lat="35.691613" lon="128.533513">
        <ele>972.7</ele>
      </trkpt>
      <trkpt lat="35.691581" lon="128.533393">
        <ele>970.9</ele>
      </trkpt>
      <trkpt lat="35.691431" lon="128.533264">
        <ele>969.1</ele>
      </trkpt>
      <trkpt lat="35.691313" lon="128.533107">
        <ele>967.3</ele>
      </trkpt>
      <trkpt lat="35.691154" lon="128.532993">
        <ele>965.5</ele>
      </trkpt>
      <trkpt lat="35.691002" lon="128.532971">
        <ele>963.7</ele>
      </trkpt>
      <trkpt lat="35.690834" lon="128.533047">
        <ele>961.9</ele>
      </trkpt>
      <trkpt lat="35.690353" lon="128.532831">
        <ele>960.2</ele>
      </trkpt>
      <trkpt lat="35.690231" lon="128.532788">
        <ele>958.5</ele>
      </trkpt>
      <trkpt lat="35.690002" lon="128.532758">
        <ele>956.8</ele>
      </trkpt>
      <trkpt lat="35.689764" lon="128.532498">
        <ele>955.2</ele>
      </trkpt>
      <trkpt lat="35.689648" lon="128.532442">
        <ele>953.7</ele>
      </trkpt>
      <trkpt lat="35.689543" lon="128.532485">
        <ele>952.2</ele>
      </trkpt>
      <trkpt lat="35.689432" lon="128.532506">
        <ele>950.8</ele>
      </trkpt>
      <trkpt lat="35.689386" lon="128.532498">
        <ele>949.4</ele>
      </trkpt>
      <trkpt lat="35.689369" lon="128.532478">
        <ele>948.1</ele>
      </trkpt>
      <trkpt lat="35.689346" lon="128.532409">
        <ele>946.9</ele>
      </trkpt>
      <trkpt lat="35.689245" lon="128.5324">
        <ele>945.8</ele>
      </trkpt>
      <trkpt lat="35.689159" lon="128.532379">
        <ele>944.7</ele>
      </trkpt>
      <trkpt lat="35.689092" lon="128.532321">
        <ele>943.7</ele>
      </trkpt>
      <trkpt lat="35.689043" lon="128.532267">
        <ele>942.8</ele>
      </trkpt>
      <trkpt lat="35.688935" lon="128.532203">
        <ele>941.9</ele>
      </trkpt>
      <trkpt lat="35.688819" lon="128.53203">
        <ele>941.1</ele>
      </trkpt>
      <trkpt lat="35.688639" lon="128.531893">
        <ele>940.4</ele>
      </trkpt>
      <trkpt lat="35.68849" lon="128.53176">
        <ele>939.8</ele>
      </trkpt>
      <trkpt lat="35.688332" lon="128.531684">
        <ele>939.1</ele>
      </trkpt>
      <trkpt lat="35.688057" lon="128.531511">
        <ele>938.6</ele>
      </trkpt>
      <trkpt lat="35.687806" lon="128.531426">
        <ele>938.0</ele>
      </trkpt>
      <trkpt lat="35.687609" lon="128.531314">
        <ele>937.5</ele>
      </trkpt>
      <trkpt lat="35.687472" lon="128.531343">
        <ele>937.0</ele>
      </trkpt>
      <trkpt lat="35.687383" lon="128.531394">
        <ele>936.6</ele>
      </trkpt>
      <trkpt lat="35.687266" lon="128.531417">
        <ele>936.2</ele>
      </trkpt>
      <trkpt lat="35.687108" lon="128.531423">
        <ele>935.8</ele>
      </trkpt>
      <trkpt lat="35.687" lon="128.53135">
        <ele>935.5</ele>
      </trkpt>
      <trkpt lat="35.686817" lon="128.531289">
        <ele>935.2</ele>
      </trkpt>
      <trkpt lat="35.686625" lon="128.531244">
        <ele>935.0</ele>
      </trkpt>
      <trkpt lat="35.686487" lon="128.531223">
        <ele>934.7</ele>
      </trkpt>
      <trkpt lat="35.686198" lon="128.531369">
        <ele>934.5</ele>
      </trkpt>
      <trkpt lat="35.685965" lon="128.531393">
        <ele>934.3</ele>
      </trkpt>
      <trkpt lat="35.685773" lon="128.53139">
        <ele>934.2</ele>
      </trkpt>
      <trkpt lat="35.68577373778194" lon="128.53145599365237">
        <ele>934.1</ele>
      </trkpt>
      <trkpt lat="35.685773" lon="128.53139">
        <ele>934.0</ele>
      </trkpt>
      <trkpt lat="35.68564" lon="128.531388">
        <ele>933.9</ele>
      </trkpt>
      <trkpt lat="35.685447" lon="128.531417">
        <ele>933.9</ele>
      </trkpt>
      <trkpt lat="35.685289" lon="128.531386">
        <ele>933.8</ele>
      </trkpt>
      <trkpt lat="35.685021" lon="128.531473">
        <ele>933.8</ele>
      </trkpt>
      <trkpt lat="35.684689" lon="128.531597">
        <ele>933.8</ele>
      </trkpt>
      <trkpt lat="35.684544" lon="128.531649">
        <ele>933.8</ele>
      </trkpt>
      <trkpt lat="35.684391" lon="128.531775">
        <ele>933.7</ele>
      </trkpt>
      <trkpt lat="35.684118" lon="128.531684">
        <ele>933.6</ele>
      </trkpt>
      <trkpt lat="35.684013" lon="128.531657">
        <ele>933.4</ele>
      </trkpt>
      <trkpt lat="35.683946" lon="128.531719">
        <ele>933.2</ele>
      </trkpt>
      <trkpt lat="35.683782" lon="128.531837">
        <ele>932.9</ele>
      </trkpt>
      <trkpt lat="35.683677" lon="128.531845">
        <ele>932.5</ele>
      </trkpt>
      <trkpt lat="35.683608" lon="128.531775">
        <ele>932.1</ele>
      </trkpt>
      <trkpt lat="35.683435" lon="128.53174">
        <ele>931.5</ele>
      </trkpt>
      <trkpt lat="35.683372" lon="128.53185">
        <ele>930.9</ele>
      </trkpt>
      <trkpt lat="35.683298" lon="128.532074">
        <ele>930.1</ele>
      </trkpt>
      <trkpt lat="35.682977" lon="128.532724">
        <ele>929.3</ele>
      </trkpt>
      <trkpt lat="35.682684" lon="128.533102">
        <ele>928.3</ele>
      </trkpt>
      <trkpt lat="35.682325" lon="128.53331">
        <ele>927.2</ele>
      </trkpt>
      <trkpt lat="35.682243" lon="128.533389">
        <ele>926.0</ele>
      </trkpt>
      <trkpt lat="35.68231119457969" lon="128.5334944725037">
        <ele>924.8</ele>
      </trkpt>
      <trkpt lat="35.682243" lon="128.533389">
        <ele>923.3</ele>
      </trkpt>
      <trkpt lat="35.681987" lon="128.533638">
        <ele>921.8</ele>
      </trkpt>
      <trkpt lat="35.681806" lon="128.53394">
        <ele>920.1</ele>
      </trkpt>
      <trkpt lat="35.681603" lon="128.534089">
        <ele>918.3</ele>
      </trkpt>
      <trkpt lat="35.68083" lon="128.534412">
        <ele>916.4</ele>
      </trkpt>
      <trkpt lat="35.680466" lon="128.534657">
        <ele>914.3</ele>
      </trkpt>
      <trkpt lat="35.680307" lon="128.53468">
        <ele>912.1</ele>
      </trkpt>
      <trkpt lat="35.680045" lon="128.535006">
        <ele>909.7</ele>
      </trkpt>
      <trkpt lat="35.679905" lon="128.535502">
        <ele>907.2</ele>
      </trkpt>
      <trkpt lat="35.679815" lon="128.536147">
        <ele>904.5</ele>
      </trkpt>
      <trkpt lat="35.679845" lon="128.536418">
        <ele>901.6</ele>
      </trkpt>
      <trkpt lat="35.67979" lon="128.53681">
        <ele>898.6</ele>
      </trkpt>
      <trkpt lat="35.679677" lon="128.537133">
        <ele>895.5</ele>
      </trkpt>
      <trkpt lat="35.679479" lon="128.537448">
        <ele>892.1</ele>
      </trkpt>
      <trkpt lat="35.679272" lon="128.537691">
        <ele>888.7</ele>
      </trkpt>
      <trkpt lat="35.678846" lon="128.538114">
        <ele>885.0</ele>
      </trkpt>
      <trkpt lat="35.6787" lon="128.538442">
        <ele>881.3</ele>
      </trkpt>
      <trkpt lat="35.678579" lon="128.538761">
        <ele>877.4</ele>
      </trkpt>
      <trkpt lat="35.678556" lon="128.538771">
        <ele>873.5</ele>
      </trkpt>
      <trkpt lat="35.678516" lon="128.539111">
        <ele>869.4</ele>
      </trkpt>
      <trkpt lat="35.678607" lon="128.539363">
        <ele>865.1</ele>
      </trkpt>
      <trkpt lat="35.678546379783874" lon="128.53941679000857">
        <ele>860.8</ele>
      </trkpt>
      <trkpt lat="35.678607" lon="128.539363">
        <ele>856.4</ele>
      </trkpt>
      <trkpt lat="35.678764" lon="128.539706">
        <ele>851.9</ele>
      </trkpt>
      <trkpt lat="35.678764" lon="128.539787">
        <ele>847.3</ele>
      </trkpt>
      <trkpt lat="35.678738" lon="128.5402">
        <ele>842.7</ele>
      </trkpt>
      <trkpt lat="35.678734" lon="128.540549">
        <ele>838.0</ele>
      </trkpt>
      <trkpt lat="35.67879" lon="128.540785">
        <ele>833.1</ele>
      </trkpt>
      <trkpt lat="35.678756" lon="128.541192">
        <ele>828.3</ele>
      </trkpt>
      <trkpt lat="35.678847" lon="128.541434">
        <ele>823.4</ele>
      </trkpt>
      <trkpt lat="35.678838" lon="128.541917">
        <ele>818.4</ele>
      </trkpt>
      <trkpt lat="35.678952" lon="128.542378">
        <ele>813.4</ele>
      </trkpt>
      <trkpt lat="35.67903" lon="128.542652">
        <ele>808.4</ele>
      </trkpt>
      <trkpt lat="35.67903" lon="128.543156">
        <ele>803.3</ele>
      </trkpt>
      <trkpt lat="35.67893" lon="128.543585">
        <ele>798.2</ele>
      </trkpt>
      <trkpt lat="35.678947" lon="128.543875">
        <ele>793.1</ele>
      </trkpt>
      <trkpt lat="35.678987" lon="128.544298">
        <ele>788.0</ele>
      </trkpt>
      <trkpt lat="35.678956" lon="128.544508">
        <ele>782.9</ele>
      </trkpt>
      <trkpt lat="35.678834" lon="128.544695">
        <ele>777.8</ele>
      </trkpt>
      <trkpt lat="35.678525" lon="128.545114">
        <ele>772.6</ele>
      </trkpt>
      <trkpt lat="35.678472" lon="128.545371">
        <ele>767.5</ele>
      </trkpt>
      <trkpt lat="35.678446" lon="128.546069">
        <ele>762.3</ele>
      </trkpt>
      <trkpt lat="35.67852313963473" lon="128.54608297348025">
        <ele>757.1</ele>
      </trkpt>
      <trkpt lat="35.678446" lon="128.546069">
        <ele>751.9</ele>
      </trkpt>
      <trkpt lat="35.678424" lon="128.546455">
        <ele>746.7</ele>
      </trkpt>
      <trkpt lat="35.67839" lon="128.546841">
        <ele>741.4</ele>
      </trkpt>
      <trkpt lat="35.678407" lon="128.547002">
        <ele>736.1</ele>
      </trkpt>
      <trkpt lat="35.678512" lon="128.547297">
        <ele>730.8</ele>
      </trkpt>
      <trkpt lat="35.678716" lon="128.547667">
        <ele>725.5</ele>
      </trkpt>
      <trkpt lat="35.678834" lon="128.547785">
        <ele>720.1</ele>
      </trkpt>
      <trkpt lat="35.678956" lon="128.547839">
        <ele>714.8</ele>
      </trkpt>
      <trkpt lat="35.679178" lon="128.547962">
        <ele>709.4</ele>
      </trkpt>
      <trkpt lat="35.679322" lon="128.54822">
        <ele>704.0</ele>
      </trkpt>
      <trkpt lat="35.679444" lon="128.548477">
        <ele>698.6</ele>
      </trkpt>
      <trkpt lat="35.679492" lon="128.548676">
        <ele>693.2</ele>
      </trkpt>
      <trkpt lat="35.679522" lon="128.549019">
        <ele>687.8</ele>
      </trkpt>
      <trkpt lat="35.679514" lon="128.549674">
        <ele>682.4</ele>
      </trkpt>
      <trkpt lat="35.679505" lon="128.549888">
        <ele>676.9</ele>
      </trkpt>
      <trkpt lat="35.679309" lon="128.550146">
        <ele>671.5</ele>
      </trkpt>
      <trkpt lat="35.679178" lon="128.550682">
        <ele>666.0</ele>
      </trkpt>
      <trkpt lat="35.679139" lon="128.551304">
        <ele>660.5</ele>
      </trkpt>
      <trkpt lat="35.679039" lon="128.55161">
        <ele>655.0</ele>
      </trkpt>
      <trkpt lat="35.679061" lon="128.551723">
        <ele>649.5</ele>
      </trkpt>
      <trkpt lat="35.679135" lon="128.551916">
        <ele>644.0</ele>
      </trkpt>
      <trkpt lat="35.679156" lon="128.552071">
        <ele>638.5</ele>
      </trkpt>
      <trkpt lat="35.679087" lon="128.552227">
        <ele>632.9</ele>
      </trkpt>
      <trkpt lat="35.679087" lon="128.552479">
        <ele>627.3</ele>
      </trkpt>
      <trkpt lat="35.67913" lon="128.55272">
        <ele>621.6</ele>
      </trkpt>
      <trkpt lat="35.679287" lon="128.553166">
        <ele>616.0</ele>
      </trkpt>
      <trkpt lat="35.679601" lon="128.553949">
        <ele>610.3</ele>
      </trkpt>
      <trkpt lat="35.679745" lon="128.554421">
        <ele>604.6</ele>
      </trkpt>
      <trkpt lat="35.679775" lon="128.555076">
        <ele>599.0</ele>
      </trkpt>
      <trkpt lat="35.679732" lon="128.555414">
        <ele>593.5</ele>
      </trkpt>
      <trkpt lat="35.679666" lon="128.555687">
        <ele>587.9</ele>
      </trkpt>
      <trkpt lat="35.67991" lon="128.556089">
        <ele>582.5</ele>
      </trkpt>
      <trkpt lat="35.679932" lon="128.556304">
        <ele>577.1</ele>
      </trkpt>
      <trkpt lat="35.679971" lon="128.556384">
        <ele>571.7</ele>
      </trkpt>
      <trkpt lat="35.680167" lon="128.556433">
        <ele>566.4</ele>
      </trkpt>
      <trkpt lat="35.680398" lon="128.55647">
        <ele>561.2</ele>
      </trkpt>
      <trkpt lat="35.680681" lon="128.556663">
        <ele>556.0</ele>
      </trkpt>
      <trkpt lat="35.680792" lon="128.556676">
        <ele>550.9</ele>
      </trkpt>
      <trkpt lat="35.68079483220707" lon="128.55666160583496">
        <ele>545.8</ele>
      </trkpt>
      <trkpt lat="35.680792" lon="128.556676">
        <ele>540.8</ele>
      </trkpt>
      <trkpt lat="35.680825" lon="128.55668">
        <ele>535.7</ele>
      </trkpt>
      <trkpt lat="35.681265" lon="128.556454">
        <ele>530.8</ele>
      </trkpt>
      <trkpt lat="35.681401" lon="128.556459">
        <ele>525.9</ele>
      </trkpt>
      <trkpt lat="35.681509" lon="128.556626">
        <ele>521.0</ele>
      </trkpt>
      <trkpt lat="35.681579" lon="128.556819">
        <ele>516.2</ele>
      </trkpt>
      <trkpt lat="35.681693" lon="128.556916">
        <ele>511.4</ele>
      </trkpt>
      <trkpt lat="35.682128" lon="128.557168">
        <ele>506.7</ele>
      </trkpt>
      <trkpt lat="35.682342" lon="128.557334">
        <ele>502.1</ele>
      </trkpt>
      <trkpt lat="35.682603" lon="128.557554">
        <ele>497.5</ele>
      </trkpt>
      <trkpt lat="35.682886" lon="128.557645">
        <ele>492.9</ele>
      </trkpt>
      <trkpt lat="35.683008" lon="128.55772">
        <ele>488.4</ele>
      </trkpt>
      <trkpt lat="35.683209" lon="128.557967">
        <ele>484.0</ele>
      </trkpt>
      <trkpt lat="35.683322" lon="128.558182">
        <ele>479.6</ele>
      </trkpt>
      <trkpt lat="35.683501" lon="128.558412">
        <ele>475.2</ele>
      </trkpt>
      <trkpt lat="35.68391" lon="128.558734">
        <ele>470.9</ele>
      </trkpt>
      <trkpt lat="35.684067" lon="128.558697">
        <ele>466.6</ele>
      </trkpt>
      <trkpt lat="35.684107" lon="128.558671">
        <ele>462.3</ele>
      </trkpt>
      <trkpt lat="35.684379" lon="128.558892">
        <ele>458.1</ele>
      </trkpt>
      <trkpt lat="35.684434" lon="128.558981">
        <ele>453.8</ele>
      </trkpt>
      <trkpt lat="35.684508" lon="128.559246">
        <ele>449.6</ele>
      </trkpt>
      <trkpt lat="35.684574" lon="128.559448">
        <ele>445.3</ele>
      </trkpt>
      <trkpt lat="35.684561" lon="128.559509">
        <ele>441.1</ele>
      </trkpt>
      <trkpt lat="35.684612" lon="128.55956">
        <ele>436.8</ele>
      </trkpt>
      <trkpt lat="35.685043" lon="128.55993">
        <ele>432.5</ele>
      </trkpt>
      <trkpt lat="35.685309" lon="128.559979">
        <ele>428.1</ele>
      </trkpt>
      <trkpt lat="35.685653" lon="128.559823">
        <ele>423.8</ele>
      </trkpt>
      <trkpt lat="35.68578" lon="128.559796">
        <ele>419.5</ele>
      </trkpt>
      <trkpt lat="35.686019" lon="128.559904">
        <ele>415.2</ele>
      </trkpt>
      <trkpt lat="35.686316" lon="128.560054">
        <ele>410.9</ele>
      </trkpt>
      <trkpt lat="35.686743" lon="128.560241">
        <ele>406.6</ele>
      </trkpt>
      <trkpt lat="35.686843" lon="128.560441">
        <ele>402.4</ele>
      </trkpt>
      <trkpt lat="35.68672649176146" lon="128.5605311393738">
        <ele>398.1</ele>
      </trkpt>
      <trkpt lat="35.686843" lon="128.560441">
        <ele>394.0</ele>
      </trkpt>
      <trkpt lat="35.686873" lon="128.560499">
        <ele>389.8</ele>
      </trkpt>
      <trkpt lat="35.687048" lon="128.561245">
        <ele>385.6</ele>
      </trkpt>
      <trkpt lat="35.68727" lon="128.561738">
        <ele>381.5</ele>
      </trkpt>
      <trkpt lat="35.687339" lon="128.561856">
        <ele>377.5</ele>
      </trkpt>
      <trkpt lat="35.68754" lon="128.561851">
        <ele>373.4</ele>
      </trkpt>
      <trkpt lat="35.687684" lon="128.561738">
        <ele>369.4</ele>
      </trkpt>
      <trkpt lat="35.687945" lon="128.561518">
        <ele>365.5</ele>
      </trkpt>
      <trkpt lat="35.688159" lon="128.561545">
        <ele>361.6</ele>
      </trkpt>
      <trkpt lat="35.688673" lon="128.561642">
        <ele>357.8</ele>
      </trkpt>
      <trkpt lat="35.688886" lon="128.561861">
        <ele>354.0</ele>
      </trkpt>
      <trkpt lat="35.689012" lon="128.562173">
        <ele>350.4</ele>
      </trkpt>
      <trkpt lat="35.6892" lon="128.562527">
        <ele>346.8</ele>
      </trkpt>
      <trkpt lat="35.689385" lon="128.562653">
        <ele>343.4</ele>
      </trkpt>
      <trkpt lat="35.689413" lon="128.562761">
        <ele>340.1</ele>
      </trkpt>
      <trkpt lat="35.689444" lon="128.562918">
        <ele>336.9</ele>
      </trkpt>
      <trkpt lat="35.689515" lon="128.563">
        <ele>333.8</ele>
      </trkpt>
      <trkpt lat="35.689607" lon="128.563036">
        <ele>330.8</ele>
      </trkpt>
      <trkpt lat="35.689702" lon="128.563132">
        <ele>328.0</ele>
      </trkpt>
      <trkpt lat="35.689776" lon="128.563303">
        <ele>325.3</ele>
      </trkpt>
      <trkpt lat="35.68992" lon="128.563376">
        <ele>322.6</ele>
      </trkpt>
      <trkpt lat="35.689998" lon="128.563452">
        <ele>320.1</ele>
      </trkpt>
      <trkpt lat="35.690085" lon="128.563585">
        <ele>317.7</ele>
      </trkpt>
      <trkpt lat="35.690059" lon="128.56375">
        <ele>315.3</ele>
      </trkpt>
      <trkpt lat="35.690068" lon="128.563876">
        <ele>313.1</ele>
      </trkpt>
      <trkpt lat="35.690101" lon="128.563986">
        <ele>310.9</ele>
      </trkpt>
      <trkpt lat="35.690145" lon="128.563959">
        <ele>308.8</ele>
      </trkpt>
      <trkpt lat="35.690209" lon="128.563746">
        <ele>306.8</ele>
      </trkpt>
      <trkpt lat="35.690337" lon="128.563643">
        <ele>304.9</ele>
      </trkpt>
      <trkpt lat="35.690351" lon="128.563432">
        <ele>303.0</ele>
      </trkpt>
      <trkpt lat="35.690357" lon="128.563405">
        <ele>301.1</ele>
      </trkpt>
      <trkpt lat="35.69035730962716" lon="128.56340646743777">
        <ele>299.4</ele>
      </trkpt>
      <trkpt lat="35.690357" lon="128.563405">
        <ele>297.6</ele>
      </trkpt>
      <trkpt lat="35.690385" lon="128.563283">
        <ele>296.0</ele>
      </trkpt>
      <trkpt lat="35.690439" lon="128.563184">
        <ele>294.4</ele>
      </trkpt>
      <trkpt lat="35.690476" lon="128.563101">
        <ele>292.8</ele>
      </trkpt>
      <trkpt lat="35.690484" lon="128.563058">
        <ele>291.2</ele>
      </trkpt>
      <trkpt lat="35.690482206821414" lon="128.56305778026584">
        <ele>289.6</ele>
      </trkpt>
      <trkpt lat="35.69055990439593" lon="128.5631507635117">
        <ele>288.1</ele>
      </trkpt>
      <trkpt lat="35.6906339711722" lon="128.56312662363055">
        <ele>286.6</ele>
      </trkpt>
      <trkpt lat="35.690975984511674" lon="128.56348067522052">
        <ele>285.1</ele>
      </trkpt>
      <trkpt lat="35.69142909546729" lon="128.5638624429703">
        <ele>283.6</ele>
      </trkpt>
      <trkpt lat="35.69159901141204" lon="128.5637873411179">
        <ele>282.0</ele>
      </trkpt>
      <trkpt lat="35.69192577182683" lon="128.56398046016696">
        <ele>280.4</ele>
      </trkpt>
      <trkpt lat="35.692297550937404" lon="128.56482267379764">
        <ele>278.8</ele>
      </trkpt>
      <trkpt lat="35.692837789368674" lon="128.56495141983035">
        <ele>277.2</ele>
      </trkpt>
      <trkpt lat="35.69311662067565" lon="128.56608510017398">
        <ele>275.6</ele>
      </trkpt>
      <trkpt lat="35.69298010963674" lon="128.56719732284546">
        <ele>273.9</ele>
      </trkpt>
      <trkpt lat="35.6930672443694" lon="128.56749773025513">
        <ele>272.2</ele>
      </trkpt>
      <trkpt lat="35.69318051937954" lon="128.56843113899234">
        <ele>270.5</ele>
      </trkpt>
      <trkpt lat="35.69356100605631" lon="128.56837391853335">
        <ele>268.7</ele>
      </trkpt>
      <trkpt lat="35.693559" lon="128.56838">
        <ele>267.0</ele>
      </trkpt>
      <trkpt lat="35.694313" lon="128.568524">
        <ele>265.3</ele>
      </trkpt>
      <trkpt lat="35.694589" lon="128.568565">
        <ele>263.6</ele>
      </trkpt>
      <trkpt lat="35.694774" lon="128.568619">
        <ele>262.0</ele>
      </trkpt>
      <trkpt lat="35.694924" lon="128.568666">
        <ele>260.4</ele>
      </trkpt>
      <trkpt lat="35.695085" lon="128.568831">
        <ele>258.9</ele>
      </trkpt>
      <trkpt lat="35.695578" lon="128.569478">
        <ele>257.4</ele>
      </trkpt>
      <trkpt lat="35.695997" lon="128.569963">
        <ele>255.9</ele>
      </trkpt>
      <trkpt lat="35.696393" lon="128.570622">
        <ele>254.4</ele>
      </trkpt>
      <trkpt lat="35.696578" lon="128.570862">
        <ele>253.0</ele>
      </trkpt>
      <trkpt lat="35.696806" lon="128.571106">
        <ele>251.6</ele>
      </trkpt>
      <trkpt lat="35.696884" lon="128.571165">
        <ele>250.2</ele>
      </trkpt>
      <trkpt lat="35.69688074790911" lon="128.5711741447449">
        <ele>248.9</ele>
      </trkpt>
      <trkpt lat="35.696884" lon="128.571165">
        <ele>247.6</ele>
      </trkpt>
      <trkpt lat="35.697028" lon="128.571272">
        <ele>246.3</ele>
      </trkpt>
      <trkpt lat="35.697171" lon="128.571429">
        <ele>245.0</ele>
      </trkpt>
      <trkpt lat="35.697353" lon="128.57167">
        <ele>243.8</ele>
      </trkpt>
      <trkpt lat="35.697772" lon="128.572175">
        <ele>242.6</ele>
      </trkpt>
      <trkpt lat="35.697935" lon="128.572292">
        <ele>241.5</ele>
      </trkpt>
      <trkpt lat="35.698083" lon="128.572409">
        <ele>240.4</ele>
      </trkpt>
      <trkpt lat="35.698168" lon="128.572502">
        <ele>239.4</ele>
      </trkpt>
      <trkpt lat="35.69824" lon="128.57265">
        <ele>238.4</ele>
      </trkpt>
      <trkpt lat="35.698335" lon="128.572893">
        <ele>237.5</ele>
      </trkpt>
      <trkpt lat="35.698413" lon="128.57322">
        <ele>236.6</ele>
      </trkpt>
      <trkpt lat="35.698453" lon="128.573307">
        <ele>235.8</ele>
      </trkpt>
      <trkpt lat="35.698511" lon="128.57339">
        <ele>235.0</ele>
      </trkpt>
      <trkpt lat="35.698588" lon="128.573476">
        <ele>234.2</ele>
      </trkpt>
      <trkpt lat="35.698711" lon="128.57355">
        <ele>233.5</ele>
      </trkpt>
      <trkpt lat="35.698891" lon="128.573679">
        <ele>232.8</ele>
      </trkpt>
      <trkpt lat="35.698991" lon="128.573766">
        <ele>232.1</ele>
      </trkpt>
      <trkpt lat="35.699119" lon="128.573966">
        <ele>231.4</ele>
      </trkpt>
      <trkpt lat="35.699206" lon="128.574064">
        <ele>230.8</ele>
      </trkpt>
      <trkpt lat="35.699375" lon="128.574171">
        <ele>230.1</ele>
      </trkpt>
      <trkpt lat="35.699559" lon="128.574171">
        <ele>229.3</ele>
      </trkpt>
      <trkpt lat="35.699642" lon="128.574217">
        <ele>228.6</ele>
      </trkpt>
      <trkpt lat="35.699717" lon="128.574306">
        <ele>227.8</ele>
      </trkpt>
      <trkpt lat="35.700015" lon="128.574836">
        <ele>227.0</ele>
      </trkpt>
      <trkpt lat="35.70016" lon="128.575157">
        <ele>226.3</ele>
      </trkpt>
      <trkpt lat="35.70033" lon="128.575471">
        <ele>225.5</ele>
      </trkpt>
      <trkpt lat="35.700374" lon="128.57554">
        <ele>224.7</ele>
      </trkpt>
      <trkpt lat="35.70040074316624" lon="128.57551574707034">
        <ele>223.9</ele>
      </trkpt>
      <trkpt lat="35.700374" lon="128.57554">
        <ele>223.1</ele>
      </trkpt>
      <trkpt lat="35.700602" lon="128.575898">
        <ele>222.3</ele>
      </trkpt>
      <trkpt lat="35.700679" lon="128.576009">
        <ele>221.6</ele>
      </trkpt>
      <trkpt lat="35.700797" lon="128.57611">
        <ele>220.8</ele>
      </trkpt>
      <trkpt lat="35.700817" lon="128.576168">
        <ele>220.1</ele>
      </trkpt>
      <trkpt lat="35.701682" lon="128.576522">
        <ele>219.3</ele>
      </trkpt>
      <trkpt lat="35.701842" lon="128.576538">
        <ele>218.6</ele>
      </trkpt>
      <trkpt lat="35.701965" lon="128.576516">
        <ele>217.9</ele>
      </trkpt>
      <trkpt lat="35.70239" lon="128.576384">
        <ele>217.1</ele>
      </trkpt>
      <trkpt lat="35.7025" lon="128.576362">
        <ele>216.4</ele>
      </trkpt>
      <trkpt lat="35.702625" lon="128.576356">
        <ele>215.7</ele>
      </trkpt>
      <trkpt lat="35.703053" lon="128.576365">
        <ele>214.9</ele>
      </trkpt>
      <trkpt lat="35.703191" lon="128.576347">
        <ele>214.2</ele>
      </trkpt>
      <trkpt lat="35.703449" lon="128.576245">
        <ele>213.5</ele>
      </trkpt>
      <trkpt lat="35.703617" lon="128.576217">
        <ele>212.8</ele>
      </trkpt>
      <trkpt lat="35.703978" lon="128.576228">
        <ele>212.1</ele>
      </trkpt>
      <trkpt lat="35.704118" lon="128.576239">
        <ele>211.4</ele>
      </trkpt>
      <trkpt lat="35.704231" lon="128.57619">
        <ele>210.8</ele>
      </trkpt>
      <trkpt lat="35.704327" lon="128.576126">
        <ele>210.2</ele>
      </trkpt>
      <trkpt lat="35.704427" lon="128.576105">
        <ele>209.6</ele>
      </trkpt>
      <trkpt lat="35.704579" lon="128.576137">
        <ele>209.1</ele>
      </trkpt>
      <trkpt lat="35.704638" lon="128.576178">
        <ele>208.6</ele>
      </trkpt>
      <trkpt lat="35.704582713762875" lon="128.57630252838135">
        <ele>208.2</ele>
      </trkpt>
      <trkpt lat="35.704638" lon="128.576178">
        <ele>207.8</ele>
      </trkpt>
      <trkpt lat="35.705102" lon="128.576496">
        <ele>207.4</ele>
      </trkpt>
      <trkpt lat="35.70532" lon="128.576577">
        <ele>207.1</ele>
      </trkpt>
      <trkpt lat="35.705516" lon="128.576695">
        <ele>206.9</ele>
      </trkpt>
      <trkpt lat="35.705655" lon="128.576705">
        <ele>206.7</ele>
      </trkpt>
      <trkpt lat="35.705973" lon="128.576636">
        <ele>206.6</ele>
      </trkpt>
      <trkpt lat="35.70637" lon="128.576625">
        <ele>206.5</ele>
      </trkpt>
      <trkpt lat="35.707237" lon="128.576646">
        <ele>206.4</ele>
      </trkpt>
      <trkpt lat="35.707415" lon="128.576636">
        <ele>206.4</ele>
      </trkpt>
      <trkpt lat="35.707707" lon="128.57648">
        <ele>206.5</ele>
      </trkpt>
      <trkpt lat="35.707886" lon="128.576453">
        <ele>206.6</ele>
      </trkpt>
      <trkpt lat="35.70809" lon="128.576486">
        <ele>206.7</ele>
      </trkpt>
      <trkpt lat="35.708513" lon="128.576657">
        <ele>206.9</ele>
      </trkpt>
      <trkpt lat="35.708827" lon="128.576883">
        <ele>207.2</ele>
      </trkpt>
      <trkpt lat="35.708811" lon="128.576911">
        <ele>207.5</ele>
      </trkpt>
      <trkpt lat="35.708845774653255" lon="128.57693910598755">
        <ele>207.8</ele>
      </trkpt>
      <trkpt lat="35.708811" lon="128.576911">
        <ele>208.3</ele>
      </trkpt>
      <trkpt lat="35.708827" lon="128.576883">
        <ele>208.8</ele>
      </trkpt>
      <trkpt lat="35.709107" lon="128.576416">
        <ele>209.4</ele>
      </trkpt>
      <trkpt lat="35.709677" lon="128.575375">
        <ele>210.0</ele>
      </trkpt>
      <trkpt lat="35.709869" lon="128.575035">
        <ele>210.7</ele>
      </trkpt>
      <trkpt lat="35.71061" lon="128.573835">
        <ele>211.4</ele>
      </trkpt>
      <trkpt lat="35.710754" lon="128.573708">
        <ele>212.2</ele>
      </trkpt>
      <trkpt lat="35.710927" lon="128.573634">
        <ele>213.0</ele>
      </trkpt>
      <trkpt lat="35.711671" lon="128.573298">
        <ele>213.9</ele>
      </trkpt>
      <trkpt lat="35.711817" lon="128.57319">
        <ele>214.9</ele>
      </trkpt>
      <trkpt lat="35.711934" lon="128.573057">
        <ele>215.8</ele>
      </trkpt>
      <trkpt lat="35.712281" lon="128.572505">
        <ele>216.9</ele>
      </trkpt>
      <trkpt lat="35.712357" lon="128.572551">
        <ele>218.0</ele>
      </trkpt>
      <trkpt lat="35.712392" lon="128.572659">
        <ele>219.1</ele>
      </trkpt>
      <trkpt lat="35.712375" lon="128.572751">
        <ele>220.3</ele>
      </trkpt>
      <trkpt lat="35.71233620379414" lon="128.5727405548096">
        <ele>221.5</ele>
      </trkpt>
      <trkpt lat="35.712375" lon="128.572751">
        <ele>222.8</ele>
      </trkpt>
      <trkpt lat="35.712392" lon="128.572659">
        <ele>224.1</ele>
      </trkpt>
      <trkpt lat="35.712357" lon="128.572551">
        <ele>225.5</ele>
      </trkpt>
      <trkpt lat="35.712281" lon="128.572505">
        <ele>226.9</ele>
      </trkpt>
      <trkpt lat="35.712409" lon="128.572219">
        <ele>228.3</ele>
      </trkpt>
      <trkpt lat="35.712483" lon="128.571871">
        <ele>229.8</ele>
      </trkpt>
      <trkpt lat="35.712587" lon="128.57159">
        <ele>231.4</ele>
      </trkpt>
      <trkpt lat="35.712729" lon="128.571298">
        <ele>233.0</ele>
      </trkpt>
      <trkpt lat="35.712913" lon="128.570978">
        <ele>234.6</ele>
      </trkpt>
      <trkpt lat="35.71308" lon="128.570588">
        <ele>236.3</ele>
      </trkpt>
      <trkpt lat="35.7133" lon="128.569567">
        <ele>238.1</ele>
      </trkpt>
      <trkpt lat="35.713469" lon="128.569244">
        <ele>239.9</ele>
      </trkpt>
      <trkpt lat="35.71409" lon="128.568641">
        <ele>241.7</ele>
      </trkpt>
      <trkpt lat="35.714186" lon="128.568566">
        <ele>243.5</ele>
      </trkpt>
      <trkpt lat="35.714247" lon="128.568454">
        <ele>245.4</ele>
      </trkpt>
      <trkpt lat="35.714317" lon="128.568306">
        <ele>247.3</ele>
      </trkpt>
      <trkpt lat="35.714537" lon="128.56775">
        <ele>249.2</ele>
      </trkpt>
      <trkpt lat="35.714612" lon="128.567514">
        <ele>251.1</ele>
      </trkpt>
      <trkpt lat="35.714639" lon="128.5673">
        <ele>253.0</ele>
      </trkpt>
      <trkpt lat="35.714772" lon="128.566398">
        <ele>255.0</ele>
      </trkpt>
      <trkpt lat="35.714843" lon="128.566201">
        <ele>256.9</ele>
      </trkpt>
      <trkpt lat="35.714907" lon="128.565913">
        <ele>258.8</ele>
      </trkpt>
      <trkpt lat="35.71501" lon="128.565516">
        <ele>260.8</ele>
      </trkpt>
      <trkpt lat="35.715052" lon="128.565325">
        <ele>262.7</ele>
      </trkpt>
      <trkpt lat="35.715064" lon="128.565119">
        <ele>264.7</ele>
      </trkpt>
      <trkpt lat="35.715077" lon="128.56406">
        <ele>266.7</ele>
      </trkpt>
      <trkpt lat="35.715073" lon="128.563853">
        <ele>268.6</ele>
      </trkpt>
      <trkpt lat="35.714993" lon="128.56321">
        <ele>270.6</ele>
      </trkpt>
      <trkpt lat="35.71498441410067" lon="128.5632133483887">
        <ele>272.5</ele>
      </trkpt>
      <trkpt lat="35.714993" lon="128.56321">
        <ele>274.5</ele>
      </trkpt>
      <trkpt lat="35.714982" lon="128.563117">
        <ele>276.4</ele>
      </trkpt>
      <trkpt lat="35.714975" lon="128.562975">
        <ele>278.4</ele>
      </trkpt>
      <trkpt lat="35.715002" lon="128.562829">
        <ele>280.3</ele>
      </trkpt>
      <trkpt lat="35.715095" lon="128.562559">
        <ele>282.2</ele>
      </trkpt>
      <trkpt lat="35.715337" lon="128.562091">
        <ele>284.1</ele>
      </trkpt>
      <trkpt lat="35.715548" lon="128.561784">
        <ele>286.0</ele>
      </trkpt>
      <trkpt lat="35.715817" lon="128.56136">
        <ele>287.9</ele>
      </trkpt>
      <trkpt lat="35.715879" lon="128.561222">
        <ele>289.8</ele>
      </trkpt>
      <trkpt lat="35.715891" lon="128.561133">
        <ele>291.6</ele>
      </trkpt>
      <trkpt lat="35.715867" lon="128.561048">
        <ele>293.4</ele>
      </trkpt>
      <trkpt lat="35.715825" lon="128.560967">
        <ele>295.2</ele>
      </trkpt>
      <trkpt lat="35.71568" lon="128.560804">
        <ele>296.9</ele>
      </trkpt>
      <trkpt lat="35.715518" lon="128.560566">
        <ele>298.6</ele>
      </trkpt>
      <trkpt lat="35.715332" lon="128.560247">
        <ele>300.3</ele>
      </trkpt>
      <trkpt lat="35.715225" lon="128.559959">
        <ele>301.9</ele>
      </trkpt>
      <trkpt lat="35.715195" lon="128.559901">
        <ele>303.5</ele>
      </trkpt>
      <trkpt lat="35.715124" lon="128.559681">
        <ele>305.2</ele>
      </trkpt>
      <trkpt lat="35.715121" lon="128.559648">
        <ele>306.8</ele>
      </trkpt>
      <trkpt lat="35.715170250116074" lon="128.55964422225952">
        <ele>308.4</ele>
      </trkpt>
      <trkpt lat="35.715121" lon="128.559648">
        <ele>310.0</ele>
      </trkpt>
      <trkpt lat="35.715109" lon="128.559476">
        <ele>311.6</ele>
      </trkpt>
      <trkpt lat="35.715123" lon="128.559314">
        <ele>313.2</ele>
      </trkpt>
      <trkpt lat="35.715278" lon="128.558978">
        <ele>314.8</ele>
      </trkpt>
      <trkpt lat="35.715571" lon="128.558575">
        <ele>316.4</ele>
      </trkpt>
      <trkpt lat="35.715634" lon="128.558504">
        <ele>318.1</ele>
      </trkpt>
      <trkpt lat="35.715693" lon="128.558437">
        <ele>319.6</ele>
      </trkpt>
      <trkpt lat="35.715841" lon="128.558316">
        <ele>321.3</ele>
      </trkpt>
      <trkpt lat="35.715951" lon="128.558243">
        <ele>322.8</ele>
      </trkpt>
      <trkpt lat="35.716072" lon="128.558183">
        <ele>324.4</ele>
      </trkpt>
      <trkpt lat="35.716213" lon="128.558165">
        <ele>326.0</ele>
      </trkpt>
      <trkpt lat="35.716342" lon="128.558167">
        <ele>327.6</ele>
      </trkpt>
      <trkpt lat="35.716489" lon="128.558185">
        <ele>329.1</ele>
      </trkpt>
      <trkpt lat="35.716612" lon="128.558214">
        <ele>330.7</ele>
      </trkpt>
      <trkpt lat="35.716725" lon="128.558254">
        <ele>332.3</ele>
      </trkpt>
      <trkpt lat="35.717444" lon="128.558549">
        <ele>333.8</ele>
      </trkpt>
      <trkpt lat="35.717523" lon="128.558575">
        <ele>335.4</ele>
      </trkpt>
      <trkpt lat="35.71763" lon="128.558597">
        <ele>336.9</ele>
      </trkpt>
      <trkpt lat="35.71767" lon="128.558576">
        <ele>338.4</ele>
      </trkpt>
      <trkpt lat="35.71762672921859" lon="128.55844974517825">
        <ele>340.0</ele>
      </trkpt>
      <trkpt lat="35.71767" lon="128.558576">
        <ele>341.5</ele>
      </trkpt>
      <trkpt lat="35.717696" lon="128.558563">
        <ele>343.1</ele>
      </trkpt>
      <trkpt lat="35.717744" lon="128.5585">
        <ele>344.7</ele>
      </trkpt>
      <trkpt lat="35.71777" lon="128.558417">
        <ele>346.3</ele>
      </trkpt>
      <trkpt lat="35.71777" lon="128.558293">
        <ele>348.0</ele>
      </trkpt>
      <trkpt lat="35.717756" lon="128.558162">
        <ele>349.6</ele>
      </trkpt>
      <trkpt lat="35.717731" lon="128.55803">
        <ele>351.3</ele>
      </trkpt>
      <trkpt lat="35.717645" lon="128.557724">
        <ele>353.0</ele>
      </trkpt>
      <trkpt lat="35.717249" lon="128.55677">
        <ele>354.7</ele>
      </trkpt>
      <trkpt lat="35.717211" lon="128.556597">
        <ele>356.4</ele>
      </trkpt>
      <trkpt lat="35.717205" lon="128.556551">
        <ele>358.1</ele>
      </trkpt>
      <trkpt lat="35.71730733314537" lon="128.55653285980227">
        <ele>359.8</ele>
      </trkpt>
      <trkpt lat="35.717205" lon="128.556551">
        <ele>361.5</ele>
      </trkpt>
      <trkpt lat="35.717188" lon="128.55642">
        <ele>363.2</ele>
      </trkpt>
      <trkpt lat="35.717135" lon="128.556274">
        <ele>364.9</ele>
      </trkpt>
      <trkpt lat="35.717131" lon="128.556077">
        <ele>366.6</ele>
      </trkpt>
      <trkpt lat="35.717091" lon="128.555982">
        <ele>368.3</ele>
      </trkpt>
      <trkpt lat="35.717076" lon="128.555867">
        <ele>369.9</ele>
      </trkpt>
      <trkpt lat="35.717078" lon="128.555787">
        <ele>371.6</ele>
      </trkpt>
      <trkpt lat="35.717108" lon="128.555722">
        <ele>373.3</ele>
      </trkpt>
      <trkpt lat="35.717293" lon="128.55549">
        <ele>374.9</ele>
      </trkpt>
      <trkpt lat="35.717365" lon="128.555345">
        <ele>376.6</ele>
      </trkpt>
      <trkpt lat="35.71741" lon="128.555235">
        <ele>378.2</ele>
      </trkpt>
      <trkpt lat="35.717437" lon="128.555113">
        <ele>379.9</ele>
      </trkpt>
      <trkpt lat="35.71744" lon="128.554922">
        <ele>381.5</ele>
      </trkpt>
      <trkpt lat="35.71746" lon="128.554846">
        <ele>383.1</ele>
      </trkpt>
      <trkpt lat="35.71749" lon="128.554766">
        <ele>384.6</ele>
      </trkpt>
      <trkpt lat="35.717562" lon="128.55461">
        <ele>386.2</ele>
      </trkpt>
      <trkpt lat="35.717605" lon="128.554472">
        <ele>387.7</ele>
      </trkpt>
      <trkpt lat="35.717638" lon="128.554306">
        <ele>389.2</ele>
      </trkpt>
      <trkpt lat="35.71768" lon="128.553995">
        <ele>390.7</ele>
      </trkpt>
      <trkpt lat="35.717681" lon="128.553924">
        <ele>392.1</ele>
      </trkpt>
      <trkpt lat="35.717638" lon="128.553796">
        <ele>393.5</ele>
      </trkpt>
      <trkpt lat="35.717634" lon="128.553733">
        <ele>394.8</ele>
      </trkpt>
      <trkpt lat="35.717643" lon="128.553696">
        <ele>396.0</ele>
      </trkpt>
      <trkpt lat="35.71767318672258" lon="128.55370759963992">
        <ele>397.2</ele>
      </trkpt>
      <trkpt lat="35.717643" lon="128.553696">
        <ele>398.4</ele>
      </trkpt>
      <trkpt lat="35.717655" lon="128.553648">
        <ele>399.5</ele>
      </trkpt>
      <trkpt lat="35.717668" lon="128.55355">
        <ele>400.5</ele>
      </trkpt>
      <trkpt lat="35.71766" lon="128.55348">
        <ele>401.5</ele>
      </trkpt>
      <trkpt lat="35.717618" lon="128.553363">
        <ele>402.4</ele>
      </trkpt>
      <trkpt lat="35.717585" lon="128.55331">
        <ele>403.3</ele>
      </trkpt>
      <trkpt lat="35.717487" lon="128.553262">
        <ele>404.1</ele>
      </trkpt>
      <trkpt lat="35.71739" lon="128.553106">
        <ele>404.9</ele>
      </trkpt>
      <trkpt lat="35.717344" lon="128.553066">
        <ele>405.6</ele>
      </trkpt>
      <trkpt lat="35.717302" lon="128.55305">
        <ele>406.3</ele>
      </trkpt>
      <trkpt lat="35.717247" lon="128.553064">
        <ele>406.9</ele>
      </trkpt>
      <trkpt lat="35.717197" lon="128.553099">
        <ele>407.4</ele>
      </trkpt>
      <trkpt lat="35.717101" lon="128.553197">
        <ele>408.0</ele>
      </trkpt>
      <trkpt lat="35.717065" lon="128.553221">
        <ele>408.4</ele>
      </trkpt>
      <trkpt lat="35.717029" lon="128.553225">
        <ele>408.9</ele>
      </trkpt>
      <trkpt lat="35.716995" lon="128.553205">
        <ele>409.4</ele>
      </trkpt>
      <trkpt lat="35.716972" lon="128.553174">
        <ele>409.8</ele>
      </trkpt>
      <trkpt lat="35.716879" lon="128.553004">
        <ele>410.2</ele>
      </trkpt>
      <trkpt lat="35.716761" lon="128.552749">
        <ele>410.6</ele>
      </trkpt>
      <trkpt lat="35.716728" lon="128.552716">
        <ele>411.0</ele>
      </trkpt>
      <trkpt lat="35.716633" lon="128.552687">
        <ele>411.4</ele>
      </trkpt>
      <trkpt lat="35.716593" lon="128.552695">
        <ele>411.8</ele>
      </trkpt>
      <trkpt lat="35.716532" lon="128.552749">
        <ele>412.1</ele>
      </trkpt>
      <trkpt lat="35.716306" lon="128.55305">
        <ele>412.5</ele>
      </trkpt>
      <trkpt lat="35.716242" lon="128.553078">
        <ele>412.9</ele>
      </trkpt>
      <trkpt lat="35.716145" lon="128.553103">
        <ele>413.3</ele>
      </trkpt>
      <trkpt lat="35.716096" lon="128.55309">
        <ele>413.8</ele>
      </trkpt>
      <trkpt lat="35.715963" lon="128.552895">
        <ele>414.3</ele>
      </trkpt>
      <trkpt lat="35.715803" lon="128.552738">
        <ele>414.8</ele>
      </trkpt>
      <trkpt lat="35.71577421417329" lon="128.5527849197388">
        <ele>415.4</ele>
      </trkpt>
      <trkpt lat="35.715803" lon="128.552738">
        <ele>416.0</ele>
      </trkpt>
      <trkpt lat="35.715748" lon="128.552685">
        <ele>416.6</ele>
      </trkpt>
      <trkpt lat="35.715664" lon="128.552618">
        <ele>417.3</ele>
      </trkpt>
      <trkpt lat="35.715615" lon="128.5526">
        <ele>417.9</ele>
      </trkpt>
      <trkpt lat="35.715378" lon="128.552372">
        <ele>418.6</ele>
      </trkpt>
      <trkpt lat="35.715038" lon="128.552349">
        <ele>419.4</ele>
      </trkpt>
      <trkpt lat="35.714633" lon="128.552283">
        <ele>420.2</ele>
      </trkpt>
      <trkpt lat="35.714547" lon="128.552255">
        <ele>421.0</ele>
      </trkpt>
      <trkpt lat="35.714521" lon="128.552198">
        <ele>421.9</ele>
      </trkpt>
      <trkpt lat="35.714518" lon="128.552125">
        <ele>422.8</ele>
      </trkpt>
      <trkpt lat="35.714551" lon="128.552055">
        <ele>423.8</ele>
      </trkpt>
      <trkpt lat="35.714571" lon="128.551865">
        <ele>424.9</ele>
      </trkpt>
      <trkpt lat="35.714415" lon="128.5516">
        <ele>425.9</ele>
      </trkpt>
      <trkpt lat="35.71427" lon="128.55132">
        <ele>427.0</ele>
      </trkpt>
      <trkpt lat="35.714216" lon="128.551262">
        <ele>428.1</ele>
      </trkpt>
      <trkpt lat="35.714053" lon="128.551012">
        <ele>429.3</ele>
      </trkpt>
      <trkpt lat="35.713894" lon="128.550854">
        <ele>430.4</ele>
      </trkpt>
      <trkpt lat="35.713806" lon="128.550748">
        <ele>431.6</ele>
      </trkpt>
      <trkpt lat="35.713763" lon="128.550718">
        <ele>432.8</ele>
      </trkpt>
      <trkpt lat="35.713707" lon="128.550649">
        <ele>434.0</ele>
      </trkpt>
      <trkpt lat="35.713589" lon="128.550599">
        <ele>435.2</ele>
      </trkpt>
      <trkpt lat="35.713275" lon="128.550344">
        <ele>436.4</ele>
      </trkpt>
      <trkpt lat="35.712948" lon="128.550138">
        <ele>437.6</ele>
      </trkpt>
      <trkpt lat="35.712853" lon="128.550098">
        <ele>438.8</ele>
      </trkpt>
      <trkpt lat="35.712786" lon="128.550077">
        <ele>440.0</ele>
      </trkpt>
      <trkpt lat="35.712789193374775" lon="128.55006694793704">
        <ele>441.2</ele>
      </trkpt>
      <trkpt lat="35.712786" lon="128.550077">
        <ele>442.3</ele>
      </trkpt>
      <trkpt lat="35.712763" lon="128.550071">
        <ele>443.5</ele>
      </trkpt>
      <trkpt lat="35.712398" lon="128.55009">
        <ele>444.6</ele>
      </trkpt>
      <trkpt lat="35.712363" lon="128.550099">
        <ele>445.7</ele>
      </trkpt>
      <trkpt lat="35.712244" lon="128.550063">
        <ele>446.9</ele>
      </trkpt>
      <trkpt lat="35.712004" lon="128.549926">
        <ele>448.0</ele>
      </trkpt>
      <trkpt lat="35.711644" lon="128.549912">
        <ele>449.1</ele>
      </trkpt>
      <trkpt lat="35.711526" lon="128.549811">
        <ele>450.2</ele>
      </trkpt>
      <trkpt lat="35.711481" lon="128.549701">
        <ele>451.4</ele>
      </trkpt>
      <trkpt lat="35.711442" lon="128.549331">
        <ele>452.5</ele>
      </trkpt>
      <trkpt lat="35.711371" lon="128.548924">
        <ele>453.6</ele>
      </trkpt>
      <trkpt lat="35.71133" lon="128.548791">
        <ele>454.8</ele>
      </trkpt>
      <trkpt lat="35.711275" lon="128.54872">
        <ele>455.9</ele>
      </trkpt>
      <trkpt lat="35.711051" lon="128.548652">
        <ele>457.1</ele>
      </trkpt>
      <trkpt lat="35.710874" lon="128.548642">
        <ele>458.2</ele>
      </trkpt>
      <trkpt lat="35.710574" lon="128.548713">
        <ele>459.3</ele>
      </trkpt>
      <trkpt lat="35.710458" lon="128.548815">
        <ele>460.5</ele>
      </trkpt>
      <trkpt lat="35.710359" lon="128.54897">
        <ele>461.6</ele>
      </trkpt>
      <trkpt lat="35.710219" lon="128.549234">
        <ele>462.8</ele>
      </trkpt>
      <trkpt lat="35.710014" lon="128.549438">
        <ele>464.0</ele>
      </trkpt>
      <trkpt lat="35.709975" lon="128.549452">
        <ele>465.3</ele>
      </trkpt>
      <trkpt lat="35.709931" lon="128.549468">
        <ele>466.6</ele>
      </trkpt>
      <trkpt lat="35.709785" lon="128.54941">
        <ele>467.9</ele>
      </trkpt>
      <trkpt lat="35.709778" lon="128.54931">
        <ele>469.3</ele>
      </trkpt>
      <trkpt lat="35.709904" lon="128.549134">
        <ele>470.7</ele>
      </trkpt>
      <trkpt lat="35.709963" lon="128.54901">
        <ele>472.2</ele>
      </trkpt>
      <trkpt lat="35.709985" lon="128.548879">
        <ele>473.8</ele>
      </trkpt>
      <trkpt lat="35.70995" lon="128.548812">
        <ele>475.4</ele>
      </trkpt>
      <trkpt lat="35.709827" lon="128.548815">
        <ele>477.2</ele>
      </trkpt>
      <trkpt lat="35.708997" lon="128.54928">
        <ele>478.9</ele>
      </trkpt>
      <trkpt lat="35.708945" lon="128.549368">
        <ele>480.8</ele>
      </trkpt>
      <trkpt lat="35.708947" lon="128.549544">
        <ele>482.7</ele>
      </trkpt>
      <trkpt lat="35.708923" lon="128.549674">
        <ele>484.7</ele>
      </trkpt>
      <trkpt lat="35.70877" lon="128.549799">
        <ele>486.7</ele>
      </trkpt>
      <trkpt lat="35.708709" lon="128.549736">
        <ele>488.9</ele>
      </trkpt>
      <trkpt lat="35.70869477094159" lon="128.54975938797">
        <ele>491.1</ele>
      </trkpt>
      <trkpt lat="35.708709" lon="128.549736">
        <ele>493.4</ele>
      </trkpt>
      <trkpt lat="35.708691" lon="128.549717">
        <ele>495.8</ele>
      </trkpt>
      <trkpt lat="35.708612" lon="128.549515">
        <ele>498.2</ele>
      </trkpt>
      <trkpt lat="35.70846" lon="128.549403">
        <ele>500.8</ele>
      </trkpt>
      <trkpt lat="35.708187" lon="128.54927">
        <ele>503.5</ele>
      </trkpt>
      <trkpt lat="35.708082" lon="128.549151">
        <ele>506.2</ele>
      </trkpt>
      <trkpt lat="35.707897" lon="128.549158">
        <ele>509.1</ele>
      </trkpt>
      <trkpt lat="35.707777" lon="128.549122">
        <ele>512.0</ele>
      </trkpt>
      <trkpt lat="35.707692" lon="128.549014">
        <ele>515.1</ele>
      </trkpt>
      <trkpt lat="35.707449" lon="128.548844">
        <ele>518.3</ele>
      </trkpt>
      <trkpt lat="35.707355" lon="128.548743">
        <ele>521.6</ele>
      </trkpt>
      <trkpt lat="35.707373" lon="128.54862">
        <ele>525.0</ele>
      </trkpt>
      <trkpt lat="35.707335" lon="128.548595">
        <ele>528.5</ele>
      </trkpt>
      <trkpt lat="35.707074" lon="128.548379">
        <ele>532.1</ele>
      </trkpt>
      <trkpt lat="35.706936" lon="128.548184">
        <ele>535.8</ele>
      </trkpt>
      <trkpt lat="35.706664" lon="128.547942">
        <ele>539.6</ele>
      </trkpt>
      <trkpt lat="35.706605" lon="128.547873">
        <ele>543.5</ele>
      </trkpt>
      <trkpt lat="35.706606" lon="128.547603">
        <ele>547.5</ele>
      </trkpt>
      <trkpt lat="35.706523" lon="128.547393">
        <ele>551.6</ele>
      </trkpt>
      <trkpt lat="35.706508" lon="128.547166">
        <ele>555.7</ele>
      </trkpt>
      <trkpt lat="35.706561" lon="128.547072">
        <ele>559.9</ele>
      </trkpt>
      <trkpt lat="35.706582" lon="128.54705">
        <ele>564.2</ele>
      </trkpt>
      <trkpt lat="35.70653422497155" lon="128.54697704315188">
        <ele>568.5</ele>
      </trkpt>
      <trkpt lat="35.706582" lon="128.54705">
        <ele>572.9</ele>
      </trkpt>
      <trkpt lat="35.706652" lon="128.546982">
        <ele>577.4</ele>
      </trkpt>
      <trkpt lat="35.706626" lon="128.546874">
        <ele>581.9</ele>
      </trkpt>
      <trkpt lat="35.706444" lon="128.546617">
        <ele>586.5</ele>
      </trkpt>
      <trkpt lat="35.706333" lon="128.546285">
        <ele>591.2</ele>
      </trkpt>
      <trkpt lat="35.706333" lon="128.546004">
        <ele>596.0</ele>
      </trkpt>
      <trkpt lat="35.706379" lon="128.545831">
        <ele>600.8</ele>
      </trkpt>
      <trkpt lat="35.706435" lon="128.545737">
        <ele>605.6</ele>
      </trkpt>
      <trkpt lat="35.706497" lon="128.545575">
        <ele>610.4</ele>
      </trkpt>
      <trkpt lat="35.706488" lon="128.545358">
        <ele>615.3</ele>
      </trkpt>
      <trkpt lat="35.706448" lon="128.545288">
        <ele>620.2</ele>
      </trkpt>
      <trkpt lat="35.706318" lon="128.545206">
        <ele>625.2</ele>
      </trkpt>
      <trkpt lat="35.706227" lon="128.545087">
        <ele>630.1</ele>
      </trkpt>
      <trkpt lat="35.706113" lon="128.544903">
        <ele>635.1</ele>
      </trkpt>
      <trkpt lat="35.705954" lon="128.544488">
        <ele>640.1</ele>
      </trkpt>
      <trkpt lat="35.705949" lon="128.544351">
        <ele>645.1</ele>
      </trkpt>
      <trkpt lat="35.705992" lon="128.544213">
        <ele>650.1</ele>
      </trkpt>
      <trkpt lat="35.706037" lon="128.544156">
        <ele>655.0</ele>
      </trkpt>
      <trkpt lat="35.706037" lon="128.544091">
        <ele>660.0</ele>
      </trkpt>
      <trkpt lat="35.705946" lon="128.543929">
        <ele>664.9</ele>
      </trkpt>
      <trkpt lat="35.70582" lon="128.543568">
        <ele>669.8</ele>
      </trkpt>
      <trkpt lat="35.705764" lon="128.543214">
        <ele>674.6</ele>
      </trkpt>
      <trkpt lat="35.705767" lon="128.543063">
        <ele>679.5</ele>
      </trkpt>
      <trkpt lat="35.70572" lon="128.542911">
        <ele>684.3</ele>
      </trkpt>
      <trkpt lat="35.705585" lon="128.542792">
        <ele>689.1</ele>
      </trkpt>
      <trkpt lat="35.705492" lon="128.542619">
        <ele>694.0</ele>
      </trkpt>
      <trkpt lat="35.705448" lon="128.542453">
        <ele>698.8</ele>
      </trkpt>
      <trkpt lat="35.7055" lon="128.542352">
        <ele>703.5</ele>
      </trkpt>
      <trkpt lat="35.705436" lon="128.54224">
        <ele>708.3</ele>
      </trkpt>
      <trkpt lat="35.705415" lon="128.542139">
        <ele>713.1</ele>
      </trkpt>
      <trkpt lat="35.705336" lon="128.542049">
        <ele>717.9</ele>
      </trkpt>
      <trkpt lat="35.705304" lon="128.541919">
        <ele>722.7</ele>
      </trkpt>
      <trkpt lat="35.705272" lon="128.541843">
        <ele>727.5</ele>
      </trkpt>
      <trkpt lat="35.705169" lon="128.541742">
        <ele>732.3</ele>
      </trkpt>
      <trkpt lat="35.705099" lon="128.541695">
        <ele>737.0</ele>
      </trkpt>
      <trkpt lat="35.705108" lon="128.541562">
        <ele>741.9</ele>
      </trkpt>
      <trkpt lat="35.705175" lon="128.54145">
        <ele>746.7</ele>
      </trkpt>
      <trkpt lat="35.705125" lon="128.541287">
        <ele>751.5</ele>
      </trkpt>
      <trkpt lat="35.705154" lon="128.541111">
        <ele>756.4</ele>
      </trkpt>
      <trkpt lat="35.705061" lon="128.541031">
        <ele>761.3</ele>
      </trkpt>
      <trkpt lat="35.705049" lon="128.540948">
        <ele>766.1</ele>
      </trkpt>
      <trkpt lat="35.705052" lon="128.540677">
        <ele>771.0</ele>
      </trkpt>
      <trkpt lat="35.705073" lon="128.540515">
        <ele>775.9</ele>
      </trkpt>
      <trkpt lat="35.704935" lon="128.540418">
        <ele>780.8</ele>
      </trkpt>
      <trkpt lat="35.704882" lon="128.540259">
        <ele>785.8</ele>
      </trkpt>
      <trkpt lat="35.704885" lon="128.540075">
        <ele>790.8</ele>
      </trkpt>
      <trkpt lat="35.704911" lon="128.539985">
        <ele>795.8</ele>
      </trkpt>
      <trkpt lat="35.704885" lon="128.539894">
        <ele>800.8</ele>
      </trkpt>
      <trkpt lat="35.704841" lon="128.539689">
        <ele>805.9</ele>
      </trkpt>
      <trkpt lat="35.704856" lon="128.539389">
        <ele>811.0</ele>
      </trkpt>
      <trkpt lat="35.704888" lon="128.539216">
        <ele>816.1</ele>
      </trkpt>
      <trkpt lat="35.704982" lon="128.539025">
        <ele>821.2</ele>
      </trkpt>
      <trkpt lat="35.705052" lon="128.538797">
        <ele>826.4</ele>
      </trkpt>
      <trkpt lat="35.705131" lon="128.538353">
        <ele>831.5</ele>
      </trkpt>
      <trkpt lat="35.705137" lon="128.538249">
        <ele>836.6</ele>
      </trkpt>
      <trkpt lat="35.705201" lon="128.538155">
        <ele>841.7</ele>
      </trkpt>
      <trkpt lat="35.705228" lon="128.538054">
        <ele>846.7</ele>
      </trkpt>
      <trkpt lat="35.705201" lon="128.538">
        <ele>851.8</ele>
      </trkpt>
      <trkpt lat="35.70492" lon="128.537949">
        <ele>856.7</ele>
      </trkpt>
      <trkpt lat="35.70482" lon="128.537819">
        <ele>861.6</ele>
      </trkpt>
      <trkpt lat="35.704823" lon="128.537751">
        <ele>866.5</ele>
      </trkpt>
      <trkpt lat="35.704891" lon="128.537538">
        <ele>871.3</ele>
      </trkpt>
      <trkpt lat="35.704914" lon="128.537249">
        <ele>876.1</ele>
      </trkpt>
      <trkpt lat="35.704923" lon="128.536852">
        <ele>880.7</ele>
      </trkpt>
      <trkpt lat="35.704817" lon="128.536444">
        <ele>885.3</ele>
      </trkpt>
      <trkpt lat="35.704823" lon="128.536387">
        <ele>889.7</ele>
      </trkpt>
      <trkpt lat="35.704894" lon="128.536246">
        <ele>894.0</ele>
      </trkpt>
      <trkpt lat="35.704864" lon="128.536152">
        <ele>898.1</ele>
      </trkpt>
      <trkpt lat="35.704803" lon="128.536022">
        <ele>902.2</ele>
      </trkpt>
      <trkpt lat="35.704791" lon="128.535853">
        <ele>906.1</ele>
      </trkpt>
      <trkpt lat="35.704785" lon="128.535643">
        <ele>909.8</ele>
      </trkpt>
      <trkpt lat="35.704847" lon="128.535474">
        <ele>913.4</ele>
      </trkpt>
      <trkpt lat="35.704879" lon="128.535196">
        <ele>916.9</ele>
      </trkpt>
      <trkpt lat="35.704879" lon="128.53512">
        <ele>920.1</ele>
      </trkpt>
      <trkpt lat="35.704844" lon="128.535001">
        <ele>923.3</ele>
      </trkpt>
      <trkpt lat="35.704811" lon="128.53481">
        <ele>926.2</ele>
      </trkpt>
      <trkpt lat="35.70484407964179" lon="128.53480339050296">
        <ele>928.9</ele>
      </trkpt>
      <trkpt lat="35.704811" lon="128.53481">
        <ele>931.5</ele>
      </trkpt>
      <trkpt lat="35.704777" lon="128.534608">
        <ele>933.9</ele>
      </trkpt>
      <trkpt lat="35.704794" lon="128.534427">
        <ele>936.1</ele>
      </trkpt>
      <trkpt lat="35.704759" lon="128.534279">
        <ele>938.1</ele>
      </trkpt>
      <trkpt lat="35.704656" lon="128.534138">
        <ele>940.0</ele>
      </trkpt>
      <trkpt lat="35.704612" lon="128.533998">
        <ele>941.7</ele>
      </trkpt>
      <trkpt lat="35.704445" lon="128.53381">
        <ele>943.3</ele>
      </trkpt>
      <trkpt lat="35.704384" lon="128.533669">
        <ele>944.7</ele>
      </trkpt>
      <trkpt lat="35.704301" lon="128.533631">
        <ele>946.0</ele>
      </trkpt>
      <trkpt lat="35.704152" lon="128.533561">
        <ele>947.1</ele>
      </trkpt>
      <trkpt lat="35.703871" lon="128.533402">
        <ele>948.2</ele>
      </trkpt>
      <trkpt lat="35.703745" lon="128.533204">
        <ele>949.1</ele>
      </trkpt>
      <trkpt lat="35.703633" lon="128.533052">
        <ele>949.9</ele>
      </trkpt>
      <trkpt lat="35.703568" lon="128.53305">
        <ele>950.7</ele>
      </trkpt>
      <trkpt lat="35.70342" lon="128.532942">
        <ele>951.3</ele>
      </trkpt>
      <trkpt lat="35.703211" lon="128.532878">
        <ele>951.9</ele>
      </trkpt>
      <trkpt lat="35.702521" lon="128.532511">
        <ele>952.5</ele>
      </trkpt>
      <trkpt lat="35.70243" lon="128.532455">
        <ele>953.0</ele>
      </trkpt>
      <trkpt lat="35.702235" lon="128.532453">
        <ele>953.4</ele>
      </trkpt>
      <trkpt lat="35.702079" lon="128.532388">
        <ele>953.9</ele>
      </trkpt>
      <trkpt lat="35.701909" lon="128.532416">
        <ele>954.4</ele>
      </trkpt>
      <trkpt lat="35.701755" lon="128.532195">
        <ele>954.8</ele>
      </trkpt>
      <trkpt lat="35.701469" lon="128.532159">
        <ele>955.3</ele>
      </trkpt>
      <trkpt lat="35.701321" lon="128.532126">
        <ele>955.8</ele>
      </trkpt>
      <trkpt lat="35.701237" lon="128.532161">
        <ele>956.4</ele>
      </trkpt>
      <trkpt lat="35.701189" lon="128.53225">
        <ele>957.0</ele>
      </trkpt>
      <trkpt lat="35.701053" lon="128.532235">
        <ele>957.6</ele>
      </trkpt>
      <trkpt lat="35.7009" lon="128.532322">
        <ele>958.3</ele>
      </trkpt>
      <trkpt lat="35.700863" lon="128.532357">
        <ele>959.0</ele>
      </trkpt>
      <trkpt lat="35.700822" lon="128.532397">
        <ele>959.8</ele>
      </trkpt>
      <trkpt lat="35.700529" lon="128.532399">
        <ele>960.6</ele>
      </trkpt>
      <trkpt lat="35.700275" lon="128.532299">
        <ele>961.5</ele>
      </trkpt>
      <trkpt lat="35.700102" lon="128.532364">
        <ele>962.5</ele>
      </trkpt>
      <trkpt lat="35.699839" lon="128.532299">
        <ele>963.5</ele>
      </trkpt>
      <trkpt lat="35.699456" lon="128.532223">
        <ele>964.6</ele>
      </trkpt>
      <trkpt lat="35.699099" lon="128.532379">
        <ele>965.7</ele>
      </trkpt>
      <trkpt lat="35.698603" lon="128.532282">
        <ele>966.8</ele>
      </trkpt>
      <trkpt lat="35.698525" lon="128.532314">
        <ele>968.0</ele>
      </trkpt>
      <trkpt lat="35.698404" lon="128.532275">
        <ele>969.2</ele>
      </trkpt>
      <trkpt lat="35.698297" lon="128.532312">
        <ele>970.4</ele>
      </trkpt>
      <trkpt lat="35.698156" lon="128.532315">
        <ele>971.7</ele>
      </trkpt>
      <trkpt lat="35.697974" lon="128.53222">
        <ele>973.0</ele>
      </trkpt>
      <trkpt lat="35.697661" lon="128.532221">
        <ele>974.3</ele>
      </trkpt>
      <trkpt lat="35.697518" lon="128.532107">
        <ele>975.5</ele>
      </trkpt>
      <trkpt lat="35.69751970248527" lon="128.53210687637332">
        <ele>976.8</ele>
      </trkpt>
      <trkpt lat="35.697518" lon="128.532107">
        <ele>978.0</ele>
      </trkpt>
      <trkpt lat="35.697382" lon="128.531998">
        <ele>979.2</ele>
      </trkpt>
      <trkpt lat="35.697176" lon="128.531848">
        <ele>980.4</ele>
      </trkpt>
      <trkpt lat="35.697072" lon="128.531647">
        <ele>981.5</ele>
      </trkpt>
      <trkpt lat="35.697002" lon="128.531531">
        <ele>982.5</ele>
      </trkpt>
      <trkpt lat="35.696757" lon="128.531287">
        <ele>983.5</ele>
      </trkpt>
      <trkpt lat="35.696729" lon="128.531226">
        <ele>984.4</ele>
      </trkpt>
      <trkpt lat="35.696615" lon="128.531047">
        <ele>985.1</ele>
      </trkpt>
      <trkpt lat="35.696514" lon="128.530933">
        <ele>985.8</ele>
      </trkpt>
      <trkpt lat="35.696513" lon="128.531039">
        <ele>986.4</ele>
      </trkpt>
      <trkpt lat="35.69655" lon="128.531357">
        <ele>986.9</ele>
      </trkpt>
      <trkpt lat="35.696526" lon="128.531482">
        <ele>987.2</ele>
      </trkpt>
      <trkpt lat="35.696498" lon="128.531581">
        <ele>987.4</ele>
      </trkpt>
      <trkpt lat="35.696482" lon="128.531681">
        <ele>987.5</ele>
      </trkpt>
      <trkpt lat="35.696479" lon="128.531836">
        <ele>987.5</ele>
      </trkpt>
      <trkpt lat="35.696393" lon="128.532049">
        <ele>987.3</ele>
      </trkpt>
      <trkpt lat="35.696323" lon="128.532112">
        <ele>987.0</ele>
      </trkpt>
      <trkpt lat="35.696227" lon="128.532145">
        <ele>986.6</ele>
      </trkpt>
      <trkpt lat="35.696141" lon="128.532152">
        <ele>986.1</ele>
      </trkpt>
      <trkpt lat="35.696045" lon="128.532258">
        <ele>985.4</ele>
      </trkpt>
      <trkpt lat="35.695984" lon="128.532274">
        <ele>984.5</ele>
      </trkpt>
      <trkpt lat="35.695935" lon="128.532099">
        <ele>983.6</ele>
      </trkpt>
      <trkpt lat="35.695853" lon="128.532026">
        <ele>982.5</ele>
      </trkpt>
      <trkpt lat="35.695847" lon="128.53201">
        <ele>981.2</ele>
      </trkpt>
      <trkpt lat="35.695803" lon="128.531899">
        <ele>979.8</ele>
      </trkpt>
      <trkpt lat="35.69571" lon="128.531871">
        <ele>978.3</ele>
      </trkpt>
      <trkpt lat="35.695572" lon="128.531883">
        <ele>976.6</ele>
      </trkpt>
      <trkpt lat="35.695462" lon="128.531863">
        <ele>974.8</ele>
      </trkpt>
      <trkpt lat="35.695427" lon="128.531834">
        <ele>972.8</ele>
      </trkpt>
      <trkpt lat="35.69546341221222" lon="128.5317707061768">
        <ele>970.7</ele>
      </trkpt>
      <trkpt lat="35.695427" lon="128.531834">
        <ele>968.4</ele>
      </trkpt>
      <trkpt lat="35.695368" lon="128.531786">
        <ele>966.1</ele>
      </trkpt>
      <trkpt lat="35.695269" lon="128.531778">
        <ele>963.5</ele>
      </trkpt>
      <trkpt lat="35.695224" lon="128.531735">
        <ele>960.9</ele>
      </trkpt>
      <trkpt lat="35.695149" lon="128.531569">
        <ele>958.1</ele>
      </trkpt>
      <trkpt lat="35.695118" lon="128.5314">
        <ele>955.2</ele>
      </trkpt>
      <trkpt lat="35.69502" lon="128.531309">
        <ele>952.2</ele>
      </trkpt>
      <trkpt lat="35.69501" lon="128.53123">
        <ele>949.1</ele>
      </trkpt>
      <trkpt lat="35.694953" lon="128.531163">
        <ele>945.9</ele>
      </trkpt>
      <trkpt lat="35.694905" lon="128.531151">
        <ele>942.6</ele>
      </trkpt>
      <trkpt lat="35.694765" lon="128.531034">
        <ele>939.2</ele>
      </trkpt>
      <trkpt lat="35.694708" lon="128.53091">
        <ele>935.7</ele>
      </trkpt>
      <trkpt lat="35.694725" lon="128.530846">
        <ele>932.1</ele>
      </trkpt>
      <trkpt lat="35.694689" lon="128.530756">
        <ele>928.4</ele>
      </trkpt>
      <trkpt lat="35.694628" lon="128.530667">
        <ele>924.7</ele>
      </trkpt>
      <trkpt lat="35.694502" lon="128.530599">
        <ele>920.9</ele>
      </trkpt>
      <trkpt lat="35.694433" lon="128.530495">
        <ele>917.0</ele>
      </trkpt>
      <trkpt lat="35.694389" lon="128.53044">
        <ele>913.1</ele>
      </trkpt>
      <trkpt lat="35.694284" lon="128.53039">
        <ele>909.1</ele>
      </trkpt>
      <trkpt lat="35.694223" lon="128.530339">
        <ele>905.1</ele>
      </trkpt>
      <trkpt lat="35.694123" lon="128.530206">
        <ele>901.0</ele>
      </trkpt>
      <trkpt lat="35.694068" lon="128.530199">
        <ele>896.9</ele>
      </trkpt>
      <trkpt lat="35.694002" lon="128.530121">
        <ele>892.7</ele>
      </trkpt>
      <trkpt lat="35.693939" lon="128.530076">
        <ele>888.6</ele>
      </trkpt>
      <trkpt lat="35.693875" lon="128.529886">
        <ele>884.4</ele>
      </trkpt>
      <trkpt lat="35.693775" lon="128.529637">
        <ele>880.3</ele>
      </trkpt>
      <trkpt lat="35.693667" lon="128.529574">
        <ele>876.1</ele>
      </trkpt>
      <trkpt lat="35.693624" lon="128.529504">
        <ele>872.0</ele>
      </trkpt>
      <trkpt lat="35.693607" lon="128.529458">
        <ele>867.9</ele>
      </trkpt>
      <trkpt lat="35.693539" lon="128.529354">
        <ele>863.7</ele>
      </trkpt>
      <trkpt lat="35.693433" lon="128.529307">
        <ele>859.6</ele>
      </trkpt>
      <trkpt lat="35.693316" lon="128.529307">
        <ele>855.5</ele>
      </trkpt>
      <trkpt lat="35.69325" lon="128.529237">
        <ele>851.5</ele>
      </trkpt>
      <trkpt lat="35.693206" lon="128.529152">
        <ele>847.5</ele>
      </trkpt>
      <trkpt lat="35.693109" lon="128.529038">
        <ele>843.5</ele>
      </trkpt>
      <trkpt lat="35.693018" lon="128.52899">
        <ele>839.5</ele>
      </trkpt>
      <trkpt lat="35.692995" lon="128.528926">
        <ele>835.6</ele>
      </trkpt>
      <trkpt lat="35.69282" lon="128.528845">
        <ele>831.7</ele>
      </trkpt>
      <trkpt lat="35.692751" lon="128.52884">
        <ele>827.9</ele>
      </trkpt>
      <trkpt lat="35.692725" lon="128.5288">
        <ele>824.1</ele>
      </trkpt>
      <trkpt lat="35.692666" lon="128.528618">
        <ele>820.4</ele>
      </trkpt>
      <trkpt lat="35.69262" lon="128.528431">
        <ele>816.7</ele>
      </trkpt>
      <trkpt lat="35.692642" lon="128.528291">
        <ele>813.0</ele>
      </trkpt>
      <trkpt lat="35.692716" lon="128.528266">
        <ele>809.4</ele>
      </trkpt>
      <trkpt lat="35.69275" lon="128.528176">
        <ele>805.9</ele>
      </trkpt>
      <trkpt lat="35.692745" lon="128.528117">
        <ele>802.4</ele>
      </trkpt>
      <trkpt lat="35.692684" lon="128.52803">
        <ele>798.9</ele>
      </trkpt>
      <trkpt lat="35.69266" lon="128.527946">
        <ele>795.4</ele>
      </trkpt>
      <trkpt lat="35.692577" lon="128.527823">
        <ele>791.9</ele>
      </trkpt>
      <trkpt lat="35.692561" lon="128.527803">
        <ele>788.5</ele>
      </trkpt>
      <trkpt lat="35.692588002161735" lon="128.52777242660525">
        <ele>785.1</ele>
      </trkpt>
      <trkpt lat="35.692561" lon="128.527803">
        <ele>781.8</ele>
      </trkpt>
      <trkpt lat="35.692486" lon="128.527714">
        <ele>778.4</ele>
      </trkpt>
      <trkpt lat="35.692477" lon="128.52757">
        <ele>775.1</ele>
      </trkpt>
      <trkpt lat="35.692464" lon="128.527507">
        <ele>771.8</ele>
      </trkpt>
      <trkpt lat="35.692493" lon="128.527414">
        <ele>768.5</ele>
      </trkpt>
      <trkpt lat="35.692443" lon="128.527309">
        <ele>765.2</ele>
      </trkpt>
      <trkpt lat="35.692325" lon="128.527093">
        <ele>761.9</ele>
      </trkpt>
      <trkpt lat="35.692218" lon="128.52704">
        <ele>758.6</ele>
      </trkpt>
      <trkpt lat="35.692134" lon="128.526967">
        <ele>755.3</ele>
      </trkpt>
      <trkpt lat="35.692039" lon="128.526928">
        <ele>752.1</ele>
      </trkpt>
      <trkpt lat="35.692013" lon="128.526848">
        <ele>748.8</ele>
      </trkpt>
      <trkpt lat="35.691937" lon="128.526794">
        <ele>745.6</ele>
      </trkpt>
      <trkpt lat="35.691891" lon="128.526738">
        <ele>742.3</ele>
      </trkpt>
      <trkpt lat="35.691845" lon="128.526589">
        <ele>739.1</ele>
      </trkpt>
      <trkpt lat="35.691882" lon="128.526528">
        <ele>735.8</ele>
      </trkpt>
      <trkpt lat="35.691861" lon="128.526414">
        <ele>732.6</ele>
      </trkpt>
      <trkpt lat="35.691845" lon="128.526312">
        <ele>729.3</ele>
      </trkpt>
      <trkpt lat="35.691743" lon="128.526032">
        <ele>726.0</ele>
      </trkpt>
      <trkpt lat="35.691677" lon="128.525923">
        <ele>722.7</ele>
      </trkpt>
      <trkpt lat="35.691564" lon="128.525792">
        <ele>719.5</ele>
      </trkpt>
      <trkpt lat="35.691488" lon="128.525635">
        <ele>716.2</ele>
      </trkpt>
      <trkpt lat="35.691414" lon="128.525442">
        <ele>712.9</ele>
      </trkpt>
      <trkpt lat="35.69142" lon="128.525212">
        <ele>709.6</ele>
      </trkpt>
      <trkpt lat="35.691459" lon="128.525025">
        <ele>706.3</ele>
      </trkpt>
      <trkpt lat="35.691477" lon="128.524826">
        <ele>703.1</ele>
      </trkpt>
      <trkpt lat="35.691464" lon="128.524692">
        <ele>699.8</ele>
      </trkpt>
      <trkpt lat="35.691416" lon="128.524521">
        <ele>696.6</ele>
      </trkpt>
      <trkpt lat="35.691361" lon="128.524373">
        <ele>693.3</ele>
      </trkpt>
      <trkpt lat="35.691321" lon="128.524348">
        <ele>690.1</ele>
      </trkpt>
      <trkpt lat="35.691275" lon="128.524216">
        <ele>686.9</ele>
      </trkpt>
      <trkpt lat="35.6913" lon="128.524118">
        <ele>683.7</ele>
      </trkpt>
      <trkpt lat="35.691207" lon="128.523771">
        <ele>680.5</ele>
      </trkpt>
      <trkpt lat="35.691129926342995" lon="128.52379560470584">
        <ele>677.4</ele>
      </trkpt>
      <trkpt lat="35.691207" lon="128.523771">
        <ele>674.2</ele>
      </trkpt>
      <trkpt lat="35.691159" lon="128.523516">
        <ele>671.1</ele>
      </trkpt>
      <trkpt lat="35.691109" lon="128.523403">
        <ele>667.9</ele>
      </trkpt>
      <trkpt lat="35.691075" lon="128.523305">
        <ele>664.8</ele>
      </trkpt>
      <trkpt lat="35.691079" lon="128.523078">
        <ele>661.7</ele>
      </trkpt>
      <trkpt lat="35.691071" lon="128.522942">
        <ele>658.6</ele>
      </trkpt>
      <trkpt lat="35.690975" lon="128.522823">
        <ele>655.6</ele>
      </trkpt>
      <trkpt lat="35.690933" lon="128.522541">
        <ele>652.5</ele>
      </trkpt>
      <trkpt lat="35.691002" lon="128.521895">
        <ele>649.5</ele>
      </trkpt>
      <trkpt lat="35.691185" lon="128.521503">
        <ele>646.5</ele>
      </trkpt>
      <trkpt lat="35.691175" lon="128.521374">
        <ele>643.5</ele>
      </trkpt>
      <trkpt lat="35.691056" lon="128.521252">
        <ele>640.6</ele>
      </trkpt>
      <trkpt lat="35.690881" lon="128.52109">
        <ele>637.7</ele>
      </trkpt>
      <trkpt lat="35.690825" lon="128.520994">
        <ele>634.8</ele>
      </trkpt>
      <trkpt lat="35.690805" lon="128.520904">
        <ele>631.9</ele>
      </trkpt>
      <trkpt lat="35.690815" lon="128.520678">
        <ele>629.1</ele>
      </trkpt>
      <trkpt lat="35.690844" lon="128.520532">
        <ele>626.3</ele>
      </trkpt>
      <trkpt lat="35.690838" lon="128.520445">
        <ele>623.5</ele>
      </trkpt>
      <trkpt lat="35.690801" lon="128.520256">
        <ele>620.8</ele>
      </trkpt>
      <trkpt lat="35.690678" lon="128.520063">
        <ele>618.0</ele>
      </trkpt>
      <trkpt lat="35.690657" lon="128.519921">
        <ele>615.2</ele>
      </trkpt>
      <trkpt lat="35.690649" lon="128.519604">
        <ele>612.5</ele>
      </trkpt>
      <trkpt lat="35.690643" lon="128.519531">
        <ele>609.7</ele>
      </trkpt>
      <trkpt lat="35.69055" lon="128.519328">
        <ele>606.9</ele>
      </trkpt>
      <trkpt lat="35.690521" lon="128.519063">
        <ele>604.2</ele>
      </trkpt>
      <trkpt lat="35.690456" lon="128.518982">
        <ele>601.4</ele>
      </trkpt>
      <trkpt lat="35.690273" lon="128.518918">
        <ele>598.6</ele>
      </trkpt>
      <trkpt lat="35.690154" lon="128.518739">
        <ele>595.8</ele>
      </trkpt>
      <trkpt lat="35.690125" lon="128.518487">
        <ele>593.1</ele>
      </trkpt>
      <trkpt lat="35.690173" lon="128.518201">
        <ele>590.3</ele>
      </trkpt>
      <trkpt lat="35.690177" lon="128.518177">
        <ele>587.5</ele>
      </trkpt>
      <trkpt lat="35.690125" lon="128.517944">
        <ele>584.7</ele>
      </trkpt>
      <trkpt lat="35.690083" lon="128.51771">
        <ele>581.9</ele>
      </trkpt>
      <trkpt lat="35.690071" lon="128.517671">
        <ele>579.1</ele>
      </trkpt>
      <trkpt lat="35.690037804286646" lon="128.51768732070926">
        <ele>576.2</ele>
      </trkpt>
      <trkpt lat="35.690071" lon="128.517671">
        <ele>573.4</ele>
      </trkpt>
      <trkpt lat="35.690034" lon="128.517543">
        <ele>570.5</ele>
      </trkpt>
      <trkpt lat="35.689965" lon="128.517188">
        <ele>567.6</ele>
      </trkpt>
      <trkpt lat="35.689851" lon="128.516951">
        <ele>564.7</ele>
      </trkpt>
      <trkpt lat="35.689785" lon="128.516748">
        <ele>561.7</ele>
      </trkpt>
      <trkpt lat="35.689745" lon="128.516393">
        <ele>558.8</ele>
      </trkpt>
      <trkpt lat="35.68964" lon="128.515977">
        <ele>555.8</ele>
      </trkpt>
      <trkpt lat="35.689641" lon="128.515728">
        <ele>552.7</ele>
      </trkpt>
      <trkpt lat="35.689573" lon="128.515582">
        <ele>549.7</ele>
      </trkpt>
      <trkpt lat="35.689508" lon="128.515354">
        <ele>546.6</ele>
      </trkpt>
      <trkpt lat="35.689492" lon="128.515115">
        <ele>543.6</ele>
      </trkpt>
      <trkpt lat="35.689551" lon="128.514737">
        <ele>540.5</ele>
      </trkpt>
      <trkpt lat="35.689558" lon="128.514611">
        <ele>537.4</ele>
      </trkpt>
      <trkpt lat="35.689518" lon="128.514518">
        <ele>534.4</ele>
      </trkpt>
      <trkpt lat="35.68942" lon="128.514381">
        <ele>531.4</ele>
      </trkpt>
      <trkpt lat="35.689395" lon="128.514208">
        <ele>528.3</ele>
      </trkpt>
      <trkpt lat="35.68941" lon="128.514013">
        <ele>525.4</ele>
      </trkpt>
      <trkpt lat="35.689443" lon="128.513827">
        <ele>522.4</ele>
      </trkpt>
      <trkpt lat="35.689561" lon="128.513616">
        <ele>519.5</ele>
      </trkpt>
      <trkpt lat="35.689558" lon="128.513455">
        <ele>516.6</ele>
      </trkpt>
      <trkpt lat="35.689609" lon="128.51336">
        <ele>513.7</ele>
      </trkpt>
      <trkpt lat="35.689708" lon="128.513173">
        <ele>510.9</ele>
      </trkpt>
      <trkpt lat="35.689726" lon="128.513016">
        <ele>508.1</ele>
      </trkpt>
      <trkpt lat="35.689849" lon="128.512588">
        <ele>505.3</ele>
      </trkpt>
      <trkpt lat="35.689893" lon="128.512512">
        <ele>502.6</ele>
      </trkpt>
      <trkpt lat="35.690043" lon="128.512257">
        <ele>499.9</ele>
      </trkpt>
      <trkpt lat="35.690135" lon="128.511926">
        <ele>497.3</ele>
      </trkpt>
      <trkpt lat="35.690339" lon="128.511583">
        <ele>494.7</ele>
      </trkpt>
      <trkpt lat="35.690436" lon="128.511346">
        <ele>492.2</ele>
      </trkpt>
      <trkpt lat="35.690528" lon="128.511119">
        <ele>489.7</ele>
      </trkpt>
      <trkpt lat="35.6905199663998" lon="128.51111412048343">
        <ele>487.3</ele>
      </trkpt>
      <trkpt lat="35.690528" lon="128.511119">
        <ele>485.0</ele>
      </trkpt>
      <trkpt lat="35.690681" lon="128.510749">
        <ele>482.7</ele>
      </trkpt>
      <trkpt lat="35.690768" lon="128.510539">
        <ele>480.5</ele>
      </trkpt>
      <trkpt lat="35.690889" lon="128.510108">
        <ele>478.4</ele>
      </trkpt>
      <trkpt lat="35.691024" lon="128.509927">
        <ele>476.4</ele>
      </trkpt>
      <trkpt lat="35.691059" lon="128.509881">
        <ele>474.6</ele>
      </trkpt>
      <trkpt lat="35.690936" lon="128.509765">
        <ele>472.8</ele>
      </trkpt>
      <trkpt lat="35.690873" lon="128.509674">
        <ele>471.1</ele>
      </trkpt>
      <trkpt lat="35.690875" lon="128.509585">
        <ele>469.4</ele>
      </trkpt>
      <trkpt lat="35.691012" lon="128.509298">
        <ele>467.9</ele>
      </trkpt>
      <trkpt lat="35.691047" lon="128.509041">
        <ele>466.4</ele>
      </trkpt>
      <trkpt lat="35.691165" lon="128.508848">
        <ele>465.0</ele>
      </trkpt>
      <trkpt lat="35.691287" lon="128.508504">
        <ele>463.6</ele>
      </trkpt>
      <trkpt lat="35.691319" lon="128.508266">
        <ele>462.3</ele>
      </trkpt>
      <trkpt lat="35.691437" lon="128.507928">
        <ele>461.1</ele>
      </trkpt>
      <trkpt lat="35.69157" lon="128.507756">
        <ele>459.9</ele>
      </trkpt>
      <trkpt lat="35.691657" lon="128.507676">
        <ele>459.1</ele>
      </trkpt>
      <trkpt lat="35.691791" lon="128.507622">
        <ele>458.4</ele>
      </trkpt>
      <trkpt lat="35.691871" lon="128.507452">
        <ele>457.7</ele>
      </trkpt>
      <trkpt lat="35.692002" lon="128.507329">
        <ele>457.0</ele>
      </trkpt>
      <trkpt lat="35.692181" lon="128.507261">
        <ele>456.4</ele>
      </trkpt>
      <trkpt lat="35.692386" lon="128.507217">
        <ele>455.7</ele>
      </trkpt>
      <trkpt lat="35.692574" lon="128.50713">
        <ele>455.1</ele>
      </trkpt>
      <trkpt lat="35.692697" lon="128.507021">
        <ele>454.6</ele>
      </trkpt>
      <trkpt lat="35.692794" lon="128.506987">
        <ele>454.0</ele>
      </trkpt>
      <trkpt lat="35.693158" lon="128.506948">
        <ele>453.5</ele>
      </trkpt>
      <trkpt lat="35.693235" lon="128.506912">
        <ele>453.0</ele>
      </trkpt>
      <trkpt lat="35.693291" lon="128.50686">
        <ele>452.6</ele>
      </trkpt>
      <trkpt lat="35.69343" lon="128.506571">
        <ele>452.1</ele>
      </trkpt>
      <trkpt lat="35.693548" lon="128.506185">
        <ele>451.7</ele>
      </trkpt>
      <trkpt lat="35.69356391052781" lon="128.50619316101074">
        <ele>451.4</ele>
      </trkpt>
    </trkseg>
  </trk>
</gpx>