<?xml version="1.0" encoding="UTF-8"?>
<gpx xmlns="http://www.topografix.com/GPX/1/1" xmlns:gpxdata="http://www.cluetrust.com/XML/GPXDATA/1/0" xmlns:xsi="http://www.w3.org/2001/XMLSchema-instance" xsi:schemaLocation="http://www.topografix.com/GPX/1/1 https://www.topografix.com/GPX/1/1/gpx.xsd http://www.cluetrust.com/XML/GPXDATA/1/0 https://www.cluetrust.com/Schemas/gpxdata10.xsd" creator="COROS Wearables" version="1.1">
 <metadata>
  <link href="https://www.coros.com">
   <text>COROS</text>
  </link>
  <time>2026-06-02T00:50:55Z</time>
 </metadata>
 <trk>
  <name>비슬한바퀴</name>
  <type>running</type>
  <trkseg>
   <trkpt lat="35.6927985" lon="128.5058820">
    <ele>447</ele>
   </trkpt>
   <trkpt lat="35.6927660" lon="128.5058920">
    <ele>447</ele>
   </trkpt>
   <trkpt lat="35.6927910" lon="128.5059970">
    <ele>447</ele>
   </trkpt>
   <trkpt lat="35.6928760" lon="128.5062270">
    <ele>447</ele>
   </trkpt>
   <trkpt lat="35.6929110" lon="128.5062440">
    <ele>448</ele>
   </trkpt>
   <trkpt lat="35.6931579" lon="128.5064990">
    <ele>448</ele>
   </trkpt>
   <trkpt lat="35.6932350" lon="128.5066830">
    <ele>448</ele>
   </trkpt>
   <trkpt lat="35.6932910" lon="128.5068600">
    <ele>448</ele>
   </trkpt>
   <trkpt lat="35.6932350" lon="128.5069120">
    <ele>449</ele>
   </trkpt>
   <trkpt lat="35.6931579" lon="128.5069480">
    <ele>449</ele>
   </trkpt>
   <trkpt lat="35.6927940" lon="128.5069870">
    <ele>450</ele>
   </trkpt>
   <trkpt lat="35.6926970" lon="128.5070210">
    <ele>450</ele>
   </trkpt>
   <trkpt lat="35.6925740" lon="128.5071300">
    <ele>451</ele>
   </trkpt>
   <trkpt lat="35.6923860" lon="128.5072170">
    <ele>451</ele>
   </trkpt>
   <trkpt lat="35.6921810" lon="128.5072610">
    <ele>452</ele>
   </trkpt>
   <trkpt lat="35.6920020" lon="128.5073290">
    <ele>452</ele>
   </trkpt>
   <trkpt lat="35.6918710" lon="128.5074520">
    <ele>453</ele>
   </trkpt>
   <trkpt lat="35.6917910" lon="128.5076220">
    <ele>454</ele>
   </trkpt>
   <trkpt lat="35.6915890" lon="128.5080539">
    <ele>455</ele>
   </trkpt>
   <trkpt lat="35.6915500" lon="128.5081669">
    <ele>456</ele>
   </trkpt>
   <trkpt lat="35.6915699" lon="128.5081779">
    <ele>457</ele>
   </trkpt>
   <trkpt lat="35.6915500" lon="128.5081669">
    <ele>458</ele>
   </trkpt>
   <trkpt lat="35.6914900" lon="128.5083430">
    <ele>459</ele>
   </trkpt>
   <trkpt lat="35.6914400" lon="128.5085489">
    <ele>460</ele>
   </trkpt>
   <trkpt lat="35.6914749" lon="128.5087150">
    <ele>462</ele>
   </trkpt>
   <trkpt lat="35.6915430" lon="128.5088320">
    <ele>463</ele>
   </trkpt>
   <trkpt lat="35.6916180" lon="128.5089590">
    <ele>464</ele>
   </trkpt>
   <trkpt lat="35.6917060" lon="128.5090690">
    <ele>466</ele>
   </trkpt>
   <trkpt lat="35.6916970" lon="128.5091160">
    <ele>468</ele>
   </trkpt>
   <trkpt lat="35.6916830" lon="128.5091880">
    <ele>469</ele>
   </trkpt>
   <trkpt lat="35.6910940" lon="128.5098340">
    <ele>471</ele>
   </trkpt>
   <trkpt lat="35.6910590" lon="128.5098810">
    <ele>473</ele>
   </trkpt>
   <trkpt lat="35.6910240" lon="128.5099270">
    <ele>475</ele>
   </trkpt>
   <trkpt lat="35.6908890" lon="128.5101080">
    <ele>477</ele>
   </trkpt>
   <trkpt lat="35.6907680" lon="128.5105390">
    <ele>480</ele>
   </trkpt>
   <trkpt lat="35.6906810" lon="128.5107490">
    <ele>482</ele>
   </trkpt>
   <trkpt lat="35.6904360" lon="128.5113460">
    <ele>484</ele>
   </trkpt>
   <trkpt lat="35.6903390" lon="128.5115830">
    <ele>487</ele>
   </trkpt>
   <trkpt lat="35.6901350" lon="128.5119260">
    <ele>489</ele>
   </trkpt>
   <trkpt lat="35.6900430" lon="128.5122570">
    <ele>492</ele>
   </trkpt>
   <trkpt lat="35.6900130" lon="128.5123070">
    <ele>494</ele>
   </trkpt>
   <trkpt lat="35.6900465" lon="128.5123372">
    <ele>497</ele>
   </trkpt>
   <trkpt lat="35.6900130" lon="128.5123070">
    <ele>500</ele>
   </trkpt>
   <trkpt lat="35.6898930" lon="128.5125119">
    <ele>503</ele>
   </trkpt>
   <trkpt lat="35.6898490" lon="128.5125880">
    <ele>505</ele>
   </trkpt>
   <trkpt lat="35.6897260" lon="128.5130160">
    <ele>508</ele>
   </trkpt>
   <trkpt lat="35.6897080" lon="128.5131730">
    <ele>511</ele>
   </trkpt>
   <trkpt lat="35.6896090" lon="128.5133600">
    <ele>514</ele>
   </trkpt>
   <trkpt lat="35.6895580" lon="128.5134550">
    <ele>517</ele>
   </trkpt>
   <trkpt lat="35.6895610" lon="128.5136160">
    <ele>520</ele>
   </trkpt>
   <trkpt lat="35.6894430" lon="128.5138270">
    <ele>523</ele>
   </trkpt>
   <trkpt lat="35.6894100" lon="128.5140130">
    <ele>526</ele>
   </trkpt>
   <trkpt lat="35.6893950" lon="128.5142080">
    <ele>530</ele>
   </trkpt>
   <trkpt lat="35.6894200" lon="128.5143809">
    <ele>533</ele>
   </trkpt>
   <trkpt lat="35.6895180" lon="128.5145180">
    <ele>536</ele>
   </trkpt>
   <trkpt lat="35.6895580" lon="128.5146110">
    <ele>539</ele>
   </trkpt>
   <trkpt lat="35.6895510" lon="128.5147370">
    <ele>542</ele>
   </trkpt>
   <trkpt lat="35.6894920" lon="128.5151150">
    <ele>546</ele>
   </trkpt>
   <trkpt lat="35.6895079" lon="128.5153540">
    <ele>549</ele>
   </trkpt>
   <trkpt lat="35.6895730" lon="128.5155820">
    <ele>552</ele>
   </trkpt>
   <trkpt lat="35.6896410" lon="128.5157280">
    <ele>555</ele>
   </trkpt>
   <trkpt lat="35.6896400" lon="128.5159770">
    <ele>558</ele>
   </trkpt>
   <trkpt lat="35.6897450" lon="128.5163930">
    <ele>562</ele>
   </trkpt>
   <trkpt lat="35.6897850" lon="128.5167480">
    <ele>565</ele>
   </trkpt>
   <trkpt lat="35.6898510" lon="128.5169510">
    <ele>568</ele>
   </trkpt>
   <trkpt lat="35.6899650" lon="128.5171880">
    <ele>571</ele>
   </trkpt>
   <trkpt lat="35.6900340" lon="128.5175430">
    <ele>574</ele>
   </trkpt>
   <trkpt lat="35.6900830" lon="128.5177100">
    <ele>577</ele>
   </trkpt>
   <trkpt lat="35.6901250" lon="128.5179440">
    <ele>580</ele>
   </trkpt>
   <trkpt lat="35.6901770" lon="128.5181770">
    <ele>583</ele>
   </trkpt>
   <trkpt lat="35.6901730" lon="128.5182010">
    <ele>586</ele>
   </trkpt>
   <trkpt lat="35.6901250" lon="128.5184870">
    <ele>589</ele>
   </trkpt>
   <trkpt lat="35.6901540" lon="128.5187390">
    <ele>592</ele>
   </trkpt>
   <trkpt lat="35.6902730" lon="128.5189180">
    <ele>595</ele>
   </trkpt>
   <trkpt lat="35.6904560" lon="128.5189820">
    <ele>598</ele>
   </trkpt>
   <trkpt lat="35.6905209" lon="128.5190630">
    <ele>601</ele>
   </trkpt>
   <trkpt lat="35.6905500" lon="128.5193280">
    <ele>604</ele>
   </trkpt>
   <trkpt lat="35.6906430" lon="128.5195310">
    <ele>607</ele>
   </trkpt>
   <trkpt lat="35.6906490" lon="128.5196039">
    <ele>610</ele>
   </trkpt>
   <trkpt lat="35.6906570" lon="128.5199210">
    <ele>613</ele>
   </trkpt>
   <trkpt lat="35.6906780" lon="128.5200630">
    <ele>615</ele>
   </trkpt>
   <trkpt lat="35.6908010" lon="128.5202560">
    <ele>618</ele>
   </trkpt>
   <trkpt lat="35.6908380" lon="128.5204450">
    <ele>621</ele>
   </trkpt>
   <trkpt lat="35.6908440" lon="128.5205320">
    <ele>624</ele>
   </trkpt>
   <trkpt lat="35.6908150" lon="128.5206780">
    <ele>627</ele>
   </trkpt>
   <trkpt lat="35.6908050" lon="128.5209040">
    <ele>630</ele>
   </trkpt>
   <trkpt lat="35.6908249" lon="128.5209940">
    <ele>633</ele>
   </trkpt>
   <trkpt lat="35.6908810" lon="128.5210899">
    <ele>635</ele>
   </trkpt>
   <trkpt lat="35.6910560" lon="128.5212520">
    <ele>638</ele>
   </trkpt>
   <trkpt lat="35.6911750" lon="128.5213740">
    <ele>641</ele>
   </trkpt>
   <trkpt lat="35.6911850" lon="128.5215030">
    <ele>644</ele>
   </trkpt>
   <trkpt lat="35.6910020" lon="128.5218950">
    <ele>647</ele>
   </trkpt>
   <trkpt lat="35.6909330" lon="128.5225410">
    <ele>650</ele>
   </trkpt>
   <trkpt lat="35.6909750" lon="128.5228230">
    <ele>653</ele>
   </trkpt>
   <trkpt lat="35.6910710" lon="128.5229420">
    <ele>656</ele>
   </trkpt>
   <trkpt lat="35.6910740" lon="128.5230050">
    <ele>659</ele>
   </trkpt>
   <trkpt lat="35.6911299" lon="128.5230016">
    <ele>662</ele>
   </trkpt>
   <trkpt lat="35.6910740" lon="128.5230050">
    <ele>665</ele>
   </trkpt>
   <trkpt lat="35.6910790" lon="128.5230780">
    <ele>668</ele>
   </trkpt>
   <trkpt lat="35.6910750" lon="128.5233050">
    <ele>671</ele>
   </trkpt>
   <trkpt lat="35.6911090" lon="128.5234030">
    <ele>674</ele>
   </trkpt>
   <trkpt lat="35.6911590" lon="128.5235160">
    <ele>677</ele>
   </trkpt>
   <trkpt lat="35.6912070" lon="128.5237710">
    <ele>680</ele>
   </trkpt>
   <trkpt lat="35.6913000" lon="128.5241179">
    <ele>684</ele>
   </trkpt>
   <trkpt lat="35.6912750" lon="128.5242160">
    <ele>687</ele>
   </trkpt>
   <trkpt lat="35.6913210" lon="128.5243480">
    <ele>690</ele>
   </trkpt>
   <trkpt lat="35.6913610" lon="128.5243730">
    <ele>693</ele>
   </trkpt>
   <trkpt lat="35.6914159" lon="128.5245210">
    <ele>696</ele>
   </trkpt>
   <trkpt lat="35.6914640" lon="128.5246919">
    <ele>700</ele>
   </trkpt>
   <trkpt lat="35.6914770" lon="128.5248260">
    <ele>703</ele>
   </trkpt>
   <trkpt lat="35.6914590" lon="128.5250250">
    <ele>706</ele>
   </trkpt>
   <trkpt lat="35.6914200" lon="128.5252120">
    <ele>710</ele>
   </trkpt>
   <trkpt lat="35.6914140" lon="128.5254420">
    <ele>713</ele>
   </trkpt>
   <trkpt lat="35.6914880" lon="128.5256350">
    <ele>716</ele>
   </trkpt>
   <trkpt lat="35.6915640" lon="128.5257920">
    <ele>720</ele>
   </trkpt>
   <trkpt lat="35.6916770" lon="128.5259230">
    <ele>723</ele>
   </trkpt>
   <trkpt lat="35.6917430" lon="128.5260319">
    <ele>727</ele>
   </trkpt>
   <trkpt lat="35.6918450" lon="128.5263120">
    <ele>730</ele>
   </trkpt>
   <trkpt lat="35.6918610" lon="128.5264140">
    <ele>733</ele>
   </trkpt>
   <trkpt lat="35.6918820" lon="128.5265280">
    <ele>737</ele>
   </trkpt>
   <trkpt lat="35.6918450" lon="128.5265890">
    <ele>740</ele>
   </trkpt>
   <trkpt lat="35.6918910" lon="128.5267380">
    <ele>744</ele>
   </trkpt>
   <trkpt lat="35.6919370" lon="128.5267940">
    <ele>747</ele>
   </trkpt>
   <trkpt lat="35.6920130" lon="128.5268480">
    <ele>751</ele>
   </trkpt>
   <trkpt lat="35.6920390" lon="128.5269280">
    <ele>754</ele>
   </trkpt>
   <trkpt lat="35.6921340" lon="128.5269670">
    <ele>758</ele>
   </trkpt>
   <trkpt lat="35.6922179" lon="128.5270400">
    <ele>761</ele>
   </trkpt>
   <trkpt lat="35.6923249" lon="128.5270930">
    <ele>765</ele>
   </trkpt>
   <trkpt lat="35.6924430" lon="128.5273090">
    <ele>768</ele>
   </trkpt>
   <trkpt lat="35.6924930" lon="128.5274140">
    <ele>772</ele>
   </trkpt>
   <trkpt lat="35.6924640" lon="128.5275070">
    <ele>775</ele>
   </trkpt>
   <trkpt lat="35.6924769" lon="128.5275700">
    <ele>779</ele>
   </trkpt>
   <trkpt lat="35.6924860" lon="128.5277140">
    <ele>782</ele>
   </trkpt>
   <trkpt lat="35.6925770" lon="128.5278230">
    <ele>786</ele>
   </trkpt>
   <trkpt lat="35.6926599" lon="128.5279459">
    <ele>789</ele>
   </trkpt>
   <trkpt lat="35.6926840" lon="128.5280300">
    <ele>793</ele>
   </trkpt>
   <trkpt lat="35.6927450" lon="128.5281170">
    <ele>797</ele>
   </trkpt>
   <trkpt lat="35.6927499" lon="128.5281760">
    <ele>800</ele>
   </trkpt>
   <trkpt lat="35.6927160" lon="128.5282660">
    <ele>804</ele>
   </trkpt>
   <trkpt lat="35.6926420" lon="128.5282910">
    <ele>807</ele>
   </trkpt>
   <trkpt lat="35.6926200" lon="128.5284310">
    <ele>811</ele>
   </trkpt>
   <trkpt lat="35.6926660" lon="128.5286180">
    <ele>815</ele>
   </trkpt>
   <trkpt lat="35.6927250" lon="128.5288000">
    <ele>819</ele>
   </trkpt>
   <trkpt lat="35.6927510" lon="128.5288400">
    <ele>822</ele>
   </trkpt>
   <trkpt lat="35.6928200" lon="128.5288450">
    <ele>826</ele>
   </trkpt>
   <trkpt lat="35.6929950" lon="128.5289260">
    <ele>830</ele>
   </trkpt>
   <trkpt lat="35.6930180" lon="128.5289900">
    <ele>834</ele>
   </trkpt>
   <trkpt lat="35.6929481" lon="128.5290455">
    <ele>838</ele>
   </trkpt>
   <trkpt lat="35.6930180" lon="128.5289900">
    <ele>841</ele>
   </trkpt>
   <trkpt lat="35.6931090" lon="128.5290380">
    <ele>845</ele>
   </trkpt>
   <trkpt lat="35.6932060" lon="128.5291520">
    <ele>849</ele>
   </trkpt>
   <trkpt lat="35.6932500" lon="128.5292370">
    <ele>853</ele>
   </trkpt>
   <trkpt lat="35.6933160" lon="128.5293070">
    <ele>857</ele>
   </trkpt>
   <trkpt lat="35.6934330" lon="128.5293070">
    <ele>861</ele>
   </trkpt>
   <trkpt lat="35.6935390" lon="128.5293540">
    <ele>865</ele>
   </trkpt>
   <trkpt lat="35.6936070" lon="128.5294580">
    <ele>869</ele>
   </trkpt>
   <trkpt lat="35.6936240" lon="128.5295040">
    <ele>873</ele>
   </trkpt>
   <trkpt lat="35.6936670" lon="128.5295740">
    <ele>877</ele>
   </trkpt>
   <trkpt lat="35.6937750" lon="128.5296370">
    <ele>882</ele>
   </trkpt>
   <trkpt lat="35.6938750" lon="128.5298860">
    <ele>886</ele>
   </trkpt>
   <trkpt lat="35.6939390" lon="128.5300760">
    <ele>890</ele>
   </trkpt>
   <trkpt lat="35.6940020" lon="128.5301210">
    <ele>894</ele>
   </trkpt>
   <trkpt lat="35.6940680" lon="128.5301990">
    <ele>898</ele>
   </trkpt>
   <trkpt lat="35.6941230" lon="128.5302060">
    <ele>902</ele>
   </trkpt>
   <trkpt lat="35.6942230" lon="128.5303390">
    <ele>906</ele>
   </trkpt>
   <trkpt lat="35.6942840" lon="128.5303900">
    <ele>910</ele>
   </trkpt>
   <trkpt lat="35.6943890" lon="128.5304400">
    <ele>914</ele>
   </trkpt>
   <trkpt lat="35.6944329" lon="128.5304950">
    <ele>918</ele>
   </trkpt>
   <trkpt lat="35.6945020" lon="128.5305990">
    <ele>922</ele>
   </trkpt>
   <trkpt lat="35.6946280" lon="128.5306670">
    <ele>926</ele>
   </trkpt>
   <trkpt lat="35.6946889" lon="128.5307560">
    <ele>929</ele>
   </trkpt>
   <trkpt lat="35.6947250" lon="128.5308460">
    <ele>933</ele>
   </trkpt>
   <trkpt lat="35.6947080" lon="128.5309100">
    <ele>937</ele>
   </trkpt>
   <trkpt lat="35.6947649" lon="128.5310340">
    <ele>940</ele>
   </trkpt>
   <trkpt lat="35.6949050" lon="128.5311510">
    <ele>944</ele>
   </trkpt>
   <trkpt lat="35.6949530" lon="128.5311630">
    <ele>947</ele>
   </trkpt>
   <trkpt lat="35.6950100" lon="128.5312300">
    <ele>951</ele>
   </trkpt>
   <trkpt lat="35.6950200" lon="128.5313090">
    <ele>954</ele>
   </trkpt>
   <trkpt lat="35.6951180" lon="128.5314000">
    <ele>957</ele>
   </trkpt>
   <trkpt lat="35.6951490" lon="128.5315690">
    <ele>961</ele>
   </trkpt>
   <trkpt lat="35.6952240" lon="128.5317350">
    <ele>964</ele>
   </trkpt>
   <trkpt lat="35.6952690" lon="128.5317780">
    <ele>967</ele>
   </trkpt>
   <trkpt lat="35.6953680" lon="128.5317860">
    <ele>970</ele>
   </trkpt>
   <trkpt lat="35.6954620" lon="128.5318629">
    <ele>972</ele>
   </trkpt>
   <trkpt lat="35.6955720" lon="128.5318830">
    <ele>975</ele>
   </trkpt>
   <trkpt lat="35.6957100" lon="128.5318710">
    <ele>978</ele>
   </trkpt>
   <trkpt lat="35.6958030" lon="128.5318990">
    <ele>980</ele>
   </trkpt>
   <trkpt lat="35.6958470" lon="128.5320100">
    <ele>982</ele>
   </trkpt>
   <trkpt lat="35.6958530" lon="128.5320260">
    <ele>984</ele>
   </trkpt>
   <trkpt lat="35.6959350" lon="128.5320990">
    <ele>986</ele>
   </trkpt>
   <trkpt lat="35.6959840" lon="128.5322740">
    <ele>988</ele>
   </trkpt>
   <trkpt lat="35.6959230" lon="128.5323520">
    <ele>990</ele>
   </trkpt>
   <trkpt lat="35.6958780" lon="128.5325140">
    <ele>992</ele>
   </trkpt>
   <trkpt lat="35.6958399" lon="128.5326040">
    <ele>993</ele>
   </trkpt>
   <trkpt lat="35.6956560" lon="128.5326880">
    <ele>995</ele>
   </trkpt>
   <trkpt lat="35.6956590" lon="128.5327770">
    <ele>996</ele>
   </trkpt>
   <trkpt lat="35.6956310" lon="128.5329300">
    <ele>998</ele>
   </trkpt>
   <trkpt lat="35.6955770" lon="128.5331730">
    <ele>999</ele>
   </trkpt>
   <trkpt lat="35.6954690" lon="128.5335350">
    <ele>1000</ele>
   </trkpt>
   <trkpt lat="35.6952980" lon="128.5338810">
    <ele>1001</ele>
   </trkpt>
   <trkpt lat="35.6952010" lon="128.5339930">
    <ele>1002</ele>
   </trkpt>
   <trkpt lat="35.6948510" lon="128.5342510">
    <ele>1003</ele>
   </trkpt>
   <trkpt lat="35.6946400" lon="128.5345199">
    <ele>1003</ele>
   </trkpt>
   <trkpt lat="35.6943180" lon="128.5349440">
    <ele>1004</ele>
   </trkpt>
   <trkpt lat="35.6942650" lon="128.5349580">
    <ele>1005</ele>
   </trkpt>
   <trkpt lat="35.6940000" lon="128.5351140">
    <ele>1005</ele>
   </trkpt>
   <trkpt lat="35.6940155" lon="128.5351538">
    <ele>1005</ele>
   </trkpt>
   <trkpt lat="35.6940000" lon="128.5351140">
    <ele>1006</ele>
   </trkpt>
   <trkpt lat="35.6942650" lon="128.5349580">
    <ele>1006</ele>
   </trkpt>
   <trkpt lat="35.6943180" lon="128.5349440">
    <ele>1006</ele>
   </trkpt>
   <trkpt lat="35.6946400" lon="128.5345199">
    <ele>1006</ele>
   </trkpt>
   <trkpt lat="35.6948510" lon="128.5342510">
    <ele>1005</ele>
   </trkpt>
   <trkpt lat="35.6952010" lon="128.5339930">
    <ele>1005</ele>
   </trkpt>
   <trkpt lat="35.6952980" lon="128.5338810">
    <ele>1005</ele>
   </trkpt>
   <trkpt lat="35.6954690" lon="128.5335350">
    <ele>1004</ele>
   </trkpt>
   <trkpt lat="35.6955770" lon="128.5331730">
    <ele>1004</ele>
   </trkpt>
   <trkpt lat="35.6956310" lon="128.5329300">
    <ele>1003</ele>
   </trkpt>
   <trkpt lat="35.6956590" lon="128.5327770">
    <ele>1002</ele>
   </trkpt>
   <trkpt lat="35.6956560" lon="128.5326880">
    <ele>1002</ele>
   </trkpt>
   <trkpt lat="35.6958399" lon="128.5326040">
    <ele>1001</ele>
   </trkpt>
   <trkpt lat="35.6958780" lon="128.5325140">
    <ele>1000</ele>
   </trkpt>
   <trkpt lat="35.6959230" lon="128.5323520">
    <ele>1000</ele>
   </trkpt>
   <trkpt lat="35.6959840" lon="128.5322740">
    <ele>999</ele>
   </trkpt>
   <trkpt lat="35.6961010" lon="128.5320560">
    <ele>998</ele>
   </trkpt>
   <trkpt lat="35.6963490" lon="128.5319130">
    <ele>997</ele>
   </trkpt>
   <trkpt lat="35.6963900" lon="128.5316520">
    <ele>996</ele>
   </trkpt>
   <trkpt lat="35.6964540" lon="128.5314400">
    <ele>995</ele>
   </trkpt>
   <trkpt lat="35.6964370" lon="128.5312990">
    <ele>994</ele>
   </trkpt>
   <trkpt lat="35.6963960" lon="128.5312000">
    <ele>993</ele>
   </trkpt>
   <trkpt lat="35.6963790" lon="128.5311610">
    <ele>992</ele>
   </trkpt>
   <trkpt lat="35.6964640" lon="128.5310100">
    <ele>990</ele>
   </trkpt>
   <trkpt lat="35.6964950" lon="128.5309120">
    <ele>989</ele>
   </trkpt>
   <trkpt lat="35.6965140" lon="128.5309330">
    <ele>988</ele>
   </trkpt>
   <trkpt lat="35.6966150" lon="128.5310470">
    <ele>986</ele>
   </trkpt>
   <trkpt lat="35.6967290" lon="128.5312260">
    <ele>985</ele>
   </trkpt>
   <trkpt lat="35.6967570" lon="128.5312870">
    <ele>983</ele>
   </trkpt>
   <trkpt lat="35.6970020" lon="128.5315310">
    <ele>982</ele>
   </trkpt>
   <trkpt lat="35.6970720" lon="128.5316470">
    <ele>980</ele>
   </trkpt>
   <trkpt lat="35.6971760" lon="128.5318480">
    <ele>979</ele>
   </trkpt>
   <trkpt lat="35.6973820" lon="128.5319979">
    <ele>977</ele>
   </trkpt>
   <trkpt lat="35.6976609" lon="128.5322210">
    <ele>976</ele>
   </trkpt>
   <trkpt lat="35.6979740" lon="128.5322200">
    <ele>975</ele>
   </trkpt>
   <trkpt lat="35.6981560" lon="128.5323150">
    <ele>973</ele>
   </trkpt>
   <trkpt lat="35.6982969" lon="128.5323120">
    <ele>972</ele>
   </trkpt>
   <trkpt lat="35.6984039" lon="128.5322750">
    <ele>970</ele>
   </trkpt>
   <trkpt lat="35.6985249" lon="128.5323140">
    <ele>969</ele>
   </trkpt>
   <trkpt lat="35.6986030" lon="128.5322820">
    <ele>968</ele>
   </trkpt>
   <trkpt lat="35.6990989" lon="128.5323790">
    <ele>967</ele>
   </trkpt>
   <trkpt lat="35.6993400" lon="128.5322730">
    <ele>965</ele>
   </trkpt>
   <trkpt lat="35.6993726" lon="128.5323858">
    <ele>964</ele>
   </trkpt>
   <trkpt lat="35.6993400" lon="128.5322730">
    <ele>963</ele>
   </trkpt>
   <trkpt lat="35.6994560" lon="128.5322229">
    <ele>962</ele>
   </trkpt>
   <trkpt lat="35.6998390" lon="128.5322990">
    <ele>961</ele>
   </trkpt>
   <trkpt lat="35.7001020" lon="128.5323640">
    <ele>960</ele>
   </trkpt>
   <trkpt lat="35.7002750" lon="128.5322990">
    <ele>959</ele>
   </trkpt>
   <trkpt lat="35.7005290" lon="128.5323990">
    <ele>959</ele>
   </trkpt>
   <trkpt lat="35.7008220" lon="128.5323970">
    <ele>958</ele>
   </trkpt>
   <trkpt lat="35.7008630" lon="128.5323570">
    <ele>957</ele>
   </trkpt>
   <trkpt lat="35.7009000" lon="128.5323220">
    <ele>956</ele>
   </trkpt>
   <trkpt lat="35.7010530" lon="128.5322349">
    <ele>956</ele>
   </trkpt>
   <trkpt lat="35.7011890" lon="128.5322500">
    <ele>955</ele>
   </trkpt>
   <trkpt lat="35.7012370" lon="128.5321610">
    <ele>954</ele>
   </trkpt>
   <trkpt lat="35.7013210" lon="128.5321260">
    <ele>954</ele>
   </trkpt>
   <trkpt lat="35.7014690" lon="128.5321590">
    <ele>953</ele>
   </trkpt>
   <trkpt lat="35.7017550" lon="128.5321950">
    <ele>952</ele>
   </trkpt>
   <trkpt lat="35.7019090" lon="128.5324160">
    <ele>952</ele>
   </trkpt>
   <trkpt lat="35.7020790" lon="128.5323880">
    <ele>951</ele>
   </trkpt>
   <trkpt lat="35.7022350" lon="128.5324530">
    <ele>950</ele>
   </trkpt>
   <trkpt lat="35.7024300" lon="128.5324550">
    <ele>950</ele>
   </trkpt>
   <trkpt lat="35.7025210" lon="128.5325110">
    <ele>949</ele>
   </trkpt>
   <trkpt lat="35.7032110" lon="128.5328780">
    <ele>948</ele>
   </trkpt>
   <trkpt lat="35.7034200" lon="128.5329420">
    <ele>947</ele>
   </trkpt>
   <trkpt lat="35.7035680" lon="128.5330500">
    <ele>946</ele>
   </trkpt>
   <trkpt lat="35.7036330" lon="128.5330520">
    <ele>946</ele>
   </trkpt>
   <trkpt lat="35.7037450" lon="128.5332040">
    <ele>945</ele>
   </trkpt>
   <trkpt lat="35.7038710" lon="128.5334020">
    <ele>944</ele>
   </trkpt>
   <trkpt lat="35.7041520" lon="128.5335610">
    <ele>943</ele>
   </trkpt>
   <trkpt lat="35.7043010" lon="128.5336310">
    <ele>941</ele>
   </trkpt>
   <trkpt lat="35.7043570" lon="128.5335560">
    <ele>940</ele>
   </trkpt>
   <trkpt lat="35.7043910" lon="128.5335946">
    <ele>939</ele>
   </trkpt>
   <trkpt lat="35.7043570" lon="128.5335560">
    <ele>938</ele>
   </trkpt>
   <trkpt lat="35.7044010" lon="128.5335000">
    <ele>937</ele>
   </trkpt>
   <trkpt lat="35.7044920" lon="128.5333370">
    <ele>935</ele>
   </trkpt>
   <trkpt lat="35.7046009" lon="128.5331710">
    <ele>934</ele>
   </trkpt>
   <trkpt lat="35.7047460" lon="128.5330229">
    <ele>932</ele>
   </trkpt>
   <trkpt lat="35.7055260" lon="128.5323740">
    <ele>931</ele>
   </trkpt>
   <trkpt lat="35.7056770" lon="128.5323030">
    <ele>930</ele>
   </trkpt>
   <trkpt lat="35.7057860" lon="128.5322200">
    <ele>928</ele>
   </trkpt>
   <trkpt lat="35.7059420" lon="128.5321270">
    <ele>927</ele>
   </trkpt>
   <trkpt lat="35.7059760" lon="128.5320760">
    <ele>926</ele>
   </trkpt>
   <trkpt lat="35.7062200" lon="128.5319020">
    <ele>925</ele>
   </trkpt>
   <trkpt lat="35.7063130" lon="128.5317990">
    <ele>924</ele>
   </trkpt>
   <trkpt lat="35.7068140" lon="128.5313730">
    <ele>923</ele>
   </trkpt>
   <trkpt lat="35.7069820" lon="128.5312439">
    <ele>922</ele>
   </trkpt>
   <trkpt lat="35.7072190" lon="128.5311720">
    <ele>922</ele>
   </trkpt>
   <trkpt lat="35.7075070" lon="128.5310320">
    <ele>921</ele>
   </trkpt>
   <trkpt lat="35.7077940" lon="128.5309170">
    <ele>921</ele>
   </trkpt>
   <trkpt lat="35.7079890" lon="128.5308120">
    <ele>921</ele>
   </trkpt>
   <trkpt lat="35.7081180" lon="128.5307640">
    <ele>921</ele>
   </trkpt>
   <trkpt lat="35.7082640" lon="128.5304720">
    <ele>921</ele>
   </trkpt>
   <trkpt lat="35.7083920" lon="128.5303890">
    <ele>922</ele>
   </trkpt>
   <trkpt lat="35.7085800" lon="128.5303420">
    <ele>922</ele>
   </trkpt>
   <trkpt lat="35.7086929" lon="128.5302710">
    <ele>923</ele>
   </trkpt>
   <trkpt lat="35.7088090" lon="128.5302330">
    <ele>924</ele>
   </trkpt>
   <trkpt lat="35.7089020" lon="128.5301470">
    <ele>925</ele>
   </trkpt>
   <trkpt lat="35.7091370" lon="128.5300310">
    <ele>927</ele>
   </trkpt>
   <trkpt lat="35.7093850" lon="128.5300110">
    <ele>928</ele>
   </trkpt>
   <trkpt lat="35.7095060" lon="128.5299010">
    <ele>930</ele>
   </trkpt>
   <trkpt lat="35.7096050" lon="128.5298250">
    <ele>932</ele>
   </trkpt>
   <trkpt lat="35.7097270" lon="128.5298470">
    <ele>933</ele>
   </trkpt>
   <trkpt lat="35.7098889" lon="128.5299320">
    <ele>936</ele>
   </trkpt>
   <trkpt lat="35.7100880" lon="128.5298710">
    <ele>938</ele>
   </trkpt>
   <trkpt lat="35.7102350" lon="128.5297590">
    <ele>940</ele>
   </trkpt>
   <trkpt lat="35.7103020" lon="128.5297380">
    <ele>943</ele>
   </trkpt>
   <trkpt lat="35.7104770" lon="128.5297960">
    <ele>945</ele>
   </trkpt>
   <trkpt lat="35.7105940" lon="128.5298710">
    <ele>948</ele>
   </trkpt>
   <trkpt lat="35.7106240" lon="128.5298540">
    <ele>951</ele>
   </trkpt>
   <trkpt lat="35.7107590" lon="128.5297400">
    <ele>954</ele>
   </trkpt>
   <trkpt lat="35.7110410" lon="128.5295439">
    <ele>957</ele>
   </trkpt>
   <trkpt lat="35.7111830" lon="128.5294020">
    <ele>960</ele>
   </trkpt>
   <trkpt lat="35.7113470" lon="128.5292640">
    <ele>963</ele>
   </trkpt>
   <trkpt lat="35.7115080" lon="128.5290410">
    <ele>966</ele>
   </trkpt>
   <trkpt lat="35.7116720" lon="128.5289200">
    <ele>969</ele>
   </trkpt>
   <trkpt lat="35.7119270" lon="128.5288470">
    <ele>972</ele>
   </trkpt>
   <trkpt lat="35.7121260" lon="128.5286900">
    <ele>975</ele>
   </trkpt>
   <trkpt lat="35.7123660" lon="128.5284170">
    <ele>978</ele>
   </trkpt>
   <trkpt lat="35.7124280" lon="128.5283180">
    <ele>981</ele>
   </trkpt>
   <trkpt lat="35.7124740" lon="128.5280809">
    <ele>984</ele>
   </trkpt>
   <trkpt lat="35.7124990" lon="128.5280230">
    <ele>987</ele>
   </trkpt>
   <trkpt lat="35.7126949" lon="128.5279670">
    <ele>990</ele>
   </trkpt>
   <trkpt lat="35.7127679" lon="128.5278140">
    <ele>993</ele>
   </trkpt>
   <trkpt lat="35.7127910" lon="128.5277400">
    <ele>996</ele>
   </trkpt>
   <trkpt lat="35.7130920" lon="128.5275610">
    <ele>998</ele>
   </trkpt>
   <trkpt lat="35.7131750" lon="128.5274320">
    <ele>1001</ele>
   </trkpt>
   <trkpt lat="35.7132530" lon="128.5273510">
    <ele>1004</ele>
   </trkpt>
   <trkpt lat="35.7134000" lon="128.5273060">
    <ele>1006</ele>
   </trkpt>
   <trkpt lat="35.7134519" lon="128.5272310">
    <ele>1009</ele>
   </trkpt>
   <trkpt lat="35.7134750" lon="128.5271390">
    <ele>1011</ele>
   </trkpt>
   <trkpt lat="35.7135340" lon="128.5271130">
    <ele>1014</ele>
   </trkpt>
   <trkpt lat="35.7135589" lon="128.5270310">
    <ele>1016</ele>
   </trkpt>
   <trkpt lat="35.7136210" lon="128.5269990">
    <ele>1018</ele>
   </trkpt>
   <trkpt lat="35.7136410" lon="128.5269230">
    <ele>1020</ele>
   </trkpt>
   <trkpt lat="35.7137720" lon="128.5268070">
    <ele>1022</ele>
   </trkpt>
   <trkpt lat="35.7138250" lon="128.5266840">
    <ele>1024</ele>
   </trkpt>
   <trkpt lat="35.7138960" lon="128.5266399">
    <ele>1026</ele>
   </trkpt>
   <trkpt lat="35.7139430" lon="128.5265140">
    <ele>1028</ele>
   </trkpt>
   <trkpt lat="35.7139960" lon="128.5264770">
    <ele>1030</ele>
   </trkpt>
   <trkpt lat="35.7140240" lon="128.5263800">
    <ele>1032</ele>
   </trkpt>
   <trkpt lat="35.7140850" lon="128.5263129">
    <ele>1034</ele>
   </trkpt>
   <trkpt lat="35.7141060" lon="128.5261960">
    <ele>1035</ele>
   </trkpt>
   <trkpt lat="35.7141860" lon="128.5260480">
    <ele>1037</ele>
   </trkpt>
   <trkpt lat="35.7143400" lon="128.5258090">
    <ele>1039</ele>
   </trkpt>
   <trkpt lat="35.7143450" lon="128.5257540">
    <ele>1040</ele>
   </trkpt>
   <trkpt lat="35.7144000" lon="128.5257150">
    <ele>1041</ele>
   </trkpt>
   <trkpt lat="35.7144540" lon="128.5257070">
    <ele>1043</ele>
   </trkpt>
   <trkpt lat="35.7144850" lon="128.5256880">
    <ele>1044</ele>
   </trkpt>
   <trkpt lat="35.7145110" lon="128.5256220">
    <ele>1045</ele>
   </trkpt>
   <trkpt lat="35.7146260" lon="128.5255350">
    <ele>1046</ele>
   </trkpt>
   <trkpt lat="35.7147200" lon="128.5254810">
    <ele>1047</ele>
   </trkpt>
   <trkpt lat="35.7148960" lon="128.5252960">
    <ele>1048</ele>
   </trkpt>
   <trkpt lat="35.7149150" lon="128.5252360">
    <ele>1049</ele>
   </trkpt>
   <trkpt lat="35.7149330" lon="128.5251380">
    <ele>1050</ele>
   </trkpt>
   <trkpt lat="35.7149829" lon="128.5250710">
    <ele>1051</ele>
   </trkpt>
   <trkpt lat="35.7150109" lon="128.5249900">
    <ele>1052</ele>
   </trkpt>
   <trkpt lat="35.7150670" lon="128.5248880">
    <ele>1053</ele>
   </trkpt>
   <trkpt lat="35.7151939" lon="128.5247270">
    <ele>1053</ele>
   </trkpt>
   <trkpt lat="35.7152350" lon="128.5245920">
    <ele>1054</ele>
   </trkpt>
   <trkpt lat="35.7153040" lon="128.5244910">
    <ele>1054</ele>
   </trkpt>
   <trkpt lat="35.7153520" lon="128.5243840">
    <ele>1055</ele>
   </trkpt>
   <trkpt lat="35.7154100" lon="128.5242280">
    <ele>1055</ele>
   </trkpt>
   <trkpt lat="35.7154110" lon="128.5240430">
    <ele>1056</ele>
   </trkpt>
   <trkpt lat="35.7154460" lon="128.5239470">
    <ele>1056</ele>
   </trkpt>
   <trkpt lat="35.7154780" lon="128.5239039">
    <ele>1056</ele>
   </trkpt>
   <trkpt lat="35.7154979" lon="128.5237689">
    <ele>1056</ele>
   </trkpt>
   <trkpt lat="35.7155330" lon="128.5236190">
    <ele>1057</ele>
   </trkpt>
   <trkpt lat="35.7155400" lon="128.5235610">
    <ele>1057</ele>
   </trkpt>
   <trkpt lat="35.7155450" lon="128.5235310">
    <ele>1057</ele>
   </trkpt>
   <trkpt lat="35.7156100" lon="128.5234510">
    <ele>1056</ele>
   </trkpt>
   <trkpt lat="35.7156180" lon="128.5233079">
    <ele>1056</ele>
   </trkpt>
   <trkpt lat="35.7155950" lon="128.5232830">
    <ele>1056</ele>
   </trkpt>
   <trkpt lat="35.7155900" lon="128.5231980">
    <ele>1056</ele>
   </trkpt>
   <trkpt lat="35.7156203" lon="128.5231661">
    <ele>1055</ele>
   </trkpt>
   <trkpt lat="35.7155900" lon="128.5231980">
    <ele>1055</ele>
   </trkpt>
   <trkpt lat="35.7155950" lon="128.5232830">
    <ele>1054</ele>
   </trkpt>
   <trkpt lat="35.7156180" lon="128.5233079">
    <ele>1054</ele>
   </trkpt>
   <trkpt lat="35.7156100" lon="128.5234510">
    <ele>1053</ele>
   </trkpt>
   <trkpt lat="35.7155450" lon="128.5235310">
    <ele>1052</ele>
   </trkpt>
   <trkpt lat="35.7155400" lon="128.5235610">
    <ele>1051</ele>
   </trkpt>
   <trkpt lat="35.7154710" lon="128.5237060">
    <ele>1050</ele>
   </trkpt>
   <trkpt lat="35.7153490" lon="128.5238310">
    <ele>1049</ele>
   </trkpt>
   <trkpt lat="35.7152680" lon="128.5239970">
    <ele>1048</ele>
   </trkpt>
   <trkpt lat="35.7152260" lon="128.5240560">
    <ele>1046</ele>
   </trkpt>
   <trkpt lat="35.7151250" lon="128.5241600">
    <ele>1045</ele>
   </trkpt>
   <trkpt lat="35.7150320" lon="128.5241350">
    <ele>1043</ele>
   </trkpt>
   <trkpt lat="35.7149690" lon="128.5241620">
    <ele>1042</ele>
   </trkpt>
   <trkpt lat="35.7149150" lon="128.5241980">
    <ele>1040</ele>
   </trkpt>
   <trkpt lat="35.7148390" lon="128.5241370">
    <ele>1038</ele>
   </trkpt>
   <trkpt lat="35.7147570" lon="128.5241820">
    <ele>1036</ele>
   </trkpt>
   <trkpt lat="35.7146990" lon="128.5241620">
    <ele>1034</ele>
   </trkpt>
   <trkpt lat="35.7145579" lon="128.5241650">
    <ele>1032</ele>
   </trkpt>
   <trkpt lat="35.7144990" lon="128.5241519">
    <ele>1029</ele>
   </trkpt>
   <trkpt lat="35.7143159" lon="128.5240530">
    <ele>1027</ele>
   </trkpt>
   <trkpt lat="35.7140140" lon="128.5238750">
    <ele>1024</ele>
   </trkpt>
   <trkpt lat="35.7138880" lon="128.5238400">
    <ele>1021</ele>
   </trkpt>
   <trkpt lat="35.7137890" lon="128.5238390">
    <ele>1018</ele>
   </trkpt>
   <trkpt lat="35.7135540" lon="128.5238520">
    <ele>1015</ele>
   </trkpt>
   <trkpt lat="35.7134250" lon="128.5238369">
    <ele>1012</ele>
   </trkpt>
   <trkpt lat="35.7133350" lon="128.5237810">
    <ele>1009</ele>
   </trkpt>
   <trkpt lat="35.7132409" lon="128.5237500">
    <ele>1005</ele>
   </trkpt>
   <trkpt lat="35.7131649" lon="128.5237780">
    <ele>1001</ele>
   </trkpt>
   <trkpt lat="35.7131240" lon="128.5237930">
    <ele>998</ele>
   </trkpt>
   <trkpt lat="35.7130830" lon="128.5238550">
    <ele>994</ele>
   </trkpt>
   <trkpt lat="35.7129270" lon="128.5239760">
    <ele>990</ele>
   </trkpt>
   <trkpt lat="35.7127890" lon="128.5240420">
    <ele>986</ele>
   </trkpt>
   <trkpt lat="35.7126600" lon="128.5239710">
    <ele>981</ele>
   </trkpt>
   <trkpt lat="35.7126050" lon="128.5239650">
    <ele>977</ele>
   </trkpt>
   <trkpt lat="35.7125510" lon="128.5240460">
    <ele>973</ele>
   </trkpt>
   <trkpt lat="35.7125800" lon="128.5240590">
    <ele>968</ele>
   </trkpt>
   <trkpt lat="35.7125980" lon="128.5240920">
    <ele>963</ele>
   </trkpt>
   <trkpt lat="35.7126480" lon="128.5242740">
    <ele>959</ele>
   </trkpt>
   <trkpt lat="35.7126170" lon="128.5243769">
    <ele>954</ele>
   </trkpt>
   <trkpt lat="35.7125270" lon="128.5244109">
    <ele>949</ele>
   </trkpt>
   <trkpt lat="35.7124620" lon="128.5244760">
    <ele>944</ele>
   </trkpt>
   <trkpt lat="35.7124200" lon="128.5244260">
    <ele>938</ele>
   </trkpt>
   <trkpt lat="35.7122830" lon="128.5245510">
    <ele>933</ele>
   </trkpt>
   <trkpt lat="35.7122160" lon="128.5245280">
    <ele>928</ele>
   </trkpt>
   <trkpt lat="35.7121390" lon="128.5245330">
    <ele>922</ele>
   </trkpt>
   <trkpt lat="35.7120360" lon="128.5246560">
    <ele>917</ele>
   </trkpt>
   <trkpt lat="35.7120120" lon="128.5246840">
    <ele>911</ele>
   </trkpt>
   <trkpt lat="35.7118960" lon="128.5246140">
    <ele>905</ele>
   </trkpt>
   <trkpt lat="35.7117950" lon="128.5246510">
    <ele>900</ele>
   </trkpt>
   <trkpt lat="35.7114590" lon="128.5246570">
    <ele>894</ele>
   </trkpt>
   <trkpt lat="35.7113680" lon="128.5246660">
    <ele>888</ele>
   </trkpt>
   <trkpt lat="35.7112350" lon="128.5246520">
    <ele>882</ele>
   </trkpt>
   <trkpt lat="35.7111360" lon="128.5247830">
    <ele>876</ele>
   </trkpt>
   <trkpt lat="35.7110429" lon="128.5248450">
    <ele>870</ele>
   </trkpt>
   <trkpt lat="35.7110010" lon="128.5248100">
    <ele>865</ele>
   </trkpt>
   <trkpt lat="35.7108900" lon="128.5248870">
    <ele>859</ele>
   </trkpt>
   <trkpt lat="35.7107790" lon="128.5248930">
    <ele>853</ele>
   </trkpt>
   <trkpt lat="35.7105790" lon="128.5247110">
    <ele>847</ele>
   </trkpt>
   <trkpt lat="35.7105419" lon="128.5247440">
    <ele>841</ele>
   </trkpt>
   <trkpt lat="35.7104440" lon="128.5246730">
    <ele>835</ele>
   </trkpt>
   <trkpt lat="35.7103200" lon="128.5245630">
    <ele>829</ele>
   </trkpt>
   <trkpt lat="35.7102190" lon="128.5244180">
    <ele>823</ele>
   </trkpt>
   <trkpt lat="35.7101929" lon="128.5243080">
    <ele>817</ele>
   </trkpt>
   <trkpt lat="35.7100770" lon="128.5241750">
    <ele>812</ele>
   </trkpt>
   <trkpt lat="35.7100570" lon="128.5241310">
    <ele>806</ele>
   </trkpt>
   <trkpt lat="35.7100683" lon="128.5241246">
    <ele>800</ele>
   </trkpt>
   <trkpt lat="35.7100570" lon="128.5241310">
    <ele>794</ele>
   </trkpt>
   <trkpt lat="35.7099720" lon="128.5239489">
    <ele>789</ele>
   </trkpt>
   <trkpt lat="35.7098990" lon="128.5238440">
    <ele>783</ele>
   </trkpt>
   <trkpt lat="35.7098600" lon="128.5237050">
    <ele>777</ele>
   </trkpt>
   <trkpt lat="35.7098640" lon="128.5235700">
    <ele>772</ele>
   </trkpt>
   <trkpt lat="35.7098420" lon="128.5234580">
    <ele>766</ele>
   </trkpt>
   <trkpt lat="35.7097710" lon="128.5233680">
    <ele>761</ele>
   </trkpt>
   <trkpt lat="35.7097330" lon="128.5232849">
    <ele>755</ele>
   </trkpt>
   <trkpt lat="35.7096790" lon="128.5231320">
    <ele>750</ele>
   </trkpt>
   <trkpt lat="35.7096590" lon="128.5229820">
    <ele>744</ele>
   </trkpt>
   <trkpt lat="35.7096170" lon="128.5223130">
    <ele>739</ele>
   </trkpt>
   <trkpt lat="35.7095030" lon="128.5218300">
    <ele>734</ele>
   </trkpt>
   <trkpt lat="35.7095380" lon="128.5215300">
    <ele>729</ele>
   </trkpt>
   <trkpt lat="35.7096120" lon="128.5214030">
    <ele>724</ele>
   </trkpt>
   <trkpt lat="35.7096820" lon="128.5213310">
    <ele>719</ele>
   </trkpt>
   <trkpt lat="35.7097210" lon="128.5212340">
    <ele>714</ele>
   </trkpt>
   <trkpt lat="35.7096690" lon="128.5210570">
    <ele>709</ele>
   </trkpt>
   <trkpt lat="35.7096800" lon="128.5208160">
    <ele>704</ele>
   </trkpt>
   <trkpt lat="35.7097360" lon="128.5206390">
    <ele>700</ele>
   </trkpt>
   <trkpt lat="35.7096690" lon="128.5203919">
    <ele>695</ele>
   </trkpt>
   <trkpt lat="35.7096770" lon="128.5202470">
    <ele>690</ele>
   </trkpt>
   <trkpt lat="35.7096670" lon="128.5200780">
    <ele>686</ele>
   </trkpt>
   <trkpt lat="35.7096080" lon="128.5198990">
    <ele>682</ele>
   </trkpt>
   <trkpt lat="35.7095380" lon="128.5198210">
    <ele>677</ele>
   </trkpt>
   <trkpt lat="35.7094700" lon="128.5197910">
    <ele>673</ele>
   </trkpt>
   <trkpt lat="35.7093030" lon="128.5196870">
    <ele>669</ele>
   </trkpt>
   <trkpt lat="35.7092270" lon="128.5195430">
    <ele>665</ele>
   </trkpt>
   <trkpt lat="35.7092510" lon="128.5195020">
    <ele>661</ele>
   </trkpt>
   <trkpt lat="35.7092510" lon="128.5194790">
    <ele>658</ele>
   </trkpt>
   <trkpt lat="35.7092639" lon="128.5194790">
    <ele>654</ele>
   </trkpt>
   <trkpt lat="35.7092510" lon="128.5194790">
    <ele>650</ele>
   </trkpt>
   <trkpt lat="35.7092510" lon="128.5194420">
    <ele>647</ele>
   </trkpt>
   <trkpt lat="35.7093720" lon="128.5192780">
    <ele>643</ele>
   </trkpt>
   <trkpt lat="35.7093900" lon="128.5191690">
    <ele>640</ele>
   </trkpt>
   <trkpt lat="35.7093750" lon="128.5190270">
    <ele>637</ele>
   </trkpt>
   <trkpt lat="35.7093310" lon="128.5188340">
    <ele>634</ele>
   </trkpt>
   <trkpt lat="35.7094220" lon="128.5187340">
    <ele>631</ele>
   </trkpt>
   <trkpt lat="35.7094610" lon="128.5184800">
    <ele>628</ele>
   </trkpt>
   <trkpt lat="35.7094240" lon="128.5183350">
    <ele>625</ele>
   </trkpt>
   <trkpt lat="35.7094200" lon="128.5182460">
    <ele>622</ele>
   </trkpt>
   <trkpt lat="35.7093640" lon="128.5181069">
    <ele>619</ele>
   </trkpt>
   <trkpt lat="35.7093730" lon="128.5180100">
    <ele>617</ele>
   </trkpt>
   <trkpt lat="35.7093820" lon="128.5177780">
    <ele>614</ele>
   </trkpt>
   <trkpt lat="35.7094049" lon="128.5176720">
    <ele>612</ele>
   </trkpt>
   <trkpt lat="35.7094809" lon="128.5175329">
    <ele>610</ele>
   </trkpt>
   <trkpt lat="35.7094880" lon="128.5174700">
    <ele>608</ele>
   </trkpt>
   <trkpt lat="35.7095180" lon="128.5173760">
    <ele>606</ele>
   </trkpt>
   <trkpt lat="35.7095000" lon="128.5172480">
    <ele>604</ele>
   </trkpt>
   <trkpt lat="35.7095470" lon="128.5171430">
    <ele>602</ele>
   </trkpt>
   <trkpt lat="35.7096609" lon="128.5170650">
    <ele>601</ele>
   </trkpt>
   <trkpt lat="35.7096870" lon="128.5169410">
    <ele>599</ele>
   </trkpt>
   <trkpt lat="35.7097830" lon="128.5167740">
    <ele>598</ele>
   </trkpt>
   <trkpt lat="35.7097700" lon="128.5166030">
    <ele>597</ele>
   </trkpt>
   <trkpt lat="35.7098590" lon="128.5163950">
    <ele>595</ele>
   </trkpt>
   <trkpt lat="35.7098530" lon="128.5162939">
    <ele>594</ele>
   </trkpt>
   <trkpt lat="35.7098640" lon="128.5160650">
    <ele>594</ele>
   </trkpt>
   <trkpt lat="35.7099210" lon="128.5158880">
    <ele>593</ele>
   </trkpt>
   <trkpt lat="35.7099180" lon="128.5158700">
    <ele>592</ele>
   </trkpt>
   <trkpt lat="35.7099550" lon="128.5158634">
    <ele>591</ele>
   </trkpt>
   <trkpt lat="35.7099180" lon="128.5158700">
    <ele>591</ele>
   </trkpt>
   <trkpt lat="35.7099040" lon="128.5157790">
    <ele>591</ele>
   </trkpt>
   <trkpt lat="35.7098670" lon="128.5156860">
    <ele>591</ele>
   </trkpt>
   <trkpt lat="35.7096970" lon="128.5158350">
    <ele>591</ele>
   </trkpt>
   <trkpt lat="35.7096230" lon="128.5158390">
    <ele>591</ele>
   </trkpt>
   <trkpt lat="35.7094980" lon="128.5158660">
    <ele>591</ele>
   </trkpt>
   <trkpt lat="35.7093599" lon="128.5158700">
    <ele>591</ele>
   </trkpt>
   <trkpt lat="35.7092600" lon="128.5162000">
    <ele>592</ele>
   </trkpt>
   <trkpt lat="35.7092699" lon="128.5162800">
    <ele>593</ele>
   </trkpt>
   <trkpt lat="35.7092380" lon="128.5163610">
    <ele>593</ele>
   </trkpt>
   <trkpt lat="35.7092370" lon="128.5164380">
    <ele>594</ele>
   </trkpt>
   <trkpt lat="35.7091870" lon="128.5165220">
    <ele>595</ele>
   </trkpt>
   <trkpt lat="35.7091950" lon="128.5166030">
    <ele>597</ele>
   </trkpt>
   <trkpt lat="35.7091170" lon="128.5167120">
    <ele>598</ele>
   </trkpt>
   <trkpt lat="35.7091110" lon="128.5168290">
    <ele>599</ele>
   </trkpt>
   <trkpt lat="35.7090330" lon="128.5169600">
    <ele>601</ele>
   </trkpt>
   <trkpt lat="35.7089120" lon="128.5169910">
    <ele>603</ele>
   </trkpt>
   <trkpt lat="35.7088530" lon="128.5171200">
    <ele>604</ele>
   </trkpt>
   <trkpt lat="35.7088470" lon="128.5171690">
    <ele>606</ele>
   </trkpt>
   <trkpt lat="35.7087800" lon="128.5172860">
    <ele>608</ele>
   </trkpt>
   <trkpt lat="35.7087040" lon="128.5174550">
    <ele>610</ele>
   </trkpt>
   <trkpt lat="35.7086560" lon="128.5174940">
    <ele>612</ele>
   </trkpt>
   <trkpt lat="35.7086130" lon="128.5175530">
    <ele>615</ele>
   </trkpt>
   <trkpt lat="35.7086640" lon="128.5177210">
    <ele>617</ele>
   </trkpt>
   <trkpt lat="35.7086970" lon="128.5177900">
    <ele>619</ele>
   </trkpt>
   <trkpt lat="35.7086510" lon="128.5178650">
    <ele>622</ele>
   </trkpt>
   <trkpt lat="35.7086340" lon="128.5179700">
    <ele>624</ele>
   </trkpt>
   <trkpt lat="35.7086020" lon="128.5180619">
    <ele>626</ele>
   </trkpt>
   <trkpt lat="35.7086220" lon="128.5182520">
    <ele>629</ele>
   </trkpt>
   <trkpt lat="35.7086460" lon="128.5183910">
    <ele>632</ele>
   </trkpt>
   <trkpt lat="35.7086220" lon="128.5184940">
    <ele>634</ele>
   </trkpt>
   <trkpt lat="35.7086120" lon="128.5186230">
    <ele>637</ele>
   </trkpt>
   <trkpt lat="35.7086130" lon="128.5189200">
    <ele>639</ele>
   </trkpt>
   <trkpt lat="35.7085250" lon="128.5191340">
    <ele>642</ele>
   </trkpt>
   <trkpt lat="35.7083790" lon="128.5192490">
    <ele>645</ele>
   </trkpt>
   <trkpt lat="35.7083250" lon="128.5193330">
    <ele>647</ele>
   </trkpt>
   <trkpt lat="35.7082470" lon="128.5193950">
    <ele>650</ele>
   </trkpt>
   <trkpt lat="35.7081720" lon="128.5194060">
    <ele>652</ele>
   </trkpt>
   <trkpt lat="35.7080930" lon="128.5194520">
    <ele>655</ele>
   </trkpt>
   <trkpt lat="35.7080160" lon="128.5194180">
    <ele>658</ele>
   </trkpt>
   <trkpt lat="35.7078940" lon="128.5194870">
    <ele>660</ele>
   </trkpt>
   <trkpt lat="35.7077550" lon="128.5196010">
    <ele>663</ele>
   </trkpt>
   <trkpt lat="35.7076490" lon="128.5197030">
    <ele>665</ele>
   </trkpt>
   <trkpt lat="35.7075800" lon="128.5197170">
    <ele>668</ele>
   </trkpt>
   <trkpt lat="35.7074540" lon="128.5197170">
    <ele>670</ele>
   </trkpt>
   <trkpt lat="35.7073930" lon="128.5196950">
    <ele>672</ele>
   </trkpt>
   <trkpt lat="35.7072820" lon="128.5197080">
    <ele>675</ele>
   </trkpt>
   <trkpt lat="35.7072310" lon="128.5196450">
    <ele>677</ele>
   </trkpt>
   <trkpt lat="35.7071680" lon="128.5195450">
    <ele>679</ele>
   </trkpt>
   <trkpt lat="35.7070770" lon="128.5193730">
    <ele>682</ele>
   </trkpt>
   <trkpt lat="35.7070540" lon="128.5193630">
    <ele>684</ele>
   </trkpt>
   <trkpt lat="35.7069610" lon="128.5193899">
    <ele>686</ele>
   </trkpt>
   <trkpt lat="35.7069080" lon="128.5194260">
    <ele>688</ele>
   </trkpt>
   <trkpt lat="35.7068380" lon="128.5194349">
    <ele>690</ele>
   </trkpt>
   <trkpt lat="35.7068190" lon="128.5194210">
    <ele>692</ele>
   </trkpt>
   <trkpt lat="35.7067989" lon="128.5193770">
    <ele>694</ele>
   </trkpt>
   <trkpt lat="35.7067730" lon="128.5193520">
    <ele>696</ele>
   </trkpt>
   <trkpt lat="35.7067679" lon="128.5193230">
    <ele>698</ele>
   </trkpt>
   <trkpt lat="35.7067170" lon="128.5192880">
    <ele>701</ele>
   </trkpt>
   <trkpt lat="35.7066690" lon="128.5192690">
    <ele>703</ele>
   </trkpt>
   <trkpt lat="35.7065810" lon="128.5193060">
    <ele>705</ele>
   </trkpt>
   <trkpt lat="35.7064580" lon="128.5193650">
    <ele>707</ele>
   </trkpt>
   <trkpt lat="35.7063700" lon="128.5194120">
    <ele>709</ele>
   </trkpt>
   <trkpt lat="35.7063340" lon="128.5194210">
    <ele>711</ele>
   </trkpt>
   <trkpt lat="35.7063060" lon="128.5194110">
    <ele>713</ele>
   </trkpt>
   <trkpt lat="35.7062550" lon="128.5194200">
    <ele>715</ele>
   </trkpt>
   <trkpt lat="35.7062010" lon="128.5194510">
    <ele>717</ele>
   </trkpt>
   <trkpt lat="35.7060869" lon="128.5195730">
    <ele>719</ele>
   </trkpt>
   <trkpt lat="35.7059640" lon="128.5196280">
    <ele>721</ele>
   </trkpt>
   <trkpt lat="35.7059349" lon="128.5196310">
    <ele>723</ele>
   </trkpt>
   <trkpt lat="35.7058740" lon="128.5196900">
    <ele>726</ele>
   </trkpt>
   <trkpt lat="35.7058390" lon="128.5197000">
    <ele>728</ele>
   </trkpt>
   <trkpt lat="35.7057310" lon="128.5198610">
    <ele>730</ele>
   </trkpt>
   <trkpt lat="35.7056330" lon="128.5197900">
    <ele>732</ele>
   </trkpt>
   <trkpt lat="35.7056030" lon="128.5198289">
    <ele>735</ele>
   </trkpt>
   <trkpt lat="35.7055689" lon="128.5198210">
    <ele>737</ele>
   </trkpt>
   <trkpt lat="35.7054410" lon="128.5199140">
    <ele>739</ele>
   </trkpt>
   <trkpt lat="35.7053490" lon="128.5199390">
    <ele>742</ele>
   </trkpt>
   <trkpt lat="35.7052509" lon="128.5199550">
    <ele>744</ele>
   </trkpt>
   <trkpt lat="35.7051740" lon="128.5199160">
    <ele>747</ele>
   </trkpt>
   <trkpt lat="35.7051310" lon="128.5199390">
    <ele>749</ele>
   </trkpt>
   <trkpt lat="35.7051320" lon="128.5200710">
    <ele>752</ele>
   </trkpt>
   <trkpt lat="35.7050470" lon="128.5203870">
    <ele>754</ele>
   </trkpt>
   <trkpt lat="35.7049980" lon="128.5204150">
    <ele>757</ele>
   </trkpt>
   <trkpt lat="35.7049820" lon="128.5204950">
    <ele>760</ele>
   </trkpt>
   <trkpt lat="35.7049480" lon="128.5205580">
    <ele>763</ele>
   </trkpt>
   <trkpt lat="35.7049460" lon="128.5206720">
    <ele>766</ele>
   </trkpt>
   <trkpt lat="35.7049660" lon="128.5208000">
    <ele>769</ele>
   </trkpt>
   <trkpt lat="35.7050010" lon="128.5208960">
    <ele>772</ele>
   </trkpt>
   <trkpt lat="35.7049660" lon="128.5209940">
    <ele>775</ele>
   </trkpt>
   <trkpt lat="35.7049420" lon="128.5210960">
    <ele>778</ele>
   </trkpt>
   <trkpt lat="35.7049530" lon="128.5211680">
    <ele>781</ele>
   </trkpt>
   <trkpt lat="35.7049490" lon="128.5212530">
    <ele>784</ele>
   </trkpt>
   <trkpt lat="35.7048990" lon="128.5213370">
    <ele>788</ele>
   </trkpt>
   <trkpt lat="35.7048320" lon="128.5213700">
    <ele>791</ele>
   </trkpt>
   <trkpt lat="35.7047600" lon="128.5214410">
    <ele>795</ele>
   </trkpt>
   <trkpt lat="35.7046720" lon="128.5214770">
    <ele>798</ele>
   </trkpt>
   <trkpt lat="35.7045320" lon="128.5216660">
    <ele>802</ele>
   </trkpt>
   <trkpt lat="35.7045030" lon="128.5217480">
    <ele>806</ele>
   </trkpt>
   <trkpt lat="35.7044320" lon="128.5217879">
    <ele>809</ele>
   </trkpt>
   <trkpt lat="35.7044110" lon="128.5218510">
    <ele>813</ele>
   </trkpt>
   <trkpt lat="35.7042850" lon="128.5219130">
    <ele>817</ele>
   </trkpt>
   <trkpt lat="35.7042530" lon="128.5219100">
    <ele>821</ele>
   </trkpt>
   <trkpt lat="35.7041600" lon="128.5220310">
    <ele>825</ele>
   </trkpt>
   <trkpt lat="35.7039950" lon="128.5221470">
    <ele>829</ele>
   </trkpt>
   <trkpt lat="35.7038889" lon="128.5221700">
    <ele>833</ele>
   </trkpt>
   <trkpt lat="35.7038470" lon="128.5222510">
    <ele>837</ele>
   </trkpt>
   <trkpt lat="35.7038000" lon="128.5222860">
    <ele>841</ele>
   </trkpt>
   <trkpt lat="35.7037630" lon="128.5223340">
    <ele>845</ele>
   </trkpt>
   <trkpt lat="35.7036890" lon="128.5223630">
    <ele>849</ele>
   </trkpt>
   <trkpt lat="35.7036510" lon="128.5224749">
    <ele>853</ele>
   </trkpt>
   <trkpt lat="35.7033720" lon="128.5227230">
    <ele>857</ele>
   </trkpt>
   <trkpt lat="35.7031149" lon="128.5228190">
    <ele>861</ele>
   </trkpt>
   <trkpt lat="35.7030040" lon="128.5228680">
    <ele>865</ele>
   </trkpt>
   <trkpt lat="35.7028899" lon="128.5228700">
    <ele>869</ele>
   </trkpt>
   <trkpt lat="35.7027950" lon="128.5227660">
    <ele>873</ele>
   </trkpt>
   <trkpt lat="35.7026400" lon="128.5227790">
    <ele>877</ele>
   </trkpt>
   <trkpt lat="35.7024950" lon="128.5229380">
    <ele>881</ele>
   </trkpt>
   <trkpt lat="35.7024959" lon="128.5230450">
    <ele>885</ele>
   </trkpt>
   <trkpt lat="35.7024660" lon="128.5231090">
    <ele>889</ele>
   </trkpt>
   <trkpt lat="35.7024470" lon="128.5232220">
    <ele>892</ele>
   </trkpt>
   <trkpt lat="35.7022240" lon="128.5233100">
    <ele>896</ele>
   </trkpt>
   <trkpt lat="35.7019760" lon="128.5233400">
    <ele>899</ele>
   </trkpt>
   <trkpt lat="35.7018370" lon="128.5234070">
    <ele>903</ele>
   </trkpt>
   <trkpt lat="35.7017390" lon="128.5234770">
    <ele>906</ele>
   </trkpt>
   <trkpt lat="35.7015920" lon="128.5236320">
    <ele>909</ele>
   </trkpt>
   <trkpt lat="35.7014420" lon="128.5236800">
    <ele>913</ele>
   </trkpt>
   <trkpt lat="35.7013070" lon="128.5237720">
    <ele>916</ele>
   </trkpt>
   <trkpt lat="35.7012630" lon="128.5239540">
    <ele>919</ele>
   </trkpt>
   <trkpt lat="35.7011170" lon="128.5241710">
    <ele>922</ele>
   </trkpt>
   <trkpt lat="35.7009380" lon="128.5245130">
    <ele>924</ele>
   </trkpt>
   <trkpt lat="35.7009130" lon="128.5246300">
    <ele>927</ele>
   </trkpt>
   <trkpt lat="35.7007910" lon="128.5248180">
    <ele>930</ele>
   </trkpt>
   <trkpt lat="35.7006080" lon="128.5250650">
    <ele>933</ele>
   </trkpt>
   <trkpt lat="35.7003530" lon="128.5252120">
    <ele>935</ele>
   </trkpt>
   <trkpt lat="35.7004110" lon="128.5254390">
    <ele>938</ele>
   </trkpt>
   <trkpt lat="35.7003190" lon="128.5255390">
    <ele>940</ele>
   </trkpt>
   <trkpt lat="35.7002160" lon="128.5257300">
    <ele>943</ele>
   </trkpt>
   <trkpt lat="35.7001640" lon="128.5257680">
    <ele>945</ele>
   </trkpt>
   <trkpt lat="35.7001510" lon="128.5257480">
    <ele>947</ele>
   </trkpt>
   <trkpt lat="35.6999520" lon="128.5258020">
    <ele>950</ele>
   </trkpt>
   <trkpt lat="35.6997519" lon="128.5259580">
    <ele>952</ele>
   </trkpt>
   <trkpt lat="35.6997360" lon="128.5260490">
    <ele>954</ele>
   </trkpt>
   <trkpt lat="35.6996170" lon="128.5261910">
    <ele>956</ele>
   </trkpt>
   <trkpt lat="35.6994250" lon="128.5262360">
    <ele>958</ele>
   </trkpt>
   <trkpt lat="35.6992580" lon="128.5262960">
    <ele>961</ele>
   </trkpt>
   <trkpt lat="35.6990910" lon="128.5263200">
    <ele>963</ele>
   </trkpt>
   <trkpt lat="35.6990080" lon="128.5263640">
    <ele>965</ele>
   </trkpt>
   <trkpt lat="35.6989290" lon="128.5263770">
    <ele>966</ele>
   </trkpt>
   <trkpt lat="35.6987560" lon="128.5264500">
    <ele>968</ele>
   </trkpt>
   <trkpt lat="35.6986599" lon="128.5264210">
    <ele>970</ele>
   </trkpt>
   <trkpt lat="35.6985870" lon="128.5264440">
    <ele>972</ele>
   </trkpt>
   <trkpt lat="35.6984860" lon="128.5263460">
    <ele>974</ele>
   </trkpt>
   <trkpt lat="35.6983249" lon="128.5263300">
    <ele>975</ele>
   </trkpt>
   <trkpt lat="35.6982440" lon="128.5263579">
    <ele>977</ele>
   </trkpt>
   <trkpt lat="35.6982922" lon="128.5265636">
    <ele>978</ele>
   </trkpt>
   <trkpt lat="35.6982440" lon="128.5263579">
    <ele>979</ele>
   </trkpt>
   <trkpt lat="35.6982100" lon="128.5263699">
    <ele>981</ele>
   </trkpt>
   <trkpt lat="35.6980540" lon="128.5263610">
    <ele>982</ele>
   </trkpt>
   <trkpt lat="35.6979090" lon="128.5264430">
    <ele>983</ele>
   </trkpt>
   <trkpt lat="35.6977400" lon="128.5264310">
    <ele>984</ele>
   </trkpt>
   <trkpt lat="35.6975520" lon="128.5263800">
    <ele>985</ele>
   </trkpt>
   <trkpt lat="35.6975450" lon="128.5262770">
    <ele>986</ele>
   </trkpt>
   <trkpt lat="35.6975220" lon="128.5261900">
    <ele>986</ele>
   </trkpt>
   <trkpt lat="35.6974940" lon="128.5261540">
    <ele>987</ele>
   </trkpt>
   <trkpt lat="35.6975260" lon="128.5260440">
    <ele>987</ele>
   </trkpt>
   <trkpt lat="35.6975320" lon="128.5258560">
    <ele>987</ele>
   </trkpt>
   <trkpt lat="35.6975080" lon="128.5257520">
    <ele>987</ele>
   </trkpt>
   <trkpt lat="35.6974660" lon="128.5256710">
    <ele>986</ele>
   </trkpt>
   <trkpt lat="35.6974210" lon="128.5256820">
    <ele>986</ele>
   </trkpt>
   <trkpt lat="35.6973580" lon="128.5256149">
    <ele>985</ele>
   </trkpt>
   <trkpt lat="35.6973773" lon="128.5255908">
    <ele>984</ele>
   </trkpt>
   <trkpt lat="35.6973580" lon="128.5256149">
    <ele>983</ele>
   </trkpt>
   <trkpt lat="35.6973390" lon="128.5255940">
    <ele>982</ele>
   </trkpt>
   <trkpt lat="35.6972590" lon="128.5254950">
    <ele>981</ele>
   </trkpt>
   <trkpt lat="35.6972230" lon="128.5254480">
    <ele>979</ele>
   </trkpt>
   <trkpt lat="35.6972110" lon="128.5254200">
    <ele>978</ele>
   </trkpt>
   <trkpt lat="35.6971500" lon="128.5254370">
    <ele>976</ele>
   </trkpt>
   <trkpt lat="35.6971550" lon="128.5253730">
    <ele>974</ele>
   </trkpt>
   <trkpt lat="35.6971120" lon="128.5253930">
    <ele>972</ele>
   </trkpt>
   <trkpt lat="35.6971300" lon="128.5253080">
    <ele>970</ele>
   </trkpt>
   <trkpt lat="35.6970490" lon="128.5252510">
    <ele>967</ele>
   </trkpt>
   <trkpt lat="35.6970410" lon="128.5252010">
    <ele>965</ele>
   </trkpt>
   <trkpt lat="35.6969130" lon="128.5251290">
    <ele>962</ele>
   </trkpt>
   <trkpt lat="35.6968580" lon="128.5251350">
    <ele>959</ele>
   </trkpt>
   <trkpt lat="35.6968820" lon="128.5250460">
    <ele>956</ele>
   </trkpt>
   <trkpt lat="35.6968370" lon="128.5250250">
    <ele>953</ele>
   </trkpt>
   <trkpt lat="35.6968419" lon="128.5249760">
    <ele>950</ele>
   </trkpt>
   <trkpt lat="35.6968220" lon="128.5249070">
    <ele>947</ele>
   </trkpt>
   <trkpt lat="35.6966780" lon="128.5248030">
    <ele>943</ele>
   </trkpt>
   <trkpt lat="35.6966480" lon="128.5246670">
    <ele>940</ele>
   </trkpt>
   <trkpt lat="35.6966070" lon="128.5245790">
    <ele>936</ele>
   </trkpt>
   <trkpt lat="35.6966120" lon="128.5244710">
    <ele>932</ele>
   </trkpt>
   <trkpt lat="35.6965470" lon="128.5243090">
    <ele>928</ele>
   </trkpt>
   <trkpt lat="35.6965450" lon="128.5242010">
    <ele>924</ele>
   </trkpt>
   <trkpt lat="35.6965130" lon="128.5241440">
    <ele>921</ele>
   </trkpt>
   <trkpt lat="35.6963510" lon="128.5242520">
    <ele>917</ele>
   </trkpt>
   <trkpt lat="35.6962740" lon="128.5240279">
    <ele>913</ele>
   </trkpt>
   <trkpt lat="35.6962320" lon="128.5239480">
    <ele>909</ele>
   </trkpt>
   <trkpt lat="35.6961220" lon="128.5238589">
    <ele>905</ele>
   </trkpt>
   <trkpt lat="35.6960270" lon="128.5238330">
    <ele>900</ele>
   </trkpt>
   <trkpt lat="35.6960160" lon="128.5239180">
    <ele>896</ele>
   </trkpt>
   <trkpt lat="35.6959570" lon="128.5238950">
    <ele>892</ele>
   </trkpt>
   <trkpt lat="35.6959110" lon="128.5239240">
    <ele>888</ele>
   </trkpt>
   <trkpt lat="35.6958130" lon="128.5237740">
    <ele>884</ele>
   </trkpt>
   <trkpt lat="35.6957130" lon="128.5236510">
    <ele>880</ele>
   </trkpt>
   <trkpt lat="35.6956790" lon="128.5234490">
    <ele>875</ele>
   </trkpt>
   <trkpt lat="35.6953950" lon="128.5231970">
    <ele>871</ele>
   </trkpt>
   <trkpt lat="35.6953860" lon="128.5231690">
    <ele>867</ele>
   </trkpt>
   <trkpt lat="35.6954350" lon="128.5231159">
    <ele>863</ele>
   </trkpt>
   <trkpt lat="35.6953540" lon="128.5230890">
    <ele>858</ele>
   </trkpt>
   <trkpt lat="35.6951400" lon="128.5228210">
    <ele>854</ele>
   </trkpt>
   <trkpt lat="35.6949720" lon="128.5226450">
    <ele>850</ele>
   </trkpt>
   <trkpt lat="35.6949640" lon="128.5225180">
    <ele>846</ele>
   </trkpt>
   <trkpt lat="35.6949290" lon="128.5224660">
    <ele>842</ele>
   </trkpt>
   <trkpt lat="35.6949619" lon="128.5223980">
    <ele>838</ele>
   </trkpt>
   <trkpt lat="35.6948590" lon="128.5221470">
    <ele>833</ele>
   </trkpt>
   <trkpt lat="35.6949330" lon="128.5220010">
    <ele>829</ele>
   </trkpt>
   <trkpt lat="35.6949340" lon="128.5219200">
    <ele>825</ele>
   </trkpt>
   <trkpt lat="35.6949550" lon="128.5218219">
    <ele>821</ele>
   </trkpt>
   <trkpt lat="35.6949380" lon="128.5217590">
    <ele>817</ele>
   </trkpt>
   <trkpt lat="35.6948930" lon="128.5217040">
    <ele>813</ele>
   </trkpt>
   <trkpt lat="35.6949240" lon="128.5215460">
    <ele>809</ele>
   </trkpt>
   <trkpt lat="35.6948640" lon="128.5214320">
    <ele>806</ele>
   </trkpt>
   <trkpt lat="35.6947810" lon="128.5213700">
    <ele>802</ele>
   </trkpt>
   <trkpt lat="35.6947220" lon="128.5212890">
    <ele>798</ele>
   </trkpt>
   <trkpt lat="35.6946790" lon="128.5211830">
    <ele>794</ele>
   </trkpt>
   <trkpt lat="35.6945630" lon="128.5210310">
    <ele>790</ele>
   </trkpt>
   <trkpt lat="35.6945210" lon="128.5209230">
    <ele>786</ele>
   </trkpt>
   <trkpt lat="35.6945430" lon="128.5205900">
    <ele>782</ele>
   </trkpt>
   <trkpt lat="35.6945260" lon="128.5204730">
    <ele>778</ele>
   </trkpt>
   <trkpt lat="35.6944400" lon="128.5202450">
    <ele>775</ele>
   </trkpt>
   <trkpt lat="35.6942030" lon="128.5199040">
    <ele>771</ele>
   </trkpt>
   <trkpt lat="35.6941780" lon="128.5198590">
    <ele>767</ele>
   </trkpt>
   <trkpt lat="35.6941900" lon="128.5198110">
    <ele>763</ele>
   </trkpt>
   <trkpt lat="35.6940860" lon="128.5196540">
    <ele>759</ele>
   </trkpt>
   <trkpt lat="35.6939950" lon="128.5196760">
    <ele>755</ele>
   </trkpt>
   <trkpt lat="35.6939360" lon="128.5196560">
    <ele>752</ele>
   </trkpt>
   <trkpt lat="35.6938540" lon="128.5195960">
    <ele>748</ele>
   </trkpt>
   <trkpt lat="35.6937120" lon="128.5195910">
    <ele>744</ele>
   </trkpt>
   <trkpt lat="35.6936260" lon="128.5196190">
    <ele>740</ele>
   </trkpt>
   <trkpt lat="35.6935330" lon="128.5196230">
    <ele>736</ele>
   </trkpt>
   <trkpt lat="35.6934790" lon="128.5195699">
    <ele>732</ele>
   </trkpt>
   <trkpt lat="35.6935050" lon="128.5197450">
    <ele>728</ele>
   </trkpt>
   <trkpt lat="35.6934950" lon="128.5200989">
    <ele>724</ele>
   </trkpt>
   <trkpt lat="35.6934360" lon="128.5201280">
    <ele>720</ele>
   </trkpt>
   <trkpt lat="35.6933320" lon="128.5203040">
    <ele>716</ele>
   </trkpt>
   <trkpt lat="35.6932170" lon="128.5203700">
    <ele>712</ele>
   </trkpt>
   <trkpt lat="35.6931350" lon="128.5203480">
    <ele>708</ele>
   </trkpt>
   <trkpt lat="35.6930240" lon="128.5204040">
    <ele>703</ele>
   </trkpt>
   <trkpt lat="35.6929290" lon="128.5203760">
    <ele>699</ele>
   </trkpt>
   <trkpt lat="35.6928430" lon="128.5203930">
    <ele>695</ele>
   </trkpt>
   <trkpt lat="35.6927870" lon="128.5205070">
    <ele>691</ele>
   </trkpt>
   <trkpt lat="35.6926320" lon="128.5205690">
    <ele>687</ele>
   </trkpt>
   <trkpt lat="35.6925410" lon="128.5205379">
    <ele>683</ele>
   </trkpt>
   <trkpt lat="35.6924650" lon="128.5205630">
    <ele>678</ele>
   </trkpt>
   <trkpt lat="35.6924410" lon="128.5204770">
    <ele>674</ele>
   </trkpt>
   <trkpt lat="35.6923180" lon="128.5203570">
    <ele>670</ele>
   </trkpt>
   <trkpt lat="35.6920130" lon="128.5204590">
    <ele>666</ele>
   </trkpt>
   <trkpt lat="35.6917280" lon="128.5203490">
    <ele>662</ele>
   </trkpt>
   <trkpt lat="35.6913900" lon="128.5203730">
    <ele>658</ele>
   </trkpt>
   <trkpt lat="35.6913140" lon="128.5202909">
    <ele>654</ele>
   </trkpt>
   <trkpt lat="35.6911470" lon="128.5203160">
    <ele>650</ele>
   </trkpt>
   <trkpt lat="35.6910380" lon="128.5202720">
    <ele>646</ele>
   </trkpt>
   <trkpt lat="35.6910049" lon="128.5202950">
    <ele>642</ele>
   </trkpt>
   <trkpt lat="35.6908839" lon="128.5202720">
    <ele>638</ele>
   </trkpt>
   <trkpt lat="35.6908859" lon="128.5202693">
    <ele>634</ele>
   </trkpt>
   <trkpt lat="35.6908839" lon="128.5202720">
    <ele>630</ele>
   </trkpt>
   <trkpt lat="35.6908010" lon="128.5202560">
    <ele>626</ele>
   </trkpt>
   <trkpt lat="35.6906780" lon="128.5200630">
    <ele>623</ele>
   </trkpt>
   <trkpt lat="35.6906570" lon="128.5199210">
    <ele>619</ele>
   </trkpt>
   <trkpt lat="35.6906490" lon="128.5196039">
    <ele>615</ele>
   </trkpt>
   <trkpt lat="35.6906430" lon="128.5195310">
    <ele>612</ele>
   </trkpt>
   <trkpt lat="35.6905500" lon="128.5193280">
    <ele>608</ele>
   </trkpt>
   <trkpt lat="35.6905209" lon="128.5190630">
    <ele>605</ele>
   </trkpt>
   <trkpt lat="35.6904560" lon="128.5189820">
    <ele>601</ele>
   </trkpt>
   <trkpt lat="35.6902730" lon="128.5189180">
    <ele>598</ele>
   </trkpt>
   <trkpt lat="35.6901540" lon="128.5187390">
    <ele>594</ele>
   </trkpt>
   <trkpt lat="35.6901250" lon="128.5184870">
    <ele>591</ele>
   </trkpt>
   <trkpt lat="35.6901730" lon="128.5182010">
    <ele>588</ele>
   </trkpt>
   <trkpt lat="35.6901770" lon="128.5181770">
    <ele>584</ele>
   </trkpt>
   <trkpt lat="35.6901250" lon="128.5179440">
    <ele>581</ele>
   </trkpt>
   <trkpt lat="35.6900830" lon="128.5177100">
    <ele>578</ele>
   </trkpt>
   <trkpt lat="35.6900340" lon="128.5175430">
    <ele>574</ele>
   </trkpt>
   <trkpt lat="35.6899650" lon="128.5171880">
    <ele>571</ele>
   </trkpt>
   <trkpt lat="35.6898510" lon="128.5169510">
    <ele>568</ele>
   </trkpt>
   <trkpt lat="35.6897850" lon="128.5167480">
    <ele>564</ele>
   </trkpt>
   <trkpt lat="35.6897450" lon="128.5163930">
    <ele>561</ele>
   </trkpt>
   <trkpt lat="35.6896400" lon="128.5159770">
    <ele>558</ele>
   </trkpt>
   <trkpt lat="35.6896410" lon="128.5157280">
    <ele>554</ele>
   </trkpt>
   <trkpt lat="35.6895730" lon="128.5155820">
    <ele>551</ele>
   </trkpt>
   <trkpt lat="35.6895079" lon="128.5153540">
    <ele>548</ele>
   </trkpt>
   <trkpt lat="35.6894920" lon="128.5151150">
    <ele>544</ele>
   </trkpt>
   <trkpt lat="35.6895510" lon="128.5147370">
    <ele>541</ele>
   </trkpt>
   <trkpt lat="35.6895580" lon="128.5146110">
    <ele>538</ele>
   </trkpt>
   <trkpt lat="35.6895180" lon="128.5145180">
    <ele>535</ele>
   </trkpt>
   <trkpt lat="35.6894200" lon="128.5143809">
    <ele>531</ele>
   </trkpt>
   <trkpt lat="35.6893950" lon="128.5142080">
    <ele>528</ele>
   </trkpt>
   <trkpt lat="35.6894100" lon="128.5140130">
    <ele>525</ele>
   </trkpt>
   <trkpt lat="35.6894430" lon="128.5138270">
    <ele>522</ele>
   </trkpt>
   <trkpt lat="35.6895610" lon="128.5136160">
    <ele>519</ele>
   </trkpt>
   <trkpt lat="35.6895580" lon="128.5134550">
    <ele>516</ele>
   </trkpt>
   <trkpt lat="35.6896090" lon="128.5133600">
    <ele>513</ele>
   </trkpt>
   <trkpt lat="35.6897080" lon="128.5131730">
    <ele>510</ele>
   </trkpt>
   <trkpt lat="35.6897260" lon="128.5130160">
    <ele>507</ele>
   </trkpt>
   <trkpt lat="35.6898490" lon="128.5125880">
    <ele>504</ele>
   </trkpt>
   <trkpt lat="35.6898930" lon="128.5125119">
    <ele>501</ele>
   </trkpt>
   <trkpt lat="35.6900430" lon="128.5122570">
    <ele>498</ele>
   </trkpt>
   <trkpt lat="35.6901350" lon="128.5119260">
    <ele>495</ele>
   </trkpt>
   <trkpt lat="35.6903390" lon="128.5115830">
    <ele>493</ele>
   </trkpt>
   <trkpt lat="35.6904360" lon="128.5113460">
    <ele>490</ele>
   </trkpt>
   <trkpt lat="35.6906810" lon="128.5107490">
    <ele>487</ele>
   </trkpt>
   <trkpt lat="35.6907680" lon="128.5105390">
    <ele>485</ele>
   </trkpt>
   <trkpt lat="35.6908890" lon="128.5101080">
    <ele>482</ele>
   </trkpt>
   <trkpt lat="35.6910240" lon="128.5099270">
    <ele>480</ele>
   </trkpt>
   <trkpt lat="35.6910590" lon="128.5098810">
    <ele>478</ele>
   </trkpt>
   <trkpt lat="35.6909360" lon="128.5097649">
    <ele>476</ele>
   </trkpt>
   <trkpt lat="35.6908730" lon="128.5096740">
    <ele>474</ele>
   </trkpt>
   <trkpt lat="35.6908750" lon="128.5095849">
    <ele>472</ele>
   </trkpt>
   <trkpt lat="35.6910120" lon="128.5092980">
    <ele>470</ele>
   </trkpt>
   <trkpt lat="35.6910470" lon="128.5090410">
    <ele>469</ele>
   </trkpt>
   <trkpt lat="35.6911650" lon="128.5088480">
    <ele>467</ele>
   </trkpt>
   <trkpt lat="35.6912870" lon="128.5085039">
    <ele>466</ele>
   </trkpt>
   <trkpt lat="35.6913190" lon="128.5082660">
    <ele>464</ele>
   </trkpt>
   <trkpt lat="35.6914370" lon="128.5079280">
    <ele>463</ele>
   </trkpt>
   <trkpt lat="35.6915700" lon="128.5077560">
    <ele>462</ele>
   </trkpt>
   <trkpt lat="35.6916570" lon="128.5076760">
    <ele>460</ele>
   </trkpt>
   <trkpt lat="35.6917910" lon="128.5076220">
    <ele>459</ele>
   </trkpt>
   <trkpt lat="35.6918710" lon="128.5074520">
    <ele>459</ele>
   </trkpt>
   <trkpt lat="35.6920020" lon="128.5073290">
    <ele>458</ele>
   </trkpt>
   <trkpt lat="35.6921810" lon="128.5072610">
    <ele>457</ele>
   </trkpt>
   <trkpt lat="35.6923860" lon="128.5072170">
    <ele>456</ele>
   </trkpt>
   <trkpt lat="35.6925740" lon="128.5071300">
    <ele>456</ele>
   </trkpt>
   <trkpt lat="35.6926970" lon="128.5070210">
    <ele>455</ele>
   </trkpt>
   <trkpt lat="35.6927940" lon="128.5069870">
    <ele>455</ele>
   </trkpt>
   <trkpt lat="35.6931579" lon="128.5069480">
    <ele>454</ele>
   </trkpt>
   <trkpt lat="35.6932350" lon="128.5069120">
    <ele>454</ele>
   </trkpt>
   <trkpt lat="35.6932910" lon="128.5068600">
    <ele>453</ele>
   </trkpt>
   <trkpt lat="35.6932350" lon="128.5066830">
    <ele>453</ele>
   </trkpt>
   <trkpt lat="35.6931579" lon="128.5064990">
    <ele>452</ele>
   </trkpt>
   <trkpt lat="35.6930710" lon="128.5064100">
    <ele>452</ele>
   </trkpt>
   <trkpt lat="35.6930991" lon="128.5063719">
    <ele>452</ele>
   </trkpt>
  </trkseg>
 </trk>
</gpx>
