<?xml version="1.0"?>
<gpx xmlns="http://www.topografix.com/GPX/1/1" xmlns:xsi="http://www.w3.org/2001/XMLSchema-instance" version="1.1" creator="AllTrails.com" xsi:schemaLocation="http://www.topografix.com/GPX/1/1 http://www.topografix.com/GPX/1/1/gpx.xsd">
  <metadata>
    <name><![CDATA[힐링코스(16k)]]></name>
    <desc><![CDATA[]]></desc>
    <link href="http://www.alltrails.com">
      <text>AllTrails, LLC</text>
    </link>
    <bounds minlat="35.13558" minlon="126.92983" maxlat="35.15897" maxlon="126.96966"/>
  </metadata>
  <wpt lat="35.155572" lon="126.969074">
    <name><![CDATA[CP1]]></name>
    <desc><![CDATA[]]></desc>
  </wpt>
  <trk>
    <name><![CDATA[힐링코스(16k)]]></name>
    <src>AllTrails</src>
    <trkseg>
      <trkpt lat="35.14341" lon="126.92983">
        <ele>55.05</ele>
      </trkpt>
      <trkpt lat="35.14341" lon="126.92983">
        <ele>55.05</ele>
      </trkpt>
      <trkpt lat="35.14348" lon="126.9304">
        <ele>58.19</ele>
      </trkpt>
      <trkpt lat="35.14351" lon="126.93068">
        <ele>58.8</ele>
      </trkpt>
      <trkpt lat="35.14351" lon="126.93071">
        <ele>58.73</ele>
      </trkpt>
      <trkpt lat="35.14351" lon="126.93071">
        <ele>58.73</ele>
      </trkpt>
      <trkpt lat="35.14352" lon="126.93089">
        <ele>58.83</ele>
      </trkpt>
      <trkpt lat="35.14351" lon="126.93111">
        <ele>59.27</ele>
      </trkpt>
      <trkpt lat="35.14351" lon="126.93111">
        <ele>59.27</ele>
      </trkpt>
      <trkpt lat="35.14349" lon="126.93153">
        <ele>60.64</ele>
      </trkpt>
      <trkpt lat="35.14349" lon="126.93153">
        <ele>60.64</ele>
      </trkpt>
      <trkpt lat="35.14349" lon="126.93154">
        <ele>60.67</ele>
      </trkpt>
      <trkpt lat="35.14251" lon="126.93168">
        <ele>61.98</ele>
      </trkpt>
      <trkpt lat="35.14251" lon="126.93168">
        <ele>61.98</ele>
      </trkpt>
      <trkpt lat="35.14095" lon="126.93189">
        <ele>65.46</ele>
      </trkpt>
      <trkpt lat="35.14033" lon="126.93199">
        <ele>63.22</ele>
      </trkpt>
      <trkpt lat="35.14015" lon="126.93199">
        <ele>63.2</ele>
      </trkpt>
      <trkpt lat="35.13963" lon="126.9321">
        <ele>71.85</ele>
      </trkpt>
      <trkpt lat="35.13918" lon="126.93216">
        <ele>74.35</ele>
      </trkpt>
      <trkpt lat="35.13855" lon="126.93237">
        <ele>74.52</ele>
      </trkpt>
      <trkpt lat="35.13832" lon="126.93245">
        <ele>78.62</ele>
      </trkpt>
      <trkpt lat="35.13815" lon="126.93247">
        <ele>82.96</ele>
      </trkpt>
      <trkpt lat="35.13798" lon="126.93245">
        <ele>89.27</ele>
      </trkpt>
      <trkpt lat="35.13744" lon="126.93212">
        <ele>101.32</ele>
      </trkpt>
      <trkpt lat="35.13744" lon="126.93212">
        <ele>101.32</ele>
      </trkpt>
      <trkpt lat="35.13721" lon="126.93199">
        <ele>99.55</ele>
      </trkpt>
      <trkpt lat="35.13716" lon="126.93189">
        <ele>97.81</ele>
      </trkpt>
      <trkpt lat="35.13716" lon="126.93189">
        <ele>97.81</ele>
      </trkpt>
      <trkpt lat="35.13713" lon="126.93185">
        <ele>97.09</ele>
      </trkpt>
      <trkpt lat="35.13711" lon="126.93169">
        <ele>94.9</ele>
      </trkpt>
      <trkpt lat="35.13706" lon="126.9312">
        <ele>91.62</ele>
      </trkpt>
      <trkpt lat="35.13596" lon="126.93096">
        <ele>81.5</ele>
      </trkpt>
      <trkpt lat="35.13587" lon="126.93101">
        <ele>78.03</ele>
      </trkpt>
      <trkpt lat="35.1358" lon="126.93117">
        <ele>75.26</ele>
      </trkpt>
      <trkpt lat="35.13568" lon="126.93152">
        <ele>74.37</ele>
      </trkpt>
      <trkpt lat="35.13561" lon="126.93186">
        <ele>73.19</ele>
      </trkpt>
      <trkpt lat="35.13558" lon="126.93209">
        <ele>74.62</ele>
      </trkpt>
      <trkpt lat="35.13578" lon="126.93214">
        <ele>79.33</ele>
      </trkpt>
      <trkpt lat="35.13608" lon="126.93219">
        <ele>87.09</ele>
      </trkpt>
      <trkpt lat="35.13615" lon="126.93221">
        <ele>88.53</ele>
      </trkpt>
      <trkpt lat="35.13622" lon="126.93225">
        <ele>89.62</ele>
      </trkpt>
      <trkpt lat="35.1364" lon="126.93204">
        <ele>92.82</ele>
      </trkpt>
      <trkpt lat="35.13659" lon="126.93209">
        <ele>95.37</ele>
      </trkpt>
      <trkpt lat="35.13678" lon="126.93207">
        <ele>97.1</ele>
      </trkpt>
      <trkpt lat="35.13692" lon="126.93203">
        <ele>97.53</ele>
      </trkpt>
      <trkpt lat="35.13702" lon="126.93196">
        <ele>97.69</ele>
      </trkpt>
      <trkpt lat="35.13708" lon="126.93205">
        <ele>99.11</ele>
      </trkpt>
      <trkpt lat="35.13707" lon="126.93209">
        <ele>99.43</ele>
      </trkpt>
      <trkpt lat="35.13707" lon="126.93209">
        <ele>99.43</ele>
      </trkpt>
      <trkpt lat="35.137" lon="126.9326">
        <ele>104.68</ele>
      </trkpt>
      <trkpt lat="35.137" lon="126.9326">
        <ele>104.68</ele>
      </trkpt>
      <trkpt lat="35.13692" lon="126.93326">
        <ele>114.93</ele>
      </trkpt>
      <trkpt lat="35.13683" lon="126.93356">
        <ele>123.23</ele>
      </trkpt>
      <trkpt lat="35.13679" lon="126.9338">
        <ele>128.06</ele>
      </trkpt>
      <trkpt lat="35.13684" lon="126.93389">
        <ele>128.06</ele>
      </trkpt>
      <trkpt lat="35.13688" lon="126.93412">
        <ele>137.23</ele>
      </trkpt>
      <trkpt lat="35.13688" lon="126.93412">
        <ele>137.23</ele>
      </trkpt>
      <trkpt lat="35.1369" lon="126.93428">
        <ele>144.93</ele>
      </trkpt>
      <trkpt lat="35.13705" lon="126.93468">
        <ele>159.88</ele>
      </trkpt>
      <trkpt lat="35.13723" lon="126.93497">
        <ele>165.89</ele>
      </trkpt>
      <trkpt lat="35.13745" lon="126.93525">
        <ele>164.54</ele>
      </trkpt>
      <trkpt lat="35.13767" lon="126.9355">
        <ele>161.19</ele>
      </trkpt>
      <trkpt lat="35.13802" lon="126.93585">
        <ele>157.14</ele>
      </trkpt>
      <trkpt lat="35.13816" lon="126.93604">
        <ele>153.43</ele>
      </trkpt>
      <trkpt lat="35.13833" lon="126.93646">
        <ele>153.77</ele>
      </trkpt>
      <trkpt lat="35.13866" lon="126.9368">
        <ele>148.0</ele>
      </trkpt>
      <trkpt lat="35.13892" lon="126.93697">
        <ele>142.54</ele>
      </trkpt>
      <trkpt lat="35.13913" lon="126.93697">
        <ele>138.9</ele>
      </trkpt>
      <trkpt lat="35.13946" lon="126.93696">
        <ele>138.14</ele>
      </trkpt>
      <trkpt lat="35.13972" lon="126.93682">
        <ele>140.65</ele>
      </trkpt>
      <trkpt lat="35.14022" lon="126.9367">
        <ele>137.9</ele>
      </trkpt>
      <trkpt lat="35.14092" lon="126.93666">
        <ele>147.02</ele>
      </trkpt>
      <trkpt lat="35.14139" lon="126.93657">
        <ele>162.37</ele>
      </trkpt>
      <trkpt lat="35.14139" lon="126.93657">
        <ele>162.37</ele>
      </trkpt>
      <trkpt lat="35.14183" lon="126.93648">
        <ele>169.69</ele>
      </trkpt>
      <trkpt lat="35.14213" lon="126.9365">
        <ele>175.61</ele>
      </trkpt>
      <trkpt lat="35.14218" lon="126.93651">
        <ele>176.69</ele>
      </trkpt>
      <trkpt lat="35.14218" lon="126.93651">
        <ele>176.69</ele>
      </trkpt>
      <trkpt lat="35.14245" lon="126.93654">
        <ele>181.61</ele>
      </trkpt>
      <trkpt lat="35.14277" lon="126.9367">
        <ele>187.34</ele>
      </trkpt>
      <trkpt lat="35.14288" lon="126.93684">
        <ele>192.49</ele>
      </trkpt>
      <trkpt lat="35.14288" lon="126.93684">
        <ele>192.49</ele>
      </trkpt>
      <trkpt lat="35.14294" lon="126.93692">
        <ele>194.89</ele>
      </trkpt>
      <trkpt lat="35.14283" lon="126.93707">
        <ele>193.78</ele>
      </trkpt>
      <trkpt lat="35.14278" lon="126.93728">
        <ele>195.64</ele>
      </trkpt>
      <trkpt lat="35.14267" lon="126.93767">
        <ele>193.87</ele>
      </trkpt>
      <trkpt lat="35.1425" lon="126.938">
        <ele>186.8</ele>
      </trkpt>
      <trkpt lat="35.1425" lon="126.93815">
        <ele>186.32</ele>
      </trkpt>
      <trkpt lat="35.14264" lon="126.9388">
        <ele>175.71</ele>
      </trkpt>
      <trkpt lat="35.14264" lon="126.9388">
        <ele>175.71</ele>
      </trkpt>
      <trkpt lat="35.14265" lon="126.93893">
        <ele>172.04</ele>
      </trkpt>
      <trkpt lat="35.14257" lon="126.93904">
        <ele>171.52</ele>
      </trkpt>
      <trkpt lat="35.14252" lon="126.9391">
        <ele>171.33</ele>
      </trkpt>
      <trkpt lat="35.14252" lon="126.9391">
        <ele>171.33</ele>
      </trkpt>
      <trkpt lat="35.14225" lon="126.93941">
        <ele>174.17</ele>
      </trkpt>
      <trkpt lat="35.14152" lon="126.94018">
        <ele>200.99</ele>
      </trkpt>
      <trkpt lat="35.14143" lon="126.94035">
        <ele>207.42</ele>
      </trkpt>
      <trkpt lat="35.14137" lon="126.94056">
        <ele>211.51</ele>
      </trkpt>
      <trkpt lat="35.14135" lon="126.94121">
        <ele>212.05</ele>
      </trkpt>
      <trkpt lat="35.14137" lon="126.94141">
        <ele>213.66</ele>
      </trkpt>
      <trkpt lat="35.14147" lon="126.94172">
        <ele>215.01</ele>
      </trkpt>
      <trkpt lat="35.14164" lon="126.94216">
        <ele>218.79</ele>
      </trkpt>
      <trkpt lat="35.14182" lon="126.94268">
        <ele>212.28</ele>
      </trkpt>
      <trkpt lat="35.14189" lon="126.94292">
        <ele>208.13</ele>
      </trkpt>
      <trkpt lat="35.14187" lon="126.94313">
        <ele>204.1</ele>
      </trkpt>
      <trkpt lat="35.14174" lon="126.94381">
        <ele>199.98</ele>
      </trkpt>
      <trkpt lat="35.14174" lon="126.94398">
        <ele>199.35</ele>
      </trkpt>
      <trkpt lat="35.14181" lon="126.94476">
        <ele>205.58</ele>
      </trkpt>
      <trkpt lat="35.1418" lon="126.94491">
        <ele>208.5</ele>
      </trkpt>
      <trkpt lat="35.14174" lon="126.94517">
        <ele>216.64</ele>
      </trkpt>
      <trkpt lat="35.14162" lon="126.9453">
        <ele>221.59</ele>
      </trkpt>
      <trkpt lat="35.14159" lon="126.94557">
        <ele>230.38</ele>
      </trkpt>
      <trkpt lat="35.1415" lon="126.94571">
        <ele>233.94</ele>
      </trkpt>
      <trkpt lat="35.1414" lon="126.94583">
        <ele>237.0</ele>
      </trkpt>
      <trkpt lat="35.14104" lon="126.94612">
        <ele>244.54</ele>
      </trkpt>
      <trkpt lat="35.14063" lon="126.94627">
        <ele>256.6</ele>
      </trkpt>
      <trkpt lat="35.14028" lon="126.94627">
        <ele>257.58</ele>
      </trkpt>
      <trkpt lat="35.14019" lon="126.94652">
        <ele>262.15</ele>
      </trkpt>
      <trkpt lat="35.14005" lon="126.94739">
        <ele>252.02</ele>
      </trkpt>
      <trkpt lat="35.14005" lon="126.94739">
        <ele>252.02</ele>
      </trkpt>
      <trkpt lat="35.14005" lon="126.94741">
        <ele>251.77</ele>
      </trkpt>
      <trkpt lat="35.1403" lon="126.94741">
        <ele>260.64</ele>
      </trkpt>
      <trkpt lat="35.14051" lon="126.94719">
        <ele>272.69</ele>
      </trkpt>
      <trkpt lat="35.14064" lon="126.94727">
        <ele>274.66</ele>
      </trkpt>
      <trkpt lat="35.1408" lon="126.94738">
        <ele>276.74</ele>
      </trkpt>
      <trkpt lat="35.14114" lon="126.94735">
        <ele>280.34</ele>
      </trkpt>
      <trkpt lat="35.14149" lon="126.94726">
        <ele>290.88</ele>
      </trkpt>
      <trkpt lat="35.14177" lon="126.94735">
        <ele>294.38</ele>
      </trkpt>
      <trkpt lat="35.14198" lon="126.94752">
        <ele>296.31</ele>
      </trkpt>
      <trkpt lat="35.14222" lon="126.94767">
        <ele>291.72</ele>
      </trkpt>
      <trkpt lat="35.1426" lon="126.94774">
        <ele>297.39</ele>
      </trkpt>
      <trkpt lat="35.14334" lon="126.94783">
        <ele>312.02</ele>
      </trkpt>
      <trkpt lat="35.1435" lon="126.94789">
        <ele>320.65</ele>
      </trkpt>
      <trkpt lat="35.14356" lon="126.94809">
        <ele>328.05</ele>
      </trkpt>
      <trkpt lat="35.14374" lon="126.94855">
        <ele>324.26</ele>
      </trkpt>
      <trkpt lat="35.14384" lon="126.94868">
        <ele>329.53</ele>
      </trkpt>
      <trkpt lat="35.14405" lon="126.94886">
        <ele>327.0</ele>
      </trkpt>
      <trkpt lat="35.14435" lon="126.94907">
        <ele>326.64</ele>
      </trkpt>
      <trkpt lat="35.14435" lon="126.94907">
        <ele>326.64</ele>
      </trkpt>
      <trkpt lat="35.14444" lon="126.94911">
        <ele>327.53</ele>
      </trkpt>
      <trkpt lat="35.14444" lon="126.95014">
        <ele>312.54</ele>
      </trkpt>
      <trkpt lat="35.1444" lon="126.95101">
        <ele>319.41</ele>
      </trkpt>
      <trkpt lat="35.14434" lon="126.95121">
        <ele>323.93</ele>
      </trkpt>
      <trkpt lat="35.14422" lon="126.9515">
        <ele>325.8</ele>
      </trkpt>
      <trkpt lat="35.14436" lon="126.95167">
        <ele>330.89</ele>
      </trkpt>
      <trkpt lat="35.1444" lon="126.95178">
        <ele>332.63</ele>
      </trkpt>
      <trkpt lat="35.14448" lon="126.95191">
        <ele>334.06</ele>
      </trkpt>
      <trkpt lat="35.14461" lon="126.95209">
        <ele>332.96</ele>
      </trkpt>
      <trkpt lat="35.14462" lon="126.95221">
        <ele>333.65</ele>
      </trkpt>
      <trkpt lat="35.1447" lon="126.95226">
        <ele>333.42</ele>
      </trkpt>
      <trkpt lat="35.14476" lon="126.95238">
        <ele>332.74</ele>
      </trkpt>
      <trkpt lat="35.14477" lon="126.95255">
        <ele>333.9</ele>
      </trkpt>
      <trkpt lat="35.14481" lon="126.95259">
        <ele>333.11</ele>
      </trkpt>
      <trkpt lat="35.14485" lon="126.95297">
        <ele>336.26</ele>
      </trkpt>
      <trkpt lat="35.14487" lon="126.95302">
        <ele>336.48</ele>
      </trkpt>
      <trkpt lat="35.14489" lon="126.95311">
        <ele>336.71</ele>
      </trkpt>
      <trkpt lat="35.1449" lon="126.95321">
        <ele>336.91</ele>
      </trkpt>
      <trkpt lat="35.14499" lon="126.95334">
        <ele>337.85</ele>
      </trkpt>
      <trkpt lat="35.14504" lon="126.95348">
        <ele>335.72</ele>
      </trkpt>
      <trkpt lat="35.14515" lon="126.95357">
        <ele>333.88</ele>
      </trkpt>
      <trkpt lat="35.14531" lon="126.95359">
        <ele>331.75</ele>
      </trkpt>
      <trkpt lat="35.14538" lon="126.95362">
        <ele>329.69</ele>
      </trkpt>
      <trkpt lat="35.14556" lon="126.95374">
        <ele>324.78</ele>
      </trkpt>
      <trkpt lat="35.14553" lon="126.95394">
        <ele>326.78</ele>
      </trkpt>
      <trkpt lat="35.14574" lon="126.95404">
        <ele>322.2</ele>
      </trkpt>
      <trkpt lat="35.14579" lon="126.95398">
        <ele>319.89</ele>
      </trkpt>
      <trkpt lat="35.14584" lon="126.95385">
        <ele>316.57</ele>
      </trkpt>
      <trkpt lat="35.14593" lon="126.95379">
        <ele>315.44</ele>
      </trkpt>
      <trkpt lat="35.14604" lon="126.95382">
        <ele>315.52</ele>
      </trkpt>
      <trkpt lat="35.14637" lon="126.95398">
        <ele>305.81</ele>
      </trkpt>
      <trkpt lat="35.14649" lon="126.95403">
        <ele>301.13</ele>
      </trkpt>
      <trkpt lat="35.1466" lon="126.954">
        <ele>295.37</ele>
      </trkpt>
      <trkpt lat="35.147" lon="126.95383">
        <ele>287.74</ele>
      </trkpt>
      <trkpt lat="35.14715" lon="126.95374">
        <ele>287.51</ele>
      </trkpt>
      <trkpt lat="35.14713" lon="126.95372">
        <ele>287.82</ele>
      </trkpt>
      <trkpt lat="35.14713" lon="126.95372">
        <ele>287.82</ele>
      </trkpt>
      <trkpt lat="35.14715" lon="126.95374">
        <ele>287.51</ele>
      </trkpt>
      <trkpt lat="35.14739" lon="126.95369">
        <ele>290.62</ele>
      </trkpt>
      <trkpt lat="35.14765" lon="126.95375">
        <ele>293.35</ele>
      </trkpt>
      <trkpt lat="35.14785" lon="126.95396">
        <ele>295.74</ele>
      </trkpt>
      <trkpt lat="35.14817" lon="126.95418">
        <ele>296.15</ele>
      </trkpt>
      <trkpt lat="35.14834" lon="126.95432">
        <ele>297.19</ele>
      </trkpt>
      <trkpt lat="35.14846" lon="126.95445">
        <ele>295.59</ele>
      </trkpt>
      <trkpt lat="35.14863" lon="126.95455">
        <ele>291.55</ele>
      </trkpt>
      <trkpt lat="35.14877" lon="126.9546">
        <ele>292.1</ele>
      </trkpt>
      <trkpt lat="35.14885" lon="126.95472">
        <ele>295.08</ele>
      </trkpt>
      <trkpt lat="35.14898" lon="126.95469">
        <ele>294.84</ele>
      </trkpt>
      <trkpt lat="35.14908" lon="126.9547">
        <ele>295.9</ele>
      </trkpt>
      <trkpt lat="35.14924" lon="126.95494">
        <ele>295.74</ele>
      </trkpt>
      <trkpt lat="35.14988" lon="126.95524">
        <ele>292.62</ele>
      </trkpt>
      <trkpt lat="35.15038" lon="126.9554">
        <ele>299.34</ele>
      </trkpt>
      <trkpt lat="35.15054" lon="126.95539">
        <ele>301.22</ele>
      </trkpt>
      <trkpt lat="35.15062" lon="126.95545">
        <ele>301.68</ele>
      </trkpt>
      <trkpt lat="35.15089" lon="126.95563">
        <ele>302.14</ele>
      </trkpt>
      <trkpt lat="35.15096" lon="126.95566">
        <ele>301.7</ele>
      </trkpt>
      <trkpt lat="35.1511" lon="126.95568">
        <ele>301.23</ele>
      </trkpt>
      <trkpt lat="35.15142" lon="126.95558">
        <ele>297.74</ele>
      </trkpt>
      <trkpt lat="35.15172" lon="126.95555">
        <ele>299.6</ele>
      </trkpt>
      <trkpt lat="35.1518" lon="126.95558">
        <ele>299.95</ele>
      </trkpt>
      <trkpt lat="35.15193" lon="126.95559">
        <ele>301.22</ele>
      </trkpt>
      <trkpt lat="35.15197" lon="126.95557">
        <ele>301.19</ele>
      </trkpt>
      <trkpt lat="35.15204" lon="126.95548">
        <ele>300.2</ele>
      </trkpt>
      <trkpt lat="35.15218" lon="126.95527">
        <ele>296.35</ele>
      </trkpt>
      <trkpt lat="35.15224" lon="126.95509">
        <ele>294.7</ele>
      </trkpt>
      <trkpt lat="35.15227" lon="126.95489">
        <ele>294.19</ele>
      </trkpt>
      <trkpt lat="35.15233" lon="126.95462">
        <ele>290.71</ele>
      </trkpt>
      <trkpt lat="35.15244" lon="126.95442">
        <ele>282.85</ele>
      </trkpt>
      <trkpt lat="35.15247" lon="126.95431">
        <ele>281.19</ele>
      </trkpt>
      <trkpt lat="35.15253" lon="126.95418">
        <ele>280.1</ele>
      </trkpt>
      <trkpt lat="35.15261" lon="126.95408">
        <ele>282.57</ele>
      </trkpt>
      <trkpt lat="35.15262" lon="126.95397">
        <ele>282.77</ele>
      </trkpt>
      <trkpt lat="35.15274" lon="126.95371">
        <ele>289.61</ele>
      </trkpt>
      <trkpt lat="35.15293" lon="126.95334">
        <ele>299.34</ele>
      </trkpt>
      <trkpt lat="35.15318" lon="126.95278">
        <ele>307.94</ele>
      </trkpt>
      <trkpt lat="35.15318" lon="126.95266">
        <ele>307.92</ele>
      </trkpt>
      <trkpt lat="35.1534" lon="126.95223">
        <ele>302.84</ele>
      </trkpt>
      <trkpt lat="35.1536" lon="126.95194">
        <ele>295.08</ele>
      </trkpt>
      <trkpt lat="35.15367" lon="126.9519">
        <ele>293.52</ele>
      </trkpt>
      <trkpt lat="35.1537" lon="126.9518">
        <ele>291.95</ele>
      </trkpt>
      <trkpt lat="35.1538" lon="126.95169">
        <ele>290.81</ele>
      </trkpt>
      <trkpt lat="35.15389" lon="126.95154">
        <ele>290.53</ele>
      </trkpt>
      <trkpt lat="35.15395" lon="126.9515">
        <ele>289.92</ele>
      </trkpt>
      <trkpt lat="35.15399" lon="126.95142">
        <ele>289.63</ele>
      </trkpt>
      <trkpt lat="35.15412" lon="126.95121">
        <ele>295.39</ele>
      </trkpt>
      <trkpt lat="35.15417" lon="126.95079">
        <ele>314.62</ele>
      </trkpt>
      <trkpt lat="35.15418" lon="126.95018">
        <ele>351.13</ele>
      </trkpt>
      <trkpt lat="35.15428" lon="126.94995">
        <ele>354.16</ele>
      </trkpt>
      <trkpt lat="35.15435" lon="126.94935">
        <ele>360.24</ele>
      </trkpt>
      <trkpt lat="35.15433" lon="126.94912">
        <ele>358.73</ele>
      </trkpt>
      <trkpt lat="35.15433" lon="126.94912">
        <ele>358.73</ele>
      </trkpt>
      <trkpt lat="35.15432" lon="126.94898">
        <ele>358.53</ele>
      </trkpt>
      <trkpt lat="35.15415" lon="126.94864">
        <ele>357.35</ele>
      </trkpt>
      <trkpt lat="35.15404" lon="126.94847">
        <ele>352.93</ele>
      </trkpt>
      <trkpt lat="35.15426" lon="126.94806">
        <ele>341.43</ele>
      </trkpt>
      <trkpt lat="35.15453" lon="126.9476">
        <ele>321.6</ele>
      </trkpt>
      <trkpt lat="35.15488" lon="126.94713">
        <ele>311.21</ele>
      </trkpt>
      <trkpt lat="35.15501" lon="126.94701">
        <ele>308.27</ele>
      </trkpt>
      <trkpt lat="35.15513" lon="126.94679">
        <ele>308.37</ele>
      </trkpt>
      <trkpt lat="35.15533" lon="126.94618">
        <ele>309.49</ele>
      </trkpt>
      <trkpt lat="35.1555" lon="126.94592">
        <ele>306.3</ele>
      </trkpt>
      <trkpt lat="35.15566" lon="126.94578">
        <ele>298.23</ele>
      </trkpt>
      <trkpt lat="35.15617" lon="126.94575">
        <ele>276.41</ele>
      </trkpt>
      <trkpt lat="35.15637" lon="126.94579">
        <ele>267.56</ele>
      </trkpt>
      <trkpt lat="35.15637" lon="126.94579">
        <ele>267.56</ele>
      </trkpt>
      <trkpt lat="35.1564" lon="126.94579">
        <ele>265.87</ele>
      </trkpt>
      <trkpt lat="35.1564" lon="126.94594">
        <ele>267.63</ele>
      </trkpt>
      <trkpt lat="35.15633" lon="126.94608">
        <ele>272.74</ele>
      </trkpt>
      <trkpt lat="35.156" lon="126.94668">
        <ele>277.85</ele>
      </trkpt>
      <trkpt lat="35.15574" lon="126.94692">
        <ele>285.6</ele>
      </trkpt>
      <trkpt lat="35.15547" lon="126.94711">
        <ele>290.27</ele>
      </trkpt>
      <trkpt lat="35.15527" lon="126.94729">
        <ele>301.5</ele>
      </trkpt>
      <trkpt lat="35.15499" lon="126.94762">
        <ele>307.62</ele>
      </trkpt>
      <trkpt lat="35.1549" lon="126.94802">
        <ele>316.6</ele>
      </trkpt>
      <trkpt lat="35.15497" lon="126.94832">
        <ele>314.06</ele>
      </trkpt>
      <trkpt lat="35.15523" lon="126.94902">
        <ele>323.31</ele>
      </trkpt>
      <trkpt lat="35.15522" lon="126.94933">
        <ele>327.44</ele>
      </trkpt>
      <trkpt lat="35.15515" lon="126.95011">
        <ele>320.53</ele>
      </trkpt>
      <trkpt lat="35.1551" lon="126.95039">
        <ele>317.39</ele>
      </trkpt>
      <trkpt lat="35.1551" lon="126.95038">
        <ele>317.76</ele>
      </trkpt>
      <trkpt lat="35.1551" lon="126.95038">
        <ele>317.76</ele>
      </trkpt>
      <trkpt lat="35.15538" lon="126.95055">
        <ele>311.33</ele>
      </trkpt>
      <trkpt lat="35.15566" lon="126.95077">
        <ele>302.65</ele>
      </trkpt>
      <trkpt lat="35.15575" lon="126.95095">
        <ele>298.13</ele>
      </trkpt>
      <trkpt lat="35.15584" lon="126.95158">
        <ele>285.16</ele>
      </trkpt>
      <trkpt lat="35.15591" lon="126.95205">
        <ele>271.82</ele>
      </trkpt>
      <trkpt lat="35.15603" lon="126.95261">
        <ele>261.44</ele>
      </trkpt>
      <trkpt lat="35.15622" lon="126.95315">
        <ele>256.79</ele>
      </trkpt>
      <trkpt lat="35.15638" lon="126.95341">
        <ele>254.4</ele>
      </trkpt>
      <trkpt lat="35.15679" lon="126.95397">
        <ele>254.46</ele>
      </trkpt>
      <trkpt lat="35.15703" lon="126.95423">
        <ele>245.62</ele>
      </trkpt>
      <trkpt lat="35.1572" lon="126.95432">
        <ele>238.08</ele>
      </trkpt>
      <trkpt lat="35.15752" lon="126.95431">
        <ele>233.94</ele>
      </trkpt>
      <trkpt lat="35.15803" lon="126.95439">
        <ele>239.75</ele>
      </trkpt>
      <trkpt lat="35.15831" lon="126.95442">
        <ele>248.18</ele>
      </trkpt>
      <trkpt lat="35.15848" lon="126.95449">
        <ele>250.39</ele>
      </trkpt>
      <trkpt lat="35.15866" lon="126.95472">
        <ele>252.74</ele>
      </trkpt>
      <trkpt lat="35.15892" lon="126.95529">
        <ele>254.75</ele>
      </trkpt>
      <trkpt lat="35.15897" lon="126.95568">
        <ele>260.04</ele>
      </trkpt>
      <trkpt lat="35.15897" lon="126.95607">
        <ele>254.8</ele>
      </trkpt>
      <trkpt lat="35.15896" lon="126.9564">
        <ele>251.72</ele>
      </trkpt>
      <trkpt lat="35.1588" lon="126.95668">
        <ele>246.54</ele>
      </trkpt>
      <trkpt lat="35.15853" lon="126.95696">
        <ele>240.36</ele>
      </trkpt>
      <trkpt lat="35.15839" lon="126.95741">
        <ele>236.56</ele>
      </trkpt>
      <trkpt lat="35.15824" lon="126.95799">
        <ele>217.52</ele>
      </trkpt>
      <trkpt lat="35.15831" lon="126.95858">
        <ele>202.34</ele>
      </trkpt>
      <trkpt lat="35.15839" lon="126.95921">
        <ele>192.26</ele>
      </trkpt>
      <trkpt lat="35.15843" lon="126.95965">
        <ele>190.69</ele>
      </trkpt>
      <trkpt lat="35.1584" lon="126.95983">
        <ele>188.27</ele>
      </trkpt>
      <trkpt lat="35.15819" lon="126.96012">
        <ele>181.77</ele>
      </trkpt>
      <trkpt lat="35.15809" lon="126.96043">
        <ele>174.8</ele>
      </trkpt>
      <trkpt lat="35.15801" lon="126.96056">
        <ele>172.72</ele>
      </trkpt>
      <trkpt lat="35.15762" lon="126.96067">
        <ele>161.93</ele>
      </trkpt>
      <trkpt lat="35.15746" lon="126.96079">
        <ele>150.59</ele>
      </trkpt>
      <trkpt lat="35.1573" lon="126.96098">
        <ele>138.81</ele>
      </trkpt>
      <trkpt lat="35.15735" lon="126.96119">
        <ele>132.82</ele>
      </trkpt>
      <trkpt lat="35.15748" lon="126.96122">
        <ele>135.0</ele>
      </trkpt>
      <trkpt lat="35.15746" lon="126.96143">
        <ele>128.14</ele>
      </trkpt>
      <trkpt lat="35.15744" lon="126.96142">
        <ele>127.97</ele>
      </trkpt>
      <trkpt lat="35.15744" lon="126.96142">
        <ele>127.97</ele>
      </trkpt>
      <trkpt lat="35.15784" lon="126.96156">
        <ele>122.33</ele>
      </trkpt>
      <trkpt lat="35.15805" lon="126.9616">
        <ele>123.33</ele>
      </trkpt>
      <trkpt lat="35.15823" lon="126.96159">
        <ele>127.35</ele>
      </trkpt>
      <trkpt lat="35.15835" lon="126.96161">
        <ele>129.53</ele>
      </trkpt>
      <trkpt lat="35.15837" lon="126.96164">
        <ele>129.42</ele>
      </trkpt>
      <trkpt lat="35.15837" lon="126.9618">
        <ele>127.6</ele>
      </trkpt>
      <trkpt lat="35.15818" lon="126.96193">
        <ele>126.93</ele>
      </trkpt>
      <trkpt lat="35.15815" lon="126.96197">
        <ele>127.2</ele>
      </trkpt>
      <trkpt lat="35.15815" lon="126.96206">
        <ele>126.78</ele>
      </trkpt>
      <trkpt lat="35.15818" lon="126.96215">
        <ele>126.54</ele>
      </trkpt>
      <trkpt lat="35.15856" lon="126.96232">
        <ele>130.82</ele>
      </trkpt>
      <trkpt lat="35.15857" lon="126.96238">
        <ele>130.61</ele>
      </trkpt>
      <trkpt lat="35.15874" lon="126.96245">
        <ele>131.63</ele>
      </trkpt>
      <trkpt lat="35.15879" lon="126.96264">
        <ele>133.4</ele>
      </trkpt>
      <trkpt lat="35.15879" lon="126.96284">
        <ele>135.21</ele>
      </trkpt>
      <trkpt lat="35.15894" lon="126.96328">
        <ele>144.88</ele>
      </trkpt>
      <trkpt lat="35.15894" lon="126.96328">
        <ele>144.88</ele>
      </trkpt>
      <trkpt lat="35.15895" lon="126.9633">
        <ele>145.55</ele>
      </trkpt>
      <trkpt lat="35.15868" lon="126.9634">
        <ele>145.54</ele>
      </trkpt>
      <trkpt lat="35.15839" lon="126.96337">
        <ele>145.09</ele>
      </trkpt>
      <trkpt lat="35.15822" lon="126.96342">
        <ele>148.45</ele>
      </trkpt>
      <trkpt lat="35.15785" lon="126.96337">
        <ele>153.42</ele>
      </trkpt>
      <trkpt lat="35.15721" lon="126.96323">
        <ele>162.95</ele>
      </trkpt>
      <trkpt lat="35.15691" lon="126.96321">
        <ele>167.59</ele>
      </trkpt>
      <trkpt lat="35.15671" lon="126.96325">
        <ele>169.46</ele>
      </trkpt>
      <trkpt lat="35.15649" lon="126.96339">
        <ele>171.0</ele>
      </trkpt>
      <trkpt lat="35.15606" lon="126.96369">
        <ele>167.98</ele>
      </trkpt>
      <trkpt lat="35.15586" lon="126.96396">
        <ele>166.99</ele>
      </trkpt>
      <trkpt lat="35.15569" lon="126.96437">
        <ele>165.84</ele>
      </trkpt>
      <trkpt lat="35.15563" lon="126.96486">
        <ele>162.91</ele>
      </trkpt>
      <trkpt lat="35.15568" lon="126.96505">
        <ele>164.49</ele>
      </trkpt>
      <trkpt lat="35.15578" lon="126.96528">
        <ele>167.5</ele>
      </trkpt>
      <trkpt lat="35.15581" lon="126.9654">
        <ele>168.83</ele>
      </trkpt>
      <trkpt lat="35.1558" lon="126.96563">
        <ele>169.51</ele>
      </trkpt>
      <trkpt lat="35.15575" lon="126.96579">
        <ele>169.47</ele>
      </trkpt>
      <trkpt lat="35.15546" lon="126.96652">
        <ele>162.9</ele>
      </trkpt>
      <trkpt lat="35.15539" lon="126.96668">
        <ele>163.61</ele>
      </trkpt>
      <trkpt lat="35.15541" lon="126.96677">
        <ele>165.39</ele>
      </trkpt>
      <trkpt lat="35.1556" lon="126.96696">
        <ele>173.02</ele>
      </trkpt>
      <trkpt lat="35.15568" lon="126.96706">
        <ele>176.5</ele>
      </trkpt>
      <trkpt lat="35.15568" lon="126.96721">
        <ele>175.49</ele>
      </trkpt>
      <trkpt lat="35.15564" lon="126.96742">
        <ele>176.16</ele>
      </trkpt>
      <trkpt lat="35.15554" lon="126.96769">
        <ele>179.08</ele>
      </trkpt>
      <trkpt lat="35.15542" lon="126.96811">
        <ele>178.87</ele>
      </trkpt>
      <trkpt lat="35.1554" lon="126.9683">
        <ele>180.28</ele>
      </trkpt>
      <trkpt lat="35.15541" lon="126.96867">
        <ele>180.79</ele>
      </trkpt>
      <trkpt lat="35.1555" lon="126.96897">
        <ele>181.98</ele>
      </trkpt>
      <trkpt lat="35.1555" lon="126.96897">
        <ele>181.98</ele>
      </trkpt>
      <trkpt lat="35.15555" lon="126.96898">
        <ele>183.81</ele>
      </trkpt>
      <trkpt lat="35.15555" lon="126.96899">
        <ele>183.49</ele>
      </trkpt>
      <trkpt lat="35.15555" lon="126.96899">
        <ele>183.49</ele>
      </trkpt>
      <trkpt lat="35.15554" lon="126.96899">
        <ele>183.08</ele>
      </trkpt>
      <trkpt lat="35.15552" lon="126.96899">
        <ele>182.26</ele>
      </trkpt>
      <trkpt lat="35.1555" lon="126.969">
        <ele>181.16</ele>
      </trkpt>
      <trkpt lat="35.15549" lon="126.969">
        <ele>180.76</ele>
      </trkpt>
      <trkpt lat="35.15548" lon="126.969">
        <ele>180.35</ele>
      </trkpt>
      <trkpt lat="35.15546" lon="126.96901">
        <ele>179.31</ele>
      </trkpt>
      <trkpt lat="35.15545" lon="126.96901">
        <ele>178.92</ele>
      </trkpt>
      <trkpt lat="35.15544" lon="126.96901">
        <ele>178.52</ele>
      </trkpt>
      <trkpt lat="35.15543" lon="126.96902">
        <ele>177.92</ele>
      </trkpt>
      <trkpt lat="35.15542" lon="126.96902">
        <ele>177.53</ele>
      </trkpt>
      <trkpt lat="35.15541" lon="126.96902">
        <ele>177.15</ele>
      </trkpt>
      <trkpt lat="35.15541" lon="126.96903">
        <ele>176.96</ele>
      </trkpt>
      <trkpt lat="35.1554" lon="126.96903">
        <ele>176.58</ele>
      </trkpt>
      <trkpt lat="35.15539" lon="126.96903">
        <ele>176.2</ele>
      </trkpt>
      <trkpt lat="35.15538" lon="126.96904">
        <ele>175.66</ele>
      </trkpt>
      <trkpt lat="35.15536" lon="126.96905">
        <ele>174.78</ele>
      </trkpt>
      <trkpt lat="35.15534" lon="126.96905">
        <ele>174.07</ele>
      </trkpt>
      <trkpt lat="35.15532" lon="126.96905">
        <ele>173.35</ele>
      </trkpt>
      <trkpt lat="35.15531" lon="126.96906">
        <ele>172.89</ele>
      </trkpt>
      <trkpt lat="35.1553" lon="126.96906">
        <ele>172.54</ele>
      </trkpt>
      <trkpt lat="35.15528" lon="126.96906">
        <ele>171.85</ele>
      </trkpt>
      <trkpt lat="35.15526" lon="126.96906">
        <ele>171.35</ele>
      </trkpt>
      <trkpt lat="35.15526" lon="126.96906">
        <ele>171.35</ele>
      </trkpt>
      <trkpt lat="35.15525" lon="126.96906">
        <ele>171.12</ele>
      </trkpt>
      <trkpt lat="35.15523" lon="126.96909">
        <ele>170.61</ele>
      </trkpt>
      <trkpt lat="35.15522" lon="126.96909">
        <ele>170.41</ele>
      </trkpt>
      <trkpt lat="35.1552" lon="126.96909">
        <ele>170.02</ele>
      </trkpt>
      <trkpt lat="35.1552" lon="126.96909">
        <ele>170.02</ele>
      </trkpt>
      <trkpt lat="35.15519" lon="126.96909">
        <ele>169.82</ele>
      </trkpt>
      <trkpt lat="35.15518" lon="126.96909">
        <ele>169.62</ele>
      </trkpt>
      <trkpt lat="35.15516" lon="126.9691">
        <ele>169.29</ele>
      </trkpt>
      <trkpt lat="35.15514" lon="126.9691">
        <ele>168.92</ele>
      </trkpt>
      <trkpt lat="35.15514" lon="126.9691">
        <ele>168.92</ele>
      </trkpt>
      <trkpt lat="35.15512" lon="126.96911">
        <ele>168.66</ele>
      </trkpt>
      <trkpt lat="35.15511" lon="126.96911">
        <ele>168.49</ele>
      </trkpt>
      <trkpt lat="35.1551" lon="126.96912">
        <ele>168.45</ele>
      </trkpt>
      <trkpt lat="35.15509" lon="126.96912">
        <ele>168.29</ele>
      </trkpt>
      <trkpt lat="35.15508" lon="126.96913">
        <ele>168.28</ele>
      </trkpt>
      <trkpt lat="35.15508" lon="126.96913">
        <ele>168.28</ele>
      </trkpt>
      <trkpt lat="35.15506" lon="126.96913">
        <ele>167.98</ele>
      </trkpt>
      <trkpt lat="35.15506" lon="126.96914">
        <ele>168.16</ele>
      </trkpt>
      <trkpt lat="35.15504" lon="126.96915">
        <ele>168.09</ele>
      </trkpt>
      <trkpt lat="35.15503" lon="126.96915">
        <ele>167.96</ele>
      </trkpt>
      <trkpt lat="35.15502" lon="126.96915">
        <ele>167.83</ele>
      </trkpt>
      <trkpt lat="35.15502" lon="126.96916">
        <ele>168.06</ele>
      </trkpt>
      <trkpt lat="35.15502" lon="126.96916">
        <ele>168.06</ele>
      </trkpt>
      <trkpt lat="35.15505" lon="126.96916">
        <ele>168.41</ele>
      </trkpt>
      <trkpt lat="35.15503" lon="126.96937">
        <ele>165.81</ele>
      </trkpt>
      <trkpt lat="35.155" lon="126.96948">
        <ele>165.13</ele>
      </trkpt>
      <trkpt lat="35.15497" lon="126.96952">
        <ele>165.52</ele>
      </trkpt>
      <trkpt lat="35.15492" lon="126.96955">
        <ele>166.07</ele>
      </trkpt>
      <trkpt lat="35.15492" lon="126.96955">
        <ele>166.07</ele>
      </trkpt>
      <trkpt lat="35.15492" lon="126.96955">
        <ele>166.07</ele>
      </trkpt>
      <trkpt lat="35.15492" lon="126.96955">
        <ele>166.07</ele>
      </trkpt>
      <trkpt lat="35.15492" lon="126.96955">
        <ele>166.07</ele>
      </trkpt>
      <trkpt lat="35.15472" lon="126.96957">
        <ele>167.88</ele>
      </trkpt>
      <trkpt lat="35.15415" lon="126.96966">
        <ele>165.47</ele>
      </trkpt>
      <trkpt lat="35.15397" lon="126.96966">
        <ele>161.08</ele>
      </trkpt>
      <trkpt lat="35.15354" lon="126.96956">
        <ele>158.65</ele>
      </trkpt>
      <trkpt lat="35.15259" lon="126.96932">
        <ele>169.16</ele>
      </trkpt>
      <trkpt lat="35.15245" lon="126.96933">
        <ele>171.46</ele>
      </trkpt>
      <trkpt lat="35.1524" lon="126.9694">
        <ele>172.34</ele>
      </trkpt>
      <trkpt lat="35.15239" lon="126.96937">
        <ele>172.15</ele>
      </trkpt>
      <trkpt lat="35.15239" lon="126.96937">
        <ele>172.15</ele>
      </trkpt>
      <trkpt lat="35.15235" lon="126.96918">
        <ele>170.66</ele>
      </trkpt>
      <trkpt lat="35.15223" lon="126.96898">
        <ele>166.94</ele>
      </trkpt>
      <trkpt lat="35.15156" lon="126.96874">
        <ele>170.65</ele>
      </trkpt>
      <trkpt lat="35.15091" lon="126.96896">
        <ele>170.46</ele>
      </trkpt>
      <trkpt lat="35.15091" lon="126.96896">
        <ele>170.46</ele>
      </trkpt>
      <trkpt lat="35.15072" lon="126.96887">
        <ele>169.05</ele>
      </trkpt>
      <trkpt lat="35.15057" lon="126.96883">
        <ele>168.26</ele>
      </trkpt>
      <trkpt lat="35.1505" lon="126.96884">
        <ele>169.51</ele>
      </trkpt>
      <trkpt lat="35.15044" lon="126.9689">
        <ele>171.05</ele>
      </trkpt>
      <trkpt lat="35.15028" lon="126.96911">
        <ele>174.98</ele>
      </trkpt>
      <trkpt lat="35.15018" lon="126.96914">
        <ele>176.31</ele>
      </trkpt>
      <trkpt lat="35.14965" lon="126.96916">
        <ele>179.07</ele>
      </trkpt>
      <trkpt lat="35.14955" lon="126.96915">
        <ele>181.83</ele>
      </trkpt>
      <trkpt lat="35.14937" lon="126.96907">
        <ele>185.74</ele>
      </trkpt>
      <trkpt lat="35.14924" lon="126.96905">
        <ele>189.02</ele>
      </trkpt>
      <trkpt lat="35.14908" lon="126.969">
        <ele>191.61</ele>
      </trkpt>
      <trkpt lat="35.14888" lon="126.96882">
        <ele>191.8</ele>
      </trkpt>
      <trkpt lat="35.14839" lon="126.96862">
        <ele>205.15</ele>
      </trkpt>
      <trkpt lat="35.14834" lon="126.96857">
        <ele>205.44</ele>
      </trkpt>
      <trkpt lat="35.14822" lon="126.96844">
        <ele>206.38</ele>
      </trkpt>
      <trkpt lat="35.14792" lon="126.96804">
        <ele>207.1</ele>
      </trkpt>
      <trkpt lat="35.14766" lon="126.96779">
        <ele>211.35</ele>
      </trkpt>
      <trkpt lat="35.14746" lon="126.96763">
        <ele>213.36</ele>
      </trkpt>
      <trkpt lat="35.14723" lon="126.96741">
        <ele>212.29</ele>
      </trkpt>
      <trkpt lat="35.14715" lon="126.96725">
        <ele>207.82</ele>
      </trkpt>
      <trkpt lat="35.14706" lon="126.96699">
        <ele>205.74</ele>
      </trkpt>
      <trkpt lat="35.14697" lon="126.96682">
        <ele>206.47</ele>
      </trkpt>
      <trkpt lat="35.14686" lon="126.96668">
        <ele>207.91</ele>
      </trkpt>
      <trkpt lat="35.14681" lon="126.96654">
        <ele>208.91</ele>
      </trkpt>
      <trkpt lat="35.14676" lon="126.96643">
        <ele>209.84</ele>
      </trkpt>
      <trkpt lat="35.14669" lon="126.96616">
        <ele>211.69</ele>
      </trkpt>
      <trkpt lat="35.14668" lon="126.96588">
        <ele>210.31</ele>
      </trkpt>
      <trkpt lat="35.14664" lon="126.96577">
        <ele>209.8</ele>
      </trkpt>
      <trkpt lat="35.14652" lon="126.96566">
        <ele>208.92</ele>
      </trkpt>
      <trkpt lat="35.14634" lon="126.96554">
        <ele>207.49</ele>
      </trkpt>
      <trkpt lat="35.14624" lon="126.96542">
        <ele>207.45</ele>
      </trkpt>
      <trkpt lat="35.14621" lon="126.96521">
        <ele>207.2</ele>
      </trkpt>
      <trkpt lat="35.14624" lon="126.96464">
        <ele>212.13</ele>
      </trkpt>
      <trkpt lat="35.14618" lon="126.96421">
        <ele>214.29</ele>
      </trkpt>
      <trkpt lat="35.14634" lon="126.96348">
        <ele>214.39</ele>
      </trkpt>
      <trkpt lat="35.14659" lon="126.96288">
        <ele>212.96</ele>
      </trkpt>
      <trkpt lat="35.14681" lon="126.96256">
        <ele>211.52</ele>
      </trkpt>
      <trkpt lat="35.14686" lon="126.96217">
        <ele>213.91</ele>
      </trkpt>
      <trkpt lat="35.14685" lon="126.96203">
        <ele>214.84</ele>
      </trkpt>
      <trkpt lat="35.14678" lon="126.96176">
        <ele>218.6</ele>
      </trkpt>
      <trkpt lat="35.14678" lon="126.96158">
        <ele>220.12</ele>
      </trkpt>
      <trkpt lat="35.14693" lon="126.96139">
        <ele>218.25</ele>
      </trkpt>
      <trkpt lat="35.147" lon="126.96104">
        <ele>221.52</ele>
      </trkpt>
      <trkpt lat="35.14714" lon="126.96085">
        <ele>222.03</ele>
      </trkpt>
      <trkpt lat="35.14716" lon="126.9606">
        <ele>225.72</ele>
      </trkpt>
      <trkpt lat="35.14713" lon="126.96047">
        <ele>228.1</ele>
      </trkpt>
      <trkpt lat="35.14705" lon="126.96024">
        <ele>231.27</ele>
      </trkpt>
      <trkpt lat="35.14699" lon="126.96002">
        <ele>233.42</ele>
      </trkpt>
      <trkpt lat="35.14687" lon="126.95965">
        <ele>233.29</ele>
      </trkpt>
      <trkpt lat="35.1468" lon="126.95941">
        <ele>235.75</ele>
      </trkpt>
      <trkpt lat="35.14631" lon="126.95869">
        <ele>236.67</ele>
      </trkpt>
      <trkpt lat="35.14631" lon="126.95869">
        <ele>236.67</ele>
      </trkpt>
      <trkpt lat="35.14609" lon="126.95833">
        <ele>228.01</ele>
      </trkpt>
      <trkpt lat="35.14597" lon="126.95823">
        <ele>227.62</ele>
      </trkpt>
      <trkpt lat="35.14561" lon="126.95815">
        <ele>227.87</ele>
      </trkpt>
      <trkpt lat="35.14536" lon="126.95803">
        <ele>233.63</ele>
      </trkpt>
      <trkpt lat="35.1452" lon="126.95799">
        <ele>235.9</ele>
      </trkpt>
      <trkpt lat="35.1452" lon="126.95791">
        <ele>236.31</ele>
      </trkpt>
      <trkpt lat="35.14517" lon="126.95784">
        <ele>236.73</ele>
      </trkpt>
      <trkpt lat="35.14504" lon="126.95769">
        <ele>237.77</ele>
      </trkpt>
      <trkpt lat="35.145" lon="126.95761">
        <ele>238.21</ele>
      </trkpt>
      <trkpt lat="35.14503" lon="126.95751">
        <ele>239.24</ele>
      </trkpt>
      <trkpt lat="35.14509" lon="126.95746">
        <ele>240.98</ele>
      </trkpt>
      <trkpt lat="35.14512" lon="126.95733">
        <ele>244.76</ele>
      </trkpt>
      <trkpt lat="35.14512" lon="126.95719">
        <ele>248.26</ele>
      </trkpt>
      <trkpt lat="35.14507" lon="126.95707">
        <ele>249.26</ele>
      </trkpt>
      <trkpt lat="35.14484" lon="126.9568">
        <ele>249.96</ele>
      </trkpt>
      <trkpt lat="35.1448" lon="126.95671">
        <ele>250.32</ele>
      </trkpt>
      <trkpt lat="35.14481" lon="126.95638">
        <ele>254.17</ele>
      </trkpt>
      <trkpt lat="35.14457" lon="126.95605">
        <ele>261.25</ele>
      </trkpt>
      <trkpt lat="35.14445" lon="126.95591">
        <ele>263.2</ele>
      </trkpt>
      <trkpt lat="35.14438" lon="126.95586">
        <ele>264.89</ele>
      </trkpt>
      <trkpt lat="35.14435" lon="126.95572">
        <ele>267.46</ele>
      </trkpt>
      <trkpt lat="35.14425" lon="126.95558">
        <ele>270.78</ele>
      </trkpt>
      <trkpt lat="35.14417" lon="126.95509">
        <ele>271.04</ele>
      </trkpt>
      <trkpt lat="35.14412" lon="126.95469">
        <ele>274.8</ele>
      </trkpt>
      <trkpt lat="35.14405" lon="126.95438">
        <ele>272.04</ele>
      </trkpt>
      <trkpt lat="35.14394" lon="126.95404">
        <ele>273.44</ele>
      </trkpt>
      <trkpt lat="35.14387" lon="126.95357">
        <ele>280.93</ele>
      </trkpt>
      <trkpt lat="35.1438" lon="126.9534">
        <ele>284.15</ele>
      </trkpt>
      <trkpt lat="35.1437" lon="126.95329">
        <ele>285.68</ele>
      </trkpt>
      <trkpt lat="35.14364" lon="126.95284">
        <ele>292.29</ele>
      </trkpt>
      <trkpt lat="35.14353" lon="126.95264">
        <ele>297.29</ele>
      </trkpt>
      <trkpt lat="35.14348" lon="126.95253">
        <ele>300.7</ele>
      </trkpt>
      <trkpt lat="35.14349" lon="126.95227">
        <ele>305.81</ele>
      </trkpt>
      <trkpt lat="35.14347" lon="126.95207">
        <ele>309.76</ele>
      </trkpt>
      <trkpt lat="35.14344" lon="126.95192">
        <ele>312.06</ele>
      </trkpt>
      <trkpt lat="35.14341" lon="126.95163">
        <ele>309.69</ele>
      </trkpt>
      <trkpt lat="35.14343" lon="126.9516">
        <ele>310.17</ele>
      </trkpt>
      <trkpt lat="35.14343" lon="126.9516">
        <ele>310.17</ele>
      </trkpt>
      <trkpt lat="35.14345" lon="126.95157">
        <ele>310.67</ele>
      </trkpt>
      <trkpt lat="35.14379" lon="126.95076">
        <ele>309.71</ele>
      </trkpt>
      <trkpt lat="35.14389" lon="126.95032">
        <ele>307.33</ele>
      </trkpt>
      <trkpt lat="35.14377" lon="126.94986">
        <ele>303.36</ele>
      </trkpt>
      <trkpt lat="35.14362" lon="126.94969">
        <ele>295.87</ele>
      </trkpt>
      <trkpt lat="35.14311" lon="126.94954">
        <ele>287.69</ele>
      </trkpt>
      <trkpt lat="35.14294" lon="126.94937">
        <ele>280.26</ele>
      </trkpt>
      <trkpt lat="35.14277" lon="126.94891">
        <ele>270.97</ele>
      </trkpt>
      <trkpt lat="35.14258" lon="126.94881">
        <ele>264.7</ele>
      </trkpt>
      <trkpt lat="35.14227" lon="126.94886">
        <ele>253.42</ele>
      </trkpt>
      <trkpt lat="35.14175" lon="126.94868">
        <ele>243.14</ele>
      </trkpt>
      <trkpt lat="35.14132" lon="126.94851">
        <ele>245.08</ele>
      </trkpt>
      <trkpt lat="35.14103" lon="126.94867">
        <ele>240.48</ele>
      </trkpt>
      <trkpt lat="35.14087" lon="126.94863">
        <ele>239.76</ele>
      </trkpt>
      <trkpt lat="35.14045" lon="126.94816">
        <ele>245.79</ele>
      </trkpt>
      <trkpt lat="35.14023" lon="126.94793">
        <ele>245.13</ele>
      </trkpt>
      <trkpt lat="35.13984" lon="126.94776">
        <ele>242.88</ele>
      </trkpt>
      <trkpt lat="35.13986" lon="126.94773">
        <ele>243.5</ele>
      </trkpt>
      <trkpt lat="35.13986" lon="126.94773">
        <ele>243.5</ele>
      </trkpt>
      <trkpt lat="35.13997" lon="126.94747">
        <ele>248.66</ele>
      </trkpt>
      <trkpt lat="35.14005" lon="126.94741">
        <ele>251.77</ele>
      </trkpt>
      <trkpt lat="35.14019" lon="126.94652">
        <ele>262.15</ele>
      </trkpt>
      <trkpt lat="35.14028" lon="126.94627">
        <ele>257.58</ele>
      </trkpt>
      <trkpt lat="35.14063" lon="126.94627">
        <ele>256.6</ele>
      </trkpt>
      <trkpt lat="35.14104" lon="126.94612">
        <ele>244.54</ele>
      </trkpt>
      <trkpt lat="35.1414" lon="126.94583">
        <ele>237.0</ele>
      </trkpt>
      <trkpt lat="35.1415" lon="126.94571">
        <ele>233.94</ele>
      </trkpt>
      <trkpt lat="35.14159" lon="126.94557">
        <ele>230.38</ele>
      </trkpt>
      <trkpt lat="35.14162" lon="126.9453">
        <ele>221.59</ele>
      </trkpt>
      <trkpt lat="35.14174" lon="126.94517">
        <ele>216.64</ele>
      </trkpt>
      <trkpt lat="35.1418" lon="126.94491">
        <ele>208.5</ele>
      </trkpt>
      <trkpt lat="35.14181" lon="126.94476">
        <ele>205.58</ele>
      </trkpt>
      <trkpt lat="35.14174" lon="126.94398">
        <ele>199.35</ele>
      </trkpt>
      <trkpt lat="35.14174" lon="126.94381">
        <ele>199.98</ele>
      </trkpt>
      <trkpt lat="35.14187" lon="126.94313">
        <ele>204.1</ele>
      </trkpt>
      <trkpt lat="35.14189" lon="126.94292">
        <ele>208.13</ele>
      </trkpt>
      <trkpt lat="35.14182" lon="126.94268">
        <ele>212.28</ele>
      </trkpt>
      <trkpt lat="35.14164" lon="126.94216">
        <ele>218.79</ele>
      </trkpt>
      <trkpt lat="35.14147" lon="126.94172">
        <ele>215.01</ele>
      </trkpt>
      <trkpt lat="35.14137" lon="126.94141">
        <ele>213.66</ele>
      </trkpt>
      <trkpt lat="35.14135" lon="126.94121">
        <ele>212.05</ele>
      </trkpt>
      <trkpt lat="35.14137" lon="126.94056">
        <ele>211.51</ele>
      </trkpt>
      <trkpt lat="35.14143" lon="126.94035">
        <ele>207.42</ele>
      </trkpt>
      <trkpt lat="35.14152" lon="126.94018">
        <ele>200.99</ele>
      </trkpt>
      <trkpt lat="35.14225" lon="126.93941">
        <ele>174.17</ele>
      </trkpt>
      <trkpt lat="35.14257" lon="126.93904">
        <ele>171.52</ele>
      </trkpt>
      <trkpt lat="35.14265" lon="126.93893">
        <ele>172.04</ele>
      </trkpt>
      <trkpt lat="35.14265" lon="126.93882">
        <ele>174.94</ele>
      </trkpt>
      <trkpt lat="35.1425" lon="126.93815">
        <ele>186.32</ele>
      </trkpt>
      <trkpt lat="35.1425" lon="126.938">
        <ele>186.8</ele>
      </trkpt>
      <trkpt lat="35.14267" lon="126.93767">
        <ele>193.87</ele>
      </trkpt>
      <trkpt lat="35.14278" lon="126.93728">
        <ele>195.64</ele>
      </trkpt>
      <trkpt lat="35.14283" lon="126.93707">
        <ele>193.78</ele>
      </trkpt>
      <trkpt lat="35.14294" lon="126.93692">
        <ele>194.89</ele>
      </trkpt>
      <trkpt lat="35.14289" lon="126.93684">
        <ele>192.78</ele>
      </trkpt>
      <trkpt lat="35.14277" lon="126.9367">
        <ele>187.34</ele>
      </trkpt>
      <trkpt lat="35.14245" lon="126.93654">
        <ele>181.61</ele>
      </trkpt>
      <trkpt lat="35.14213" lon="126.9365">
        <ele>175.61</ele>
      </trkpt>
      <trkpt lat="35.14183" lon="126.93648">
        <ele>169.69</ele>
      </trkpt>
      <trkpt lat="35.14098" lon="126.93665">
        <ele>149.92</ele>
      </trkpt>
      <trkpt lat="35.14098" lon="126.93665">
        <ele>149.92</ele>
      </trkpt>
      <trkpt lat="35.14092" lon="126.93666">
        <ele>147.02</ele>
      </trkpt>
      <trkpt lat="35.14022" lon="126.9367">
        <ele>137.9</ele>
      </trkpt>
      <trkpt lat="35.13972" lon="126.93682">
        <ele>140.65</ele>
      </trkpt>
      <trkpt lat="35.13946" lon="126.93696">
        <ele>138.14</ele>
      </trkpt>
      <trkpt lat="35.13913" lon="126.93697">
        <ele>138.9</ele>
      </trkpt>
      <trkpt lat="35.13892" lon="126.93697">
        <ele>142.54</ele>
      </trkpt>
      <trkpt lat="35.13866" lon="126.9368">
        <ele>148.0</ele>
      </trkpt>
      <trkpt lat="35.13833" lon="126.93646">
        <ele>153.77</ele>
      </trkpt>
      <trkpt lat="35.13816" lon="126.93604">
        <ele>153.43</ele>
      </trkpt>
      <trkpt lat="35.13802" lon="126.93585">
        <ele>157.14</ele>
      </trkpt>
      <trkpt lat="35.13767" lon="126.9355">
        <ele>161.19</ele>
      </trkpt>
      <trkpt lat="35.13745" lon="126.93525">
        <ele>164.54</ele>
      </trkpt>
      <trkpt lat="35.13723" lon="126.93497">
        <ele>165.89</ele>
      </trkpt>
      <trkpt lat="35.13705" lon="126.93468">
        <ele>159.88</ele>
      </trkpt>
      <trkpt lat="35.1369" lon="126.93428">
        <ele>144.93</ele>
      </trkpt>
      <trkpt lat="35.13684" lon="126.93389">
        <ele>128.06</ele>
      </trkpt>
      <trkpt lat="35.13679" lon="126.9338">
        <ele>128.06</ele>
      </trkpt>
      <trkpt lat="35.13683" lon="126.93356">
        <ele>123.23</ele>
      </trkpt>
      <trkpt lat="35.13692" lon="126.93326">
        <ele>114.93</ele>
      </trkpt>
      <trkpt lat="35.13708" lon="126.93205">
        <ele>99.11</ele>
      </trkpt>
      <trkpt lat="35.13702" lon="126.93196">
        <ele>97.69</ele>
      </trkpt>
      <trkpt lat="35.13692" lon="126.93203">
        <ele>97.53</ele>
      </trkpt>
      <trkpt lat="35.13678" lon="126.93207">
        <ele>97.1</ele>
      </trkpt>
      <trkpt lat="35.13659" lon="126.93209">
        <ele>95.37</ele>
      </trkpt>
      <trkpt lat="35.1364" lon="126.93204">
        <ele>92.82</ele>
      </trkpt>
      <trkpt lat="35.13631" lon="126.93214">
        <ele>90.99</ele>
      </trkpt>
      <trkpt lat="35.13631" lon="126.93214">
        <ele>90.99</ele>
      </trkpt>
      <trkpt lat="35.13622" lon="126.93225">
        <ele>89.62</ele>
      </trkpt>
      <trkpt lat="35.13615" lon="126.93221">
        <ele>88.53</ele>
      </trkpt>
      <trkpt lat="35.13608" lon="126.93219">
        <ele>87.09</ele>
      </trkpt>
      <trkpt lat="35.13578" lon="126.93214">
        <ele>79.33</ele>
      </trkpt>
      <trkpt lat="35.13558" lon="126.93209">
        <ele>74.62</ele>
      </trkpt>
      <trkpt lat="35.13561" lon="126.93186">
        <ele>73.19</ele>
      </trkpt>
      <trkpt lat="35.13568" lon="126.93152">
        <ele>74.37</ele>
      </trkpt>
      <trkpt lat="35.1358" lon="126.93117">
        <ele>75.26</ele>
      </trkpt>
      <trkpt lat="35.13587" lon="126.93101">
        <ele>78.03</ele>
      </trkpt>
      <trkpt lat="35.13596" lon="126.93096">
        <ele>81.5</ele>
      </trkpt>
      <trkpt lat="35.13706" lon="126.9312">
        <ele>91.62</ele>
      </trkpt>
      <trkpt lat="35.13711" lon="126.93169">
        <ele>94.9</ele>
      </trkpt>
      <trkpt lat="35.13713" lon="126.93185">
        <ele>97.09</ele>
      </trkpt>
      <trkpt lat="35.13721" lon="126.93199">
        <ele>99.55</ele>
      </trkpt>
      <trkpt lat="35.13798" lon="126.93245">
        <ele>89.27</ele>
      </trkpt>
      <trkpt lat="35.13815" lon="126.93247">
        <ele>82.96</ele>
      </trkpt>
      <trkpt lat="35.13832" lon="126.93245">
        <ele>78.62</ele>
      </trkpt>
      <trkpt lat="35.13855" lon="126.93237">
        <ele>74.52</ele>
      </trkpt>
      <trkpt lat="35.13918" lon="126.93216">
        <ele>74.35</ele>
      </trkpt>
      <trkpt lat="35.13963" lon="126.9321">
        <ele>71.85</ele>
      </trkpt>
      <trkpt lat="35.14015" lon="126.93199">
        <ele>63.2</ele>
      </trkpt>
      <trkpt lat="35.14033" lon="126.93199">
        <ele>63.22</ele>
      </trkpt>
      <trkpt lat="35.14095" lon="126.93189">
        <ele>65.46</ele>
      </trkpt>
      <trkpt lat="35.14286" lon="126.93163">
        <ele>58.89</ele>
      </trkpt>
    </trkseg>
  </trk>
</gpx>
