<?xml version="1.0" encoding="utf-8"?>
<gpx xmlns:xsd="http://www.w3.org/2001/XMLSchema" xmlns:xsi="http://www.w3.org/2001/XMLSchema-instance" version="1.1" creator="ROUTEEDITOR1" xmlns="http://www.topografix.com/GPX/1/1">
  <metadata>
    <desc>Created/Modified by using GPS Route Editor.</desc>
    <link href="http://www.gpsnote.net">
      <text>GpsNote.NET</text>
    </link>
  </metadata>
  <trk>
    <trkseg>
      <trkpt lat="37.6673039602193" lon="128.705912232399">
        <ele>731</ele>
      </trkpt>
      <trkpt lat="37.6667986458103" lon="128.70609998703">
        <ele>732</ele>
      </trkpt>
      <trkpt lat="37.6666075596332" lon="128.706169724464">
        <ele>732</ele>
      </trkpt>
      <trkpt lat="37.6663952410815" lon="128.706116080284">
        <ele>731</ele>
      </trkpt>
      <trkpt lat="37.666015625" lon="128.706298828125">
        <ele>736.0549</ele>
      </trkpt>
      <trkpt lat="37.6655502319336" lon="128.7060546875">
        <ele>735.4387</ele>
      </trkpt>
      <trkpt lat="37.6652679443359" lon="128.706893920898">
        <ele>734.4118</ele>
      </trkpt>
      <trkpt lat="37.6649703979492" lon="128.707046508789">
        <ele>731.02026</ele>
      </trkpt>
      <trkpt lat="37.6650199890137" lon="128.707489013672">
        <ele>731.4679</ele>
      </trkpt>
      <trkpt lat="37.6657943725586" lon="128.709457397461">
        <ele>731.331</ele>
      </trkpt>
      <trkpt lat="37.6654243469238" lon="128.709671020508">
        <ele>730.87805</ele>
      </trkpt>
      <trkpt lat="37.6653861999512" lon="128.709747314453">
        <ele>730.8887</ele>
      </trkpt>
      <trkpt lat="37.6653480529785" lon="128.709838867188">
        <ele>730.93604</ele>
      </trkpt>
      <trkpt lat="37.6652374267578" lon="128.710372924805">
        <ele>731.91034</ele>
      </trkpt>
      <trkpt lat="37.6652679443359" lon="128.711151123047">
        <ele>732.8424</ele>
      </trkpt>
      <trkpt lat="37.6648788452148" lon="128.712753295898">
        <ele>737.24506</ele>
      </trkpt>
      <trkpt lat="37.6640739440918" lon="128.713882446289">
        <ele>742.55347</ele>
      </trkpt>
      <trkpt lat="37.6628684997559" lon="128.714218139648">
        <ele>748.0989</ele>
      </trkpt>
      <trkpt lat="37.6621856689453" lon="128.714614868164">
        <ele>750.1264</ele>
      </trkpt>
      <trkpt lat="37.6617393493652" lon="128.714981079102">
        <ele>752.8175</ele>
      </trkpt>
      <trkpt lat="37.6611671447754" lon="128.715759277344">
        <ele>761.01184</ele>
      </trkpt>
      <trkpt lat="37.6603164672852" lon="128.71598815918">
        <ele>770.7071</ele>
      </trkpt>
      <trkpt lat="37.6597366333008" lon="128.716506958008">
        <ele>778.17993</ele>
      </trkpt>
      <trkpt lat="37.6585006713867" lon="128.717269897461">
        <ele>791.825</ele>
      </trkpt>
      <trkpt lat="37.6579780578613" lon="128.717712402344">
        <ele>796.42773</ele>
      </trkpt>
      <trkpt lat="37.6576194763184" lon="128.718215942383">
        <ele>797.9128</ele>
      </trkpt>
      <trkpt lat="37.6571273803711" lon="128.718048095703">
        <ele>805.25934</ele>
      </trkpt>
      <trkpt lat="37.6566162109375" lon="128.718322753906">
        <ele>816.07104</ele>
      </trkpt>
      <trkpt lat="37.6563186645508" lon="128.718780517578">
        <ele>830.98517</ele>
      </trkpt>
      <trkpt lat="37.6559562683105" lon="128.718811035156">
        <ele>843.18195</ele>
      </trkpt>
      <trkpt lat="37.6555633544922" lon="128.719085693359">
        <ele>856.5373</ele>
      </trkpt>
      <trkpt lat="37.6551895141602" lon="128.718307495117">
        <ele>875.00616</ele>
      </trkpt>
      <trkpt lat="37.654842376709" lon="128.718048095703">
        <ele>884.5013</ele>
      </trkpt>
      <trkpt lat="37.6544227600098" lon="128.71794128418">
        <ele>897.16144</ele>
      </trkpt>
      <trkpt lat="37.6539115905762" lon="128.718078613281">
        <ele>905.8246</ele>
      </trkpt>
      <trkpt lat="37.6537895202637" lon="128.717758178711">
        <ele>907.9364</ele>
      </trkpt>
      <trkpt lat="37.65380859375" lon="128.71728515625">
        <ele>918.1161</ele>
      </trkpt>
      <trkpt lat="37.6530456542969" lon="128.717987060547">
        <ele>946.22766</ele>
      </trkpt>
      <trkpt lat="37.6531753540039" lon="128.718475341797">
        <ele>963.638</ele>
      </trkpt>
      <trkpt lat="37.6530227661133" lon="128.719451904297">
        <ele>984.7085</ele>
      </trkpt>
      <trkpt lat="37.6522331237793" lon="128.719955444336">
        <ele>986.33575</ele>
      </trkpt>
      <trkpt lat="37.6516456604004" lon="128.722763061523">
        <ele>975.34503</ele>
      </trkpt>
      <trkpt lat="37.6514854431152" lon="128.722961425781">
        <ele>980.5323</ele>
      </trkpt>
      <trkpt lat="37.6507530212402" lon="128.72331237793">
        <ele>986.6306</ele>
      </trkpt>
      <trkpt lat="37.6500816345215" lon="128.724014282227">
        <ele>995.0146</ele>
      </trkpt>
      <trkpt lat="37.6499290466309" lon="128.724411010742">
        <ele>1002.3822</ele>
      </trkpt>
      <trkpt lat="37.6502075195313" lon="128.724868774414">
        <ele>1009.518</ele>
      </trkpt>
      <trkpt lat="37.6509323120117" lon="128.724868774414">
        <ele>1006.96387</ele>
      </trkpt>
      <trkpt lat="37.6508445739746" lon="128.725570678711">
        <ele>998.68524</ele>
      </trkpt>
      <trkpt lat="37.650951385498" lon="128.72607421875">
        <ele>988.1157</ele>
      </trkpt>
      <trkpt lat="37.6507453918457" lon="128.726760864258">
        <ele>990.53827</ele>
      </trkpt>
      <trkpt lat="37.6508598327637" lon="128.727142333984">
        <ele>996.52075</ele>
      </trkpt>
      <trkpt lat="37.6510162353516" lon="128.727157592773">
        <ele>998.9485</ele>
      </trkpt>
      <trkpt lat="37.6516036987305" lon="128.72639465332">
        <ele>997.6952</ele>
      </trkpt>
      <trkpt lat="37.6524238586426" lon="128.725708007812">
        <ele>995.7414</ele>
      </trkpt>
      <trkpt lat="37.6530838012695" lon="128.72575378418">
        <ele>981.79095</ele>
      </trkpt>
      <trkpt lat="37.6534461975098" lon="128.725631713867">
        <ele>981.338</ele>
      </trkpt>
      <trkpt lat="37.653678894043" lon="128.724960327148">
        <ele>985.5247</ele>
      </trkpt>
      <trkpt lat="37.6538467407227" lon="128.724792480469">
        <ele>987.2837</ele>
      </trkpt>
      <trkpt lat="37.6539993286133" lon="128.725311279297">
        <ele>985.9618</ele>
      </trkpt>
      <trkpt lat="37.6544647216797" lon="128.725708007812">
        <ele>980.1215</ele>
      </trkpt>
      <trkpt lat="37.6545906066895" lon="128.725982666016">
        <ele>977.4252</ele>
      </trkpt>
      <trkpt lat="37.6543045043945" lon="128.727340698242">
        <ele>966.7188</ele>
      </trkpt>
      <trkpt lat="37.6545944213867" lon="128.727462768555">
        <ele>970.5947</ele>
      </trkpt>
      <trkpt lat="37.6553802490234" lon="128.727416992188">
        <ele>974.19165</ele>
      </trkpt>
      <trkpt lat="37.6557464599609" lon="128.727966308594">
        <ele>968.1196</ele>
      </trkpt>
      <trkpt lat="37.6560516357422" lon="128.727798461914">
        <ele>970.579</ele>
      </trkpt>
      <trkpt lat="37.6562614440918" lon="128.726089477539">
        <ele>971.9008</ele>
      </trkpt>
      <trkpt lat="37.6567611694336" lon="128.724731445312">
        <ele>1001.5922</ele>
      </trkpt>
      <trkpt lat="37.6568145751953" lon="128.725189208984">
        <ele>1011.3981</ele>
      </trkpt>
      <trkpt lat="37.6572380065918" lon="128.725692749023">
        <ele>1002.5717</ele>
      </trkpt>
      <trkpt lat="37.6574554443359" lon="128.726303100586">
        <ele>1006.25287</ele>
      </trkpt>
      <trkpt lat="37.6577072143555" lon="128.726501464844">
        <ele>1004.9679</ele>
      </trkpt>
      <trkpt lat="37.6579971313477" lon="128.726318359375">
        <ele>1003.52496</ele>
      </trkpt>
      <trkpt lat="37.6582870483398" lon="128.726287841797">
        <ele>1000.07556</ele>
      </trkpt>
      <trkpt lat="37.6588554382324" lon="128.727447509766">
        <ele>984.3609</ele>
      </trkpt>
      <trkpt lat="37.6587944030762" lon="128.727966308594">
        <ele>980.4217</ele>
      </trkpt>
      <trkpt lat="37.658878326416" lon="128.728302001953">
        <ele>976.89325</ele>
      </trkpt>
      <trkpt lat="37.6593360900879" lon="128.728729248047">
        <ele>975.9716</ele>
      </trkpt>
      <trkpt lat="37.6592445373535" lon="128.729736328125">
        <ele>964.5543</ele>
      </trkpt>
      <trkpt lat="37.6593894958496" lon="128.730484008789">
        <ele>947.9076</ele>
      </trkpt>
      <trkpt lat="37.6593017578125" lon="128.730682373047">
        <ele>943.26794</ele>
      </trkpt>
      <trkpt lat="37.6596412658691" lon="128.730728149414">
        <ele>932.0086</ele>
      </trkpt>
      <trkpt lat="37.6599082946777" lon="128.730484008789">
        <ele>937.4277</ele>
      </trkpt>
      <trkpt lat="37.6604690551758" lon="128.730697631836">
        <ele>955.74384</ele>
      </trkpt>
      <trkpt lat="37.6606864929199" lon="128.730606079102">
        <ele>959.64087</ele>
      </trkpt>
      <trkpt lat="37.6609077453613" lon="128.731018066406">
        <ele>956.67065</ele>
      </trkpt>
      <trkpt lat="37.6617736816406" lon="128.731597900391">
        <ele>949.361</ele>
      </trkpt>
      <trkpt lat="37.6617088317871" lon="128.73258972168">
        <ele>928.18</ele>
      </trkpt>
      <trkpt lat="37.662296295166" lon="128.732528686523">
        <ele>911.2331</ele>
      </trkpt>
      <trkpt lat="37.6624565124512" lon="128.732376098633">
        <ele>908.2471</ele>
      </trkpt>
      <trkpt lat="37.6629371643066" lon="128.732330322266">
        <ele>901.76953</ele>
      </trkpt>
      <trkpt lat="37.6630935668945" lon="128.732162475586">
        <ele>899.5366</ele>
      </trkpt>
      <trkpt lat="37.6637687683105" lon="128.732315063477">
        <ele>905.9194</ele>
      </trkpt>
      <trkpt lat="37.6637840270996" lon="128.732223510742">
        <ele>904.13934</ele>
      </trkpt>
      <trkpt lat="37.6638336181641" lon="128.732177734375">
        <ele>901.6695</ele>
      </trkpt>
      <trkpt lat="37.6640777587891" lon="128.732147216797">
        <ele>892.2375</ele>
      </trkpt>
      <trkpt lat="37.6641731262207" lon="128.731903076172">
        <ele>882.4317</ele>
      </trkpt>
      <trkpt lat="37.664436340332" lon="128.732040405273">
        <ele>870.99854</ele>
      </trkpt>
      <trkpt lat="37.66455078125" lon="128.73225402832">
        <ele>865.23724</ele>
      </trkpt>
      <trkpt lat="37.6646919250488" lon="128.731994628906">
        <ele>855.0996</ele>
      </trkpt>
      <trkpt lat="37.6650009155273" lon="128.73210144043">
        <ele>842.39197</ele>
      </trkpt>
      <trkpt lat="37.6657409667969" lon="128.731796264648">
        <ele>820.0787</ele>
      </trkpt>
      <trkpt lat="37.6668434143066" lon="128.731704711914">
        <ele>793.82086</ele>
      </trkpt>
      <trkpt lat="37.6672286987305" lon="128.732131958008">
        <ele>789.3235</ele>
      </trkpt>
      <trkpt lat="37.6675758361816" lon="128.732025146484">
        <ele>789.018</ele>
      </trkpt>
      <trkpt lat="37.6678428649902" lon="128.732696533203">
        <ele>800.9041</ele>
      </trkpt>
      <trkpt lat="37.6677436828613" lon="128.733459472656">
        <ele>796.6963</ele>
      </trkpt>
      <trkpt lat="37.6679840087891" lon="128.733489990234">
        <ele>798.3815</ele>
      </trkpt>
      <trkpt lat="37.6676368713379" lon="128.734344482422">
        <ele>805.42255</ele>
      </trkpt>
      <trkpt lat="37.6677017211914" lon="128.734588623047">
        <ele>802.06793</ele>
      </trkpt>
      <trkpt lat="37.6679267883301" lon="128.73469543457">
        <ele>805.51215</ele>
      </trkpt>
      <trkpt lat="37.6681976318359" lon="128.734573364258">
        <ele>804.82214</ele>
      </trkpt>
      <trkpt lat="37.6684494018555" lon="128.734786987305">
        <ele>804.5905</ele>
      </trkpt>
      <trkpt lat="37.668399810791" lon="128.73567199707">
        <ele>810.8784</ele>
      </trkpt>
      <trkpt lat="37.6685104370117" lon="128.736022949219">
        <ele>814.0119</ele>
      </trkpt>
      <trkpt lat="37.6689529418945" lon="128.736923217773">
        <ele>832.02264</ele>
      </trkpt>
      <trkpt lat="37.6695175170898" lon="128.737274169922">
        <ele>832.9811</ele>
      </trkpt>
      <trkpt lat="37.6696281433105" lon="128.737518310547">
        <ele>833.85535</ele>
      </trkpt>
      <trkpt lat="37.6696243286133" lon="128.737945556641">
        <ele>837.65234</ele>
      </trkpt>
      <trkpt lat="37.6690292358398" lon="128.738876342773">
        <ele>835.5932</ele>
      </trkpt>
      <trkpt lat="37.6685676574707" lon="128.738372802734">
        <ele>853.4091</ele>
      </trkpt>
      <trkpt lat="37.668098449707" lon="128.738861083984">
        <ele>842.3604</ele>
      </trkpt>
      <trkpt lat="37.6681747436523" lon="128.739105224609">
        <ele>842.34454</ele>
      </trkpt>
      <trkpt lat="37.6686096191406" lon="128.739364624023">
        <ele>832.7125</ele>
      </trkpt>
      <trkpt lat="37.6690063476563" lon="128.739852905273">
        <ele>829.61597</ele>
      </trkpt>
      <trkpt lat="37.6687850952148" lon="128.740676879883">
        <ele>842.5921</ele>
      </trkpt>
      <trkpt lat="37.6690139770508" lon="128.741149902344">
        <ele>839.3217</ele>
      </trkpt>
      <trkpt lat="37.6690139770508" lon="128.741424560547">
        <ele>836.33575</ele>
      </trkpt>
      <trkpt lat="37.6687316894531" lon="128.742294311523">
        <ele>809.56714</ele>
      </trkpt>
      <trkpt lat="37.6692047119141" lon="128.743072509766">
        <ele>819.9839</ele>
      </trkpt>
      <trkpt lat="37.6693687438965" lon="128.742965698242">
        <ele>820.6896</ele>
      </trkpt>
      <trkpt lat="37.6696739196777" lon="128.743133544922">
        <ele>822.7803</ele>
      </trkpt>
      <trkpt lat="37.6702919006348" lon="128.743087768555">
        <ele>819.97864</ele>
      </trkpt>
      <trkpt lat="37.6704521179199" lon="128.742858886719">
        <ele>819.3361</ele>
      </trkpt>
      <trkpt lat="37.670482635498" lon="128.742263793945">
        <ele>824.70776</ele>
      </trkpt>
      <trkpt lat="37.6707229614258" lon="128.742065429688">
        <ele>824.4392</ele>
      </trkpt>
      <trkpt lat="37.6709365844727" lon="128.741485595703">
        <ele>820.9107</ele>
      </trkpt>
      <trkpt lat="37.671199798584" lon="128.741394042969">
        <ele>817.6035</ele>
      </trkpt>
      <trkpt lat="37.6723785400391" lon="128.742309570312">
        <ele>819.2097</ele>
      </trkpt>
      <trkpt lat="37.6728134155273" lon="128.742462158203">
        <ele>816.8083</ele>
      </trkpt>
      <trkpt lat="37.6729698181152" lon="128.742706298828">
        <ele>813.6485</ele>
      </trkpt>
      <trkpt lat="37.6736183166504" lon="128.742706298828">
        <ele>805.5279</ele>
      </trkpt>
      <trkpt lat="37.6738014221191" lon="128.742797851562">
        <ele>802.4524</ele>
      </trkpt>
      <trkpt lat="37.6741027832031" lon="128.743392944336">
        <ele>799.2136</ele>
      </trkpt>
      <trkpt lat="37.6747131347656" lon="128.743942260742">
        <ele>799.54016</ele>
      </trkpt>
      <trkpt lat="37.6753616333008" lon="128.742340087891">
        <ele>793.17316</ele>
      </trkpt>
      <trkpt lat="37.6755447387695" lon="128.740921020508">
        <ele>783.2672</ele>
      </trkpt>
      <trkpt lat="37.6761779785156" lon="128.739852905273">
        <ele>776.8476</ele>
      </trkpt>
      <trkpt lat="37.676197052002" lon="128.739624023438">
        <ele>776.5053</ele>
      </trkpt>
      <trkpt lat="37.676326751709" lon="128.740173339844">
        <ele>776.3948</ele>
      </trkpt>
      <trkpt lat="37.6765327453613" lon="128.740386962891">
        <ele>781.0712</ele>
      </trkpt>
      <trkpt lat="37.676887512207" lon="128.740158081055">
        <ele>783.34625</ele>
      </trkpt>
      <trkpt lat="37.6770629882813" lon="128.740203857422">
        <ele>781.7453</ele>
      </trkpt>
      <trkpt lat="37.6771125793457" lon="128.740921020508">
        <ele>777.3216</ele>
      </trkpt>
      <trkpt lat="37.676944732666" lon="128.741409301758">
        <ele>779.3439</ele>
      </trkpt>
      <trkpt lat="37.6774063110352" lon="128.743026733398">
        <ele>782.1613</ele>
      </trkpt>
      <trkpt lat="37.678768157959" lon="128.745223999023">
        <ele>786.0268</ele>
      </trkpt>
      <trkpt lat="37.6807136535645" lon="128.749954223633">
        <ele>797.59155</ele>
      </trkpt>
      <trkpt lat="37.6817359924316" lon="128.751617431641">
        <ele>798.8397</ele>
      </trkpt>
      <trkpt lat="37.6817893981934" lon="128.752304077148">
        <ele>802.1575</ele>
      </trkpt>
      <trkpt lat="37.6821632385254" lon="128.752807617188">
        <ele>805.20667</ele>
      </trkpt>
      <trkpt lat="37.6824722290039" lon="128.75358581543">
        <ele>805.8334</ele>
      </trkpt>
      <trkpt lat="37.6824989318848" lon="128.754348754883">
        <ele>806.3178</ele>
      </trkpt>
      <trkpt lat="37.6828804016113" lon="128.755126953125">
        <ele>814.0224</ele>
      </trkpt>
      <trkpt lat="37.6827774047852" lon="128.758544921875">
        <ele>835.1877</ele>
      </trkpt>
      <trkpt lat="37.6819381713867" lon="128.761016845703">
        <ele>861.4191</ele>
      </trkpt>
      <trkpt lat="37.6819686889648" lon="128.761764526367">
        <ele>866.05347</ele>
      </trkpt>
      <trkpt lat="37.6822128295898" lon="128.762115478516">
        <ele>870.8932</ele>
      </trkpt>
      <trkpt lat="37.6830673217773" lon="128.761703491211">
        <ele>876.65454</ele>
      </trkpt>
      <trkpt lat="37.683967590332" lon="128.761077880859">
        <ele>875.55914</ele>
      </trkpt>
      <trkpt lat="37.6847915649414" lon="128.761169433594">
        <ele>865.8007</ele>
      </trkpt>
      <trkpt lat="37.6851501464844" lon="128.761581420898">
        <ele>861.0716</ele>
      </trkpt>
      <trkpt lat="37.6853790283203" lon="128.761611938477">
        <ele>858.0224</ele>
      </trkpt>
      <trkpt lat="37.6860504150391" lon="128.761596679688">
        <ele>854.7204</ele>
      </trkpt>
      <trkpt lat="37.6863174438477" lon="128.761260986328">
        <ele>853.0773</ele>
      </trkpt>
      <trkpt lat="37.6854095458984" lon="128.758819580078">
        <ele>829.13666</ele>
      </trkpt>
      <trkpt lat="37.6845970153809" lon="128.757110595703">
        <ele>828.12555</ele>
      </trkpt>
      <trkpt lat="37.6846733093262" lon="128.75666809082">
        <ele>828.4889</ele>
      </trkpt>
      <trkpt lat="37.6855163574219" lon="128.755950927734">
        <ele>827.72003</ele>
      </trkpt>
      <trkpt lat="37.6856346130371" lon="128.755569458008">
        <ele>826.21387</ele>
      </trkpt>
      <trkpt lat="37.6858100891113" lon="128.755477905273">
        <ele>825.55566</ele>
      </trkpt>
      <trkpt lat="37.6858673095703" lon="128.755493164062">
        <ele>825.81366</ele>
      </trkpt>
      <trkpt lat="37.6858978271484" lon="128.755554199219">
        <ele>826.0875</ele>
      </trkpt>
      <trkpt lat="37.6860084533691" lon="128.756912231445">
        <ele>827.3146</ele>
      </trkpt>
      <trkpt lat="37.6861381530762" lon="128.757202148438">
        <ele>828.47314</ele>
      </trkpt>
      <trkpt lat="37.6864852905273" lon="128.757369995117">
        <ele>829.242</ele>
      </trkpt>
      <trkpt lat="37.6875839233398" lon="128.757263183594">
        <ele>836.1461</ele>
      </trkpt>
      <trkpt lat="37.6884613037109" lon="128.757431030273">
        <ele>841.344</ele>
      </trkpt>
      <trkpt lat="37.6891899108887" lon="128.757293701172">
        <ele>848.0322</ele>
      </trkpt>
      <trkpt lat="37.689769744873" lon="128.757385253906">
        <ele>854.13586</ele>
      </trkpt>
      <trkpt lat="37.6902618408203" lon="128.757186889648">
        <ele>860.60284</ele>
      </trkpt>
      <trkpt lat="37.6905059814453" lon="128.756912231445">
        <ele>865.1898</ele>
      </trkpt>
      <trkpt lat="37.6906280517578" lon="128.756454467773">
        <ele>873.3684</ele>
      </trkpt>
      <trkpt lat="37.6911468505859" lon="128.755844116211">
        <ele>890.1942</ele>
      </trkpt>
      <trkpt lat="37.6911010742188" lon="128.755554199219">
        <ele>894.83374</ele>
      </trkpt>
      <trkpt lat="37.6912574768066" lon="128.755035400391">
        <ele>908.66833</ele>
      </trkpt>
      <trkpt lat="37.6909294128418" lon="128.755172729492">
        <ele>913.4344</ele>
      </trkpt>
      <trkpt lat="37.690788269043" lon="128.754760742188">
        <ele>915.64624</ele>
      </trkpt>
      <trkpt lat="37.6915016174316" lon="128.754196166992">
        <ele>923.4667</ele>
      </trkpt>
      <trkpt lat="37.6922340393066" lon="128.754135131836">
        <ele>933.70435</ele>
      </trkpt>
      <trkpt lat="37.6923561096191" lon="128.753997802734">
        <ele>933.74646</ele>
      </trkpt>
      <trkpt lat="37.6930541992188" lon="128.753814697266">
        <ele>936.9378</ele>
      </trkpt>
      <trkpt lat="37.6931648254395" lon="128.753433227539">
        <ele>939.6658</ele>
      </trkpt>
      <trkpt lat="37.693531036377" lon="128.753265380859">
        <ele>931.7769</ele>
      </trkpt>
      <trkpt lat="37.6939086914063" lon="128.752746582031">
        <ele>925.8576</ele>
      </trkpt>
      <trkpt lat="37.6940612792969" lon="128.75244140625">
        <ele>922.07104</ele>
      </trkpt>
      <trkpt lat="37.6941146850586" lon="128.751922607422">
        <ele>913.7187</ele>
      </trkpt>
      <trkpt lat="37.6950531005859" lon="128.750610351562">
        <ele>933.8992</ele>
      </trkpt>
      <trkpt lat="37.6955528259277" lon="128.750625610352">
        <ele>939.076</ele>
      </trkpt>
      <trkpt lat="37.6970825195313" lon="128.751052856445">
        <ele>937.85944</ele>
      </trkpt>
      <trkpt lat="37.6976089477539" lon="128.750640869141">
        <ele>934.568</ele>
      </trkpt>
      <trkpt lat="37.6980628967285" lon="128.749771118164">
        <ele>925.12024</ele>
      </trkpt>
      <trkpt lat="37.6981773376465" lon="128.749237060547">
        <ele>918.6638</ele>
      </trkpt>
      <trkpt lat="37.6981964111328" lon="128.74870300293">
        <ele>910.8907</ele>
      </trkpt>
      <trkpt lat="37.6976661682129" lon="128.747604370117">
        <ele>890.98944</ele>
      </trkpt>
      <trkpt lat="37.6976699829102" lon="128.747360229492">
        <ele>887.38196</ele>
      </trkpt>
      <trkpt lat="37.6978340148926" lon="128.74723815918">
        <ele>885.5862</ele>
      </trkpt>
      <trkpt lat="37.6986427307129" lon="128.747268676758">
        <ele>885.8074</ele>
      </trkpt>
      <trkpt lat="37.6989402770996" lon="128.74739074707">
        <ele>887.2345</ele>
      </trkpt>
      <trkpt lat="37.6992530822754" lon="128.747787475586">
        <ele>888.83026</ele>
      </trkpt>
      <trkpt lat="37.699462890625" lon="128.747833251953">
        <ele>888.1772</ele>
      </trkpt>
      <trkpt lat="37.6999816894531" lon="128.747634887695">
        <ele>886.03906</ele>
      </trkpt>
      <trkpt lat="37.7006072998047" lon="128.747833251953">
        <ele>887.78754</ele>
      </trkpt>
      <trkpt lat="37.7017822265625" lon="128.747940063477">
        <ele>896.00287</ele>
      </trkpt>
      <trkpt lat="37.7025947570801" lon="128.748352050781">
        <ele>900.1896</ele>
      </trkpt>
      <trkpt lat="37.7030754089355" lon="128.748321533203">
        <ele>902.5173</ele>
      </trkpt>
      <trkpt lat="37.7033081054688" lon="128.748718261719">
        <ele>907.0464</ele>
      </trkpt>
      <trkpt lat="37.703742980957" lon="128.749038696289">
        <ele>912.26526</ele>
      </trkpt>
      <trkpt lat="37.7042274475098" lon="128.749069213867">
        <ele>915.0142</ele>
      </trkpt>
      <trkpt lat="37.7049331665039" lon="128.748825073242">
        <ele>916.82056</ele>
      </trkpt>
      <trkpt lat="37.7063255310059" lon="128.748764038086">
        <ele>926.7739</ele>
      </trkpt>
      <trkpt lat="37.7065353393555" lon="128.748580932617">
        <ele>934.1467</ele>
      </trkpt>
      <trkpt lat="37.706615447998" lon="128.748168945312">
        <ele>936.75354</ele>
      </trkpt>
      <trkpt lat="37.7070083618164" lon="128.747833251953">
        <ele>944.7583</ele>
      </trkpt>
      <trkpt lat="37.7083129882813" lon="128.747802734375">
        <ele>962.2266</ele>
      </trkpt>
      <trkpt lat="37.7087707519531" lon="128.747573852539">
        <ele>964.74915</ele>
      </trkpt>
      <trkpt lat="37.7095603942871" lon="128.747543334961">
        <ele>969.8944</ele>
      </trkpt>
      <trkpt lat="37.7101173400879" lon="128.747360229492">
        <ele>974.1232</ele>
      </trkpt>
      <trkpt lat="37.7106475830078" lon="128.746612548828">
        <ele>974.97107</ele>
      </trkpt>
      <trkpt lat="37.7107582092285" lon="128.746276855469">
        <ele>974.0758</ele>
      </trkpt>
      <trkpt lat="37.711109161377" lon="128.746063232422">
        <ele>980.5955</ele>
      </trkpt>
      <trkpt lat="37.7113952636719" lon="128.745223999023">
        <ele>980.5586</ele>
      </trkpt>
      <trkpt lat="37.7118072509766" lon="128.744995117188">
        <ele>984.08704</ele>
      </trkpt>
      <trkpt lat="37.7120895385742" lon="128.745040893555">
        <ele>988.0736</ele>
      </trkpt>
      <trkpt lat="37.7124252319336" lon="128.744842529297">
        <ele>990.6752</ele>
      </trkpt>
      <trkpt lat="37.7134437561035" lon="128.744567871094">
        <ele>995.9415</ele>
      </trkpt>
      <trkpt lat="37.7136840820313" lon="128.744644165039">
        <ele>998.9907</ele>
      </trkpt>
      <trkpt lat="37.7138824462891" lon="128.745040893555">
        <ele>1006.7795</ele>
      </trkpt>
      <trkpt lat="37.7140579223633" lon="128.7451171875">
        <ele>1007.3535</ele>
      </trkpt>
      <trkpt lat="37.7144470214844" lon="128.744888305664">
        <ele>1008.0908</ele>
      </trkpt>
      <trkpt lat="37.7146629648186" lon="128.744420707226">
        <ele>1011</ele>
      </trkpt>
      <trkpt lat="37.7151912928922" lon="128.744249045849">
        <ele>1021</ele>
      </trkpt>
      <trkpt lat="37.7154579162598" lon="128.744247436523">
        <ele>1026.328</ele>
      </trkpt>
      <trkpt lat="37.7157259825285" lon="128.744096159935">
        <ele>1028</ele>
      </trkpt>
      <trkpt lat="37.7158511672431" lon="128.744034469128">
        <ele>1030</ele>
      </trkpt>
      <trkpt lat="37.7159881591797" lon="128.744033813477">
        <ele>1036.3972</ele>
      </trkpt>
      <trkpt lat="37.7161503366363" lon="128.744112253189">
        <ele>1038</ele>
      </trkpt>
      <trkpt lat="37.7162479377373" lon="128.744262456894">
        <ele>1041</ele>
      </trkpt>
      <trkpt lat="37.7165980275853" lon="128.744243681431">
        <ele>1046</ele>
      </trkpt>
      <trkpt lat="37.7169141679053" lon="128.744249045849">
        <ele>1051</ele>
      </trkpt>
      <trkpt lat="37.716982063637" lon="128.744069337845">
        <ele>1051</ele>
      </trkpt>
      <trkpt lat="37.7170117680001" lon="128.743849396706">
        <ele>1048</ele>
      </trkpt>
      <trkpt lat="37.7170669332141" lon="128.743779659271">
        <ele>1049</ele>
      </trkpt>
      <trkpt lat="37.7171560461655" lon="128.743717968464">
        <ele>1051</ele>
      </trkpt>
      <trkpt lat="37.71728515625" lon="128.743713378906">
        <ele>1057.3834</ele>
      </trkpt>
      <trkpt lat="37.7178230285645" lon="128.74397277832">
        <ele>1064.9668</ele>
      </trkpt>
      <trkpt lat="37.7181243896484" lon="128.743774414062">
        <ele>1069.3643</ele>
      </trkpt>
      <trkpt lat="37.7187006536244" lon="128.743811845779">
        <ele>1073</ele>
      </trkpt>
      <trkpt lat="37.7189573778419" lon="128.743677735329">
        <ele>1072</ele>
      </trkpt>
      <trkpt lat="37.7193010898641" lon="128.743599951267">
        <ele>1071</ele>
      </trkpt>
      <trkpt lat="37.7198696963749" lon="128.743318319321">
        <ele>1075</ele>
      </trkpt>
      <trkpt lat="37.7203140258789" lon="128.743286132812">
        <ele>1091.9672</ele>
      </trkpt>
      <trkpt lat="37.7205210424998" lon="128.743004500866">
        <ele>1090</ele>
      </trkpt>
      <trkpt lat="37.720646219112" lon="128.742878437042">
        <ele>1093</ele>
      </trkpt>
      <trkpt lat="37.7207968550937" lon="128.742795288563">
        <ele>1098</ele>
      </trkpt>
      <trkpt lat="37.7208213806152" lon="128.742828369141">
        <ele>1098.8186</ele>
      </trkpt>
      <trkpt lat="37.7207968550937" lon="128.742899894714">
        <ele>1097</ele>
      </trkpt>
      <trkpt lat="37.7206780436407" lon="128.743253946304">
        <ele>1095</ele>
      </trkpt>
      <trkpt lat="37.7206356109327" lon="128.743629455566">
        <ele>1100</ele>
      </trkpt>
      <trkpt lat="37.7207544224538" lon="128.74386548996">
        <ele>1103</ele>
      </trkpt>
      <trkpt lat="37.720947265625" lon="128.744110107422">
        <ele>1108.6666</ele>
      </trkpt>
      <trkpt lat="37.7209358215332" lon="128.744735717773">
        <ele>1115.5656</ele>
      </trkpt>
      <trkpt lat="37.7208366394043" lon="128.745025634766">
        <ele>1118.2723</ele>
      </trkpt>
      <trkpt lat="37.7205677185494" lon="128.745126128197">
        <ele>1107</ele>
      </trkpt>
      <trkpt lat="37.7203826904297" lon="128.745315551758">
        <ele>1123.012</ele>
      </trkpt>
      <trkpt lat="37.7202644348145" lon="128.745910644531">
        <ele>1127.8676</ele>
      </trkpt>
      <trkpt lat="37.7204170227051" lon="128.746078491211">
        <ele>1129.9003</ele>
      </trkpt>
      <trkpt lat="37.7215194702148" lon="128.746307373047">
        <ele>1146.1206</ele>
      </trkpt>
      <trkpt lat="37.7219200134277" lon="128.745849609375">
        <ele>1147.9847</ele>
      </trkpt>
      <trkpt lat="37.7219581604004" lon="128.745483398438">
        <ele>1153.9779</ele>
      </trkpt>
      <trkpt lat="37.7221755981445" lon="128.7451171875">
        <ele>1162.6409</ele>
      </trkpt>
      <trkpt lat="37.7228851318359" lon="128.744995117188">
        <ele>1165.3319</ele>
      </trkpt>
      <trkpt lat="37.7231072756434" lon="128.744278550148">
        <ele>1132</ele>
      </trkpt>
      <trkpt lat="37.7232048675789" lon="128.744318783283">
        <ele>1132</ele>
      </trkpt>
      <trkpt lat="37.7234318744098" lon="128.744187355042">
        <ele>1126</ele>
      </trkpt>
      <trkpt lat="37.7235825047267" lon="128.74391913414">
        <ele>1120</ele>
      </trkpt>
      <trkpt lat="37.7237586975098" lon="128.743621826172">
        <ele>1137.4207</ele>
      </trkpt>
      <trkpt lat="37.7247657775879" lon="128.743301391602">
        <ele>1103.5425</ele>
      </trkpt>
      <trkpt lat="37.7251969878995" lon="128.744283914566">
        <ele>1079</ele>
      </trkpt>
      <trkpt lat="37.7254006521338" lon="128.74476402998">
        <ele>1073</ele>
      </trkpt>
      <trkpt lat="37.7256658390995" lon="128.745211958885">
        <ele>1064</ele>
      </trkpt>
      <trkpt lat="37.7258249508231" lon="128.745399713516">
        <ele>1058</ele>
      </trkpt>
      <trkpt lat="37.7259946696183" lon="128.745480179787">
        <ele>1051</ele>
      </trkpt>
      <trkpt lat="37.7264104790226" lon="128.745439946651">
        <ele>1043</ele>
      </trkpt>
      <trkpt lat="37.7267608642578" lon="128.745513916016">
        <ele>1067.4104</ele>
      </trkpt>
      <trkpt lat="37.7269323589509" lon="128.74536216259">
        <ele>1041</ele>
      </trkpt>
      <trkpt lat="37.7270957108557" lon="128.74511808157">
        <ele>1040</ele>
      </trkpt>
      <trkpt lat="37.72802734375" lon="128.74333190918">
        <ele>1027.3234</ele>
      </trkpt>
      <trkpt lat="37.7283897399902" lon="128.742858886719">
        <ele>1018.1547</ele>
      </trkpt>
      <trkpt lat="37.7284597912663" lon="128.742819428444">
        <ele>995</ele>
      </trkpt>
      <trkpt lat="37.7285346984863" lon="128.742813110352">
        <ele>1016.14825</ele>
      </trkpt>
      <trkpt lat="37.7287207244696" lon="128.74283015728">
        <ele>991</ele>
      </trkpt>
      <trkpt lat="37.7289222576153" lon="128.742886483669">
        <ele>988</ele>
      </trkpt>
      <trkpt lat="37.7292892586717" lon="128.743015229702">
        <ele>983</ele>
      </trkpt>
      <trkpt lat="37.729919308267" lon="128.743235170841">
        <ele>977</ele>
      </trkpt>
      <trkpt lat="37.7301950858644" lon="128.743098378181">
        <ele>974</ele>
      </trkpt>
      <trkpt lat="37.7303563092149" lon="128.743050098419">
        <ele>974</ele>
      </trkpt>
      <trkpt lat="37.7304954528809" lon="128.743072509766">
        <ele>994.52484</ele>
      </trkpt>
      <trkpt lat="37.7306787548628" lon="128.74318420887">
        <ele>979</ele>
      </trkpt>
      <trkpt lat="37.7308336131288" lon="128.743366599083">
        <ele>983</ele>
      </trkpt>
      <trkpt lat="37.7311072659852" lon="128.743726015091">
        <ele>987</ele>
      </trkpt>
      <trkpt lat="37.7317504882813" lon="128.744323730469">
        <ele>1003.1668</ele>
      </trkpt>
      <trkpt lat="37.7318900348512" lon="128.744289278984">
        <ele>990</ele>
      </trkpt>
      <trkpt lat="37.7321318642098" lon="128.744023740292">
        <ele>991</ele>
      </trkpt>
      <trkpt lat="37.7323970270725" lon="128.743758201599">
        <ele>992</ele>
      </trkpt>
      <trkpt lat="37.7327117919922" lon="128.743713378906">
        <ele>1011.2085</ele>
      </trkpt>
      <trkpt lat="37.7335446409938" lon="128.743956685066">
        <ele>1013</ele>
      </trkpt>
      <trkpt lat="37.734058380127" lon="128.744125366211">
        <ele>1029.6405</ele>
      </trkpt>
      <trkpt lat="37.7342149580867" lon="128.744208812714">
        <ele>1027</ele>
      </trkpt>
      <trkpt lat="37.7342785954699" lon="128.74424636364">
        <ele>1027</ele>
      </trkpt>
      <trkpt lat="37.7343401115551" lon="128.744324147701">
        <ele>1027</ele>
      </trkpt>
      <trkpt lat="37.7344885984467" lon="128.744482398033">
        <ele>1027</ele>
      </trkpt>
      <trkpt lat="37.7346413275102" lon="128.744549453259">
        <ele>1026</ele>
      </trkpt>
      <trkpt lat="37.7347564697266" lon="128.74430847168">
        <ele>1041.2263</ele>
      </trkpt>
      <trkpt lat="37.7345657348633" lon="128.743515014648">
        <ele>1049.9736</ele>
      </trkpt>
      <trkpt lat="37.7346000671387" lon="128.743209838867">
        <ele>1053.56</ele>
      </trkpt>
      <trkpt lat="37.734790802002" lon="128.742935180664">
        <ele>1057.5625</ele>
      </trkpt>
      <trkpt lat="37.7354965209961" lon="128.742660522461">
        <ele>1065.7094</ele>
      </trkpt>
      <trkpt lat="37.7358779907227" lon="128.742553710938">
        <ele>1066.8312</ele>
      </trkpt>
      <trkpt lat="37.7360725402832" lon="128.742614746094">
        <ele>1067.4525</ele>
      </trkpt>
      <trkpt lat="37.7365188598633" lon="128.743133544922">
        <ele>1065.7305</ele>
      </trkpt>
      <trkpt lat="37.7370552533663" lon="128.743039369583">
        <ele>1048</ele>
      </trkpt>
      <trkpt lat="37.7374496459961" lon="128.743133544922">
        <ele>1066.5468</ele>
      </trkpt>
      <trkpt lat="37.738224029541" lon="128.742797851562">
        <ele>1069.3853</ele>
      </trkpt>
      <trkpt lat="37.7387619018555" lon="128.742874145508">
        <ele>1077.843</ele>
      </trkpt>
      <trkpt lat="37.7393798828125" lon="128.742721557617">
        <ele>1088.9655</ele>
      </trkpt>
      <trkpt lat="37.7398376464844" lon="128.742828369141">
        <ele>1094.5951</ele>
      </trkpt>
      <trkpt lat="37.7415351867676" lon="128.742431640625">
        <ele>1121.7428</ele>
      </trkpt>
      <trkpt lat="37.741628345243" lon="128.742229342461">
        <ele>1112</ele>
      </trkpt>
      <trkpt lat="37.741653797654" lon="128.741961121559">
        <ele>1115</ele>
      </trkpt>
      <trkpt lat="37.7415084838867" lon="128.741241455078">
        <ele>1128.1993</ele>
      </trkpt>
      <trkpt lat="37.7415504455566" lon="128.740707397461">
        <ele>1132.4176</ele>
      </trkpt>
      <trkpt lat="37.7413907889854" lon="128.740164041519">
        <ele>1132</ele>
      </trkpt>
      <trkpt lat="37.7412948608398" lon="128.739608764648">
        <ele>1142.0918</ele>
      </trkpt>
      <trkpt lat="37.741397857666" lon="128.739059448242">
        <ele>1141.502</ele>
      </trkpt>
      <trkpt lat="37.7416076660156" lon="128.738693237305">
        <ele>1140.117</ele>
      </trkpt>
      <trkpt lat="37.7421646118164" lon="128.738174438477">
        <ele>1131.2222</ele>
      </trkpt>
      <trkpt lat="37.7423782348633" lon="128.737670898438">
        <ele>1127.6885</ele>
      </trkpt>
      <trkpt lat="37.7427253723145" lon="128.737396240234">
        <ele>1125.1923</ele>
      </trkpt>
      <trkpt lat="37.7432556152344" lon="128.736419677734">
        <ele>1126.2297</ele>
      </trkpt>
      <trkpt lat="37.7435542196156" lon="128.736044168472">
        <ele>1107</ele>
      </trkpt>
      <trkpt lat="37.7441141560658" lon="128.735625743866">
        <ele>1100</ele>
      </trkpt>
      <trkpt lat="37.7446359112181" lon="128.735083937645">
        <ele>1107</ele>
      </trkpt>
      <trkpt lat="37.7447631680144" lon="128.734778165817">
        <ele>1107</ele>
      </trkpt>
      <trkpt lat="37.744848005757" lon="128.734332919121">
        <ele>1100</ele>
      </trkpt>
      <trkpt lat="37.7452297743954" lon="128.734129071236">
        <ele>1095</ele>
      </trkpt>
      <trkpt lat="37.745509736812" lon="128.733925223351">
        <ele>1094</ele>
      </trkpt>
      <trkpt lat="37.7460102730387" lon="128.733168840408">
        <ele>1097</ele>
      </trkpt>
      <trkpt lat="37.7461700439453" lon="128.732528686523">
        <ele>1106.8707</ele>
      </trkpt>
      <trkpt lat="37.7463368923106" lon="128.732326626778">
        <ele>1091</ele>
      </trkpt>
      <trkpt lat="37.746548981975" lon="128.732181787491">
        <ele>1093</ele>
      </trkpt>
      <trkpt lat="37.7469434671341" lon="128.731634616852">
        <ele>1101</ele>
      </trkpt>
      <trkpt lat="37.7469774012432" lon="128.731371760368">
        <ele>1103</ele>
      </trkpt>
      <trkpt lat="37.7469253540039" lon="128.731140136719">
        <ele>1110.8732</ele>
      </trkpt>
      <trkpt lat="37.7468119723147" lon="128.730974793434">
        <ele>1096</ele>
      </trkpt>
      <trkpt lat="37.7466468811035" lon="128.730865478516">
        <ele>1107.4343</ele>
      </trkpt>
      <trkpt lat="37.7466126087558" lon="128.730797767639">
        <ele>1089</ele>
      </trkpt>
      <trkpt lat="37.7466126087558" lon="128.730669021606">
        <ele>1088</ele>
      </trkpt>
      <trkpt lat="37.747241973877" lon="128.73014831543">
        <ele>1100.1562</ele>
      </trkpt>
      <trkpt lat="37.7473930928158" lon="128.728947043419">
        <ele>1099</ele>
      </trkpt>
      <trkpt lat="37.7475500369861" lon="128.728582262993">
        <ele>1104</ele>
      </trkpt>
      <trkpt lat="37.7478427157658" lon="128.728367686272">
        <ele>1107</ele>
      </trkpt>
      <trkpt lat="37.7480850219727" lon="128.727996826172">
        <ele>1122.9172</ele>
      </trkpt>
      <trkpt lat="37.748109943206" lon="128.727766871452">
        <ele>1114</ele>
      </trkpt>
      <trkpt lat="37.7479826921643" lon="128.727267980576">
        <ele>1115</ele>
      </trkpt>
      <trkpt lat="37.7480081423902" lon="128.726967573166">
        <ele>1118</ele>
      </trkpt>
      <trkpt lat="37.7481226682981" lon="128.726817369461">
        <ele>1121</ele>
      </trkpt>
      <trkpt lat="37.748249919099" lon="128.726715445518">
        <ele>1125</ele>
      </trkpt>
      <trkpt lat="37.7482923359841" lon="128.72654914856">
        <ele>1127</ele>
      </trkpt>
      <trkpt lat="37.7482626441671" lon="128.726313114166">
        <ele>1128</ele>
      </trkpt>
      <trkpt lat="37.7481608435614" lon="128.726077079773">
        <ele>1127</ele>
      </trkpt>
      <trkpt lat="37.7477989196777" lon="128.725387573242">
        <ele>1136.6675</ele>
      </trkpt>
      <trkpt lat="37.7483367919922" lon="128.725433349609">
        <ele>1143.8666</ele>
      </trkpt>
      <trkpt lat="37.7488784790039" lon="128.725692749023">
        <ele>1147.3318</ele>
      </trkpt>
      <trkpt lat="37.7490473524695" lon="128.725331425667">
        <ele>1128</ele>
      </trkpt>
      <trkpt lat="37.7492713928223" lon="128.725128173828">
        <ele>1146.9684</ele>
      </trkpt>
      <trkpt lat="37.7496643066406" lon="128.724975585938">
        <ele>1151.4658</ele>
      </trkpt>
      <trkpt lat="37.749942779541" lon="128.724655151367">
        <ele>1152.6086</ele>
      </trkpt>
      <trkpt lat="37.7500823063707" lon="128.724322915077">
        <ele>1133</ele>
      </trkpt>
      <trkpt lat="37.7503623962402" lon="128.724060058594">
        <ele>1146.505</ele>
      </trkpt>
      <trkpt lat="37.7503749751354" lon="128.723877668381">
        <ele>1128</ele>
      </trkpt>
      <trkpt lat="37.7504767726952" lon="128.723614811897">
        <ele>1126</ele>
      </trkpt>
      <trkpt lat="37.7510147094727" lon="128.723327636719">
        <ele>1147.7004</ele>
      </trkpt>
      <trkpt lat="37.7510875551135" lon="128.723180294037">
        <ele>1124</ele>
      </trkpt>
      <trkpt lat="37.7509263769094" lon="128.723169565201">
        <ele>1124</ele>
      </trkpt>
      <trkpt lat="37.7507019042969" lon="128.723205566406">
        <ele>1147.4688</ele>
      </trkpt>
      <trkpt lat="37.7504682895706" lon="128.723518252373">
        <ele>1126</ele>
      </trkpt>
      <trkpt lat="37.750114440918" lon="128.723983764648">
        <ele>1144.093</ele>
      </trkpt>
      <trkpt lat="37.7487801284144" lon="128.724601864815">
        <ele>1121</ele>
      </trkpt>
      <trkpt lat="37.7474899291992" lon="128.725296020508">
        <ele>1136.7045</ele>
      </trkpt>
      <trkpt lat="37.7470932006836" lon="128.725021362305">
        <ele>1135.1666</ele>
      </trkpt>
      <trkpt lat="37.7462959289551" lon="128.723556518555">
        <ele>1130.6061</ele>
      </trkpt>
      <trkpt lat="37.7462272644043" lon="128.723190307617">
        <ele>1128.2467</ele>
      </trkpt>
      <trkpt lat="37.7462817488983" lon="128.722869157791">
        <ele>1112</ele>
      </trkpt>
      <trkpt lat="37.7463771893936" lon="128.722552657127">
        <ele>1106</ele>
      </trkpt>
      <trkpt lat="37.7463135624104" lon="128.722249567509">
        <ele>1106</ele>
      </trkpt>
      <trkpt lat="37.746166229248" lon="128.722030639648">
        <ele>1124.792</ele>
      </trkpt>
      <trkpt lat="37.7460357239429" lon="128.72186601162">
        <ele>1114</ele>
      </trkpt>
      <trkpt lat="37.745891502037" lon="128.721815049648">
        <ele>1113</ele>
      </trkpt>
      <trkpt lat="37.7458427210347" lon="128.721793591976">
        <ele>1113</ele>
      </trkpt>
      <trkpt lat="37.746265411377" lon="128.721282958984">
        <ele>1126.5247</ele>
      </trkpt>
      <trkpt lat="37.746265411377" lon="128.721008300781">
        <ele>1127.6727</ele>
      </trkpt>
      <trkpt lat="37.7460357239429" lon="128.720490038395">
        <ele>1125</ele>
      </trkpt>
      <trkpt lat="37.7458000183105" lon="128.71989440918">
        <ele>1135.967</ele>
      </trkpt>
      <trkpt lat="37.7457387961833" lon="128.719634413719">
        <ele>1118</ele>
      </trkpt>
      <trkpt lat="37.7457154660946" lon="128.719210624695">
        <ele>1116</ele>
      </trkpt>
      <trkpt lat="37.7457303125156" lon="128.718612492084">
        <ele>1111</ele>
      </trkpt>
      <trkpt lat="37.7457642471808" lon="128.71827185154">
        <ele>1107</ele>
      </trkpt>
      <trkpt lat="37.7459551293831" lon="128.717856109142">
        <ele>1104</ele>
      </trkpt>
      <trkpt lat="37.746169341046" lon="128.71748059988">
        <ele>1104</ele>
      </trkpt>
      <trkpt lat="37.746156615618" lon="128.717394769192">
        <ele>1104</ele>
      </trkpt>
      <trkpt lat="37.7460861206055" lon="128.717330932617">
        <ele>1118.1934</ele>
      </trkpt>
      <trkpt lat="37.7457006196707" lon="128.717421591282">
        <ele>1101</ele>
      </trkpt>
      <trkpt lat="37.7454991321943" lon="128.717459142208">
        <ele>1101</ele>
      </trkpt>
      <trkpt lat="37.7453193664551" lon="128.717422485352">
        <ele>1112.2161</ele>
      </trkpt>
      <trkpt lat="37.7451248168945" lon="128.717330932617">
        <ele>1110.8732</ele>
      </trkpt>
      <trkpt lat="37.7450714111328" lon="128.717330932617">
        <ele>1110.4098</ele>
      </trkpt>
      <trkpt lat="37.7441558837891" lon="128.716735839844">
        <ele>1107.2921</ele>
      </trkpt>
      <trkpt lat="37.7435913085938" lon="128.71533203125">
        <ele>1094.4476</ele>
      </trkpt>
      <trkpt lat="37.7437782287598" lon="128.714324951172">
        <ele>1080.9501</ele>
      </trkpt>
      <trkpt lat="37.7439994812012" lon="128.713775634766">
        <ele>1076.6738</ele>
      </trkpt>
      <trkpt lat="37.7439804077148" lon="128.713424682617">
        <ele>1074.1407</ele>
      </trkpt>
      <trkpt lat="37.7436637878418" lon="128.712951660156">
        <ele>1067.4263</ele>
      </trkpt>
      <trkpt lat="37.7436729943681" lon="128.711915016174">
        <ele>1036</ele>
      </trkpt>
      <trkpt lat="37.743639058744" lon="128.711400032043">
        <ele>1025</ele>
      </trkpt>
      <trkpt lat="37.7435881552786" lon="128.711206912994">
        <ele>1021</ele>
      </trkpt>
      <trkpt lat="37.7435372517783" lon="128.710992336273">
        <ele>1017</ele>
      </trkpt>
      <trkpt lat="37.7434524125332" lon="128.710627555847">
        <ele>1011</ele>
      </trkpt>
      <trkpt lat="37.7432487979482" lon="128.710498809814">
        <ele>1011</ele>
      </trkpt>
      <trkpt lat="37.7430282148491" lon="128.710370063782">
        <ele>1005</ele>
      </trkpt>
      <trkpt lat="37.7424513020974" lon="128.709683418274">
        <ele>998</ele>
      </trkpt>
      <trkpt lat="37.7424173659131" lon="128.710241317749">
        <ele>1002</ele>
      </trkpt>
      <trkpt lat="37.7421798121877" lon="128.710284233093">
        <ele>999</ele>
      </trkpt>
      <trkpt lat="37.7419083212822" lon="128.710284233093">
        <ele>990</ele>
      </trkpt>
      <trkpt lat="37.7417386389606" lon="128.710155487061">
        <ele>985</ele>
      </trkpt>
      <trkpt lat="37.7413992731505" lon="128.710069656372">
        <ele>976</ele>
      </trkpt>
      <trkpt lat="37.7405508518183" lon="128.710026741028">
        <ele>946</ele>
      </trkpt>
      <trkpt lat="37.7398381703842" lon="128.710026741028">
        <ele>944</ele>
      </trkpt>
      <trkpt lat="37.7399787902832" lon="128.709579467773">
        <ele>957.7029</ele>
      </trkpt>
      <trkpt lat="37.7404441833496" lon="128.709396362305">
        <ele>952.23114</ele>
      </trkpt>
      <trkpt lat="37.7405433654785" lon="128.708786010742">
        <ele>945.25336</ele>
      </trkpt>
      <trkpt lat="37.7408180236816" lon="128.708572387695">
        <ele>940.203</ele>
      </trkpt>
      <trkpt lat="37.7408332824707" lon="128.708221435547">
        <ele>935.4739</ele>
      </trkpt>
      <trkpt lat="37.7406845092773" lon="128.707809448242">
        <ele>928.1116</ele>
      </trkpt>
      <trkpt lat="37.7410430908203" lon="128.706268310547">
        <ele>919.9488</ele>
      </trkpt>
      <trkpt lat="37.7406158447266" lon="128.70637512207">
        <ele>919.95404</ele>
      </trkpt>
      <trkpt lat="37.7404556274414" lon="128.706558227539">
        <ele>919.7697</ele>
      </trkpt>
      <trkpt lat="37.7400283813477" lon="128.708450317383">
        <ele>916.93646</ele>
      </trkpt>
      <trkpt lat="37.7398147583008" lon="128.708572387695">
        <ele>917.25244</ele>
      </trkpt>
      <trkpt lat="37.739143371582" lon="128.708450317383">
        <ele>915.4988</ele>
      </trkpt>
      <trkpt lat="37.738151550293" lon="128.709411621094">
        <ele>914.7773</ele>
      </trkpt>
      <trkpt lat="37.737922668457" lon="128.710006713867">
        <ele>915.3882</ele>
      </trkpt>
      <trkpt lat="37.7378616333008" lon="128.710754394531">
        <ele>916.1676</ele>
      </trkpt>
      <trkpt lat="37.7374649047852" lon="128.711517333984">
        <ele>916.2202</ele>
      </trkpt>
      <trkpt lat="37.7374267578125" lon="128.712127685547">
        <ele>916.4572</ele>
      </trkpt>
      <trkpt lat="37.7366676330566" lon="128.712905883789">
        <ele>924.0407</ele>
      </trkpt>
      <trkpt lat="37.7362937927246" lon="128.713088989258">
        <ele>928.71185</ele>
      </trkpt>
      <trkpt lat="37.7354393005371" lon="128.713165283203">
        <ele>935.94257</ele>
      </trkpt>
      <trkpt lat="37.7349967956543" lon="128.712905883789">
        <ele>936.29535</ele>
      </trkpt>
      <trkpt lat="37.7345771789551" lon="128.712982177734">
        <ele>933.83075</ele>
      </trkpt>
      <trkpt lat="37.7340660095215" lon="128.712829589844">
        <ele>928.3906</ele>
      </trkpt>
      <trkpt lat="37.7328338623047" lon="128.713607788086">
        <ele>922.07104</ele>
      </trkpt>
      <trkpt lat="37.7322692871094" lon="128.713836669922">
        <ele>920.59656</ele>
      </trkpt>
      <trkpt lat="37.7315711975098" lon="128.713516235352">
        <ele>918.80597</ele>
      </trkpt>
      <trkpt lat="37.7309913635254" lon="128.713394165039">
        <ele>919.0904</ele>
      </trkpt>
      <trkpt lat="37.7298927307129" lon="128.712600708008">
        <ele>920.3595</ele>
      </trkpt>
      <trkpt lat="37.7285575866699" lon="128.713485717773">
        <ele>920.7124</ele>
      </trkpt>
      <trkpt lat="37.7283020019531" lon="128.713775634766">
        <ele>917.4367</ele>
      </trkpt>
      <trkpt lat="37.7277717590332" lon="128.7138671875">
        <ele>911.2699</ele>
      </trkpt>
      <trkpt lat="37.7276649475098" lon="128.714447021484">
        <ele>905.4243</ele>
      </trkpt>
      <trkpt lat="37.7271881103516" lon="128.71501159668">
        <ele>898.6624</ele>
      </trkpt>
      <trkpt lat="37.7269744873047" lon="128.715591430664">
        <ele>891.1369</ele>
      </trkpt>
      <trkpt lat="37.7268104553223" lon="128.715682983398">
        <ele>888.71436</ele>
      </trkpt>
      <trkpt lat="37.7264060974121" lon="128.715454101562">
        <ele>883.10046</ele>
      </trkpt>
      <trkpt lat="37.7263412475586" lon="128.715454101562">
        <ele>882.1104</ele>
      </trkpt>
      <trkpt lat="37.7262763977051" lon="128.715484619141">
        <ele>881.1994</ele>
      </trkpt>
      <trkpt lat="37.7255859375" lon="128.716491699219">
        <ele>869.2659</ele>
      </trkpt>
      <trkpt lat="37.7252922058105" lon="128.717819213867">
        <ele>861.5297</ele>
      </trkpt>
      <trkpt lat="37.7255821228027" lon="128.718643188477">
        <ele>857.94336</ele>
      </trkpt>
      <trkpt lat="37.7254638671875" lon="128.71907043457">
        <ele>857.6168</ele>
      </trkpt>
      <trkpt lat="37.7248840332031" lon="128.719909667969">
        <ele>856.9901</ele>
      </trkpt>
      <trkpt lat="37.7243919372559" lon="128.720123291016">
        <ele>852.65076</ele>
      </trkpt>
      <trkpt lat="37.7245674133301" lon="128.72087097168">
        <ele>852.6402</ele>
      </trkpt>
      <trkpt lat="37.7252578735352" lon="128.721145629883">
        <ele>859.39166</ele>
      </trkpt>
      <trkpt lat="37.7255935668945" lon="128.721206665039">
        <ele>864.2576</ele>
      </trkpt>
      <trkpt lat="37.7264709472656" lon="128.720947265625">
        <ele>876.2753</ele>
      </trkpt>
      <trkpt lat="37.7279319763184" lon="128.720932006836">
        <ele>898.48334</ele>
      </trkpt>
      <trkpt lat="37.7292289733887" lon="128.721099853516">
        <ele>915.8726</ele>
      </trkpt>
      <trkpt lat="37.7296981811523" lon="128.721374511719">
        <ele>922.46606</ele>
      </trkpt>
      <trkpt lat="37.7298278808594" lon="128.7216796875">
        <ele>926.0629</ele>
      </trkpt>
      <trkpt lat="37.7297172546387" lon="128.721878051758">
        <ele>927.8798</ele>
      </trkpt>
      <trkpt lat="37.7291069030762" lon="128.721908569336">
        <ele>932.59845</ele>
      </trkpt>
      <trkpt lat="37.7289161682129" lon="128.72216796875">
        <ele>935.142</ele>
      </trkpt>
      <trkpt lat="37.7292785644531" lon="128.724014282227">
        <ele>957.6186</ele>
      </trkpt>
      <trkpt lat="37.7299270629883" lon="128.724624633789">
        <ele>962.9744</ele>
      </trkpt>
      <trkpt lat="37.7313346862793" lon="128.724914550781">
        <ele>968.7147</ele>
      </trkpt>
      <trkpt lat="37.7316093444824" lon="128.725448608398">
        <ele>968.4198</ele>
      </trkpt>
      <trkpt lat="37.731761932373" lon="128.726409912109">
        <ele>966.8241</ele>
      </trkpt>
      <trkpt lat="37.7320785522461" lon="128.72688293457">
        <ele>970.7633</ele>
      </trkpt>
      <trkpt lat="37.7324295043945" lon="128.726898193359">
        <ele>974.52344</ele>
      </trkpt>
      <trkpt lat="37.7331275939941" lon="128.726501464844">
        <ele>981.76984</ele>
      </trkpt>
      <trkpt lat="37.7341499328613" lon="128.726913452148">
        <ele>982.72833</ele>
      </trkpt>
      <trkpt lat="37.7346038818359" lon="128.72688293457">
        <ele>982.2544</ele>
      </trkpt>
      <trkpt lat="37.7349166870117" lon="128.726516723633">
        <ele>982.3755</ele>
      </trkpt>
      <trkpt lat="37.7348594665527" lon="128.725601196289">
        <ele>985.94604</ele>
      </trkpt>
      <trkpt lat="37.7350273132324" lon="128.725067138672">
        <ele>986.9941</ele>
      </trkpt>
      <trkpt lat="37.7352638244629" lon="128.724807739258">
        <ele>987.6997</ele>
      </trkpt>
      <trkpt lat="37.735668182373" lon="128.724884033203">
        <ele>988.9531</ele>
      </trkpt>
      <trkpt lat="37.736026763916" lon="128.725723266602">
        <ele>989.0426</ele>
      </trkpt>
      <trkpt lat="37.7360305786133" lon="128.726028442383">
        <ele>988.06305</ele>
      </trkpt>
      <trkpt lat="37.7362937927246" lon="128.726516723633">
        <ele>986.89923</ele>
      </trkpt>
      <trkpt lat="37.7361602783203" lon="128.727813720703">
        <ele>988.2158</ele>
      </trkpt>
      <trkpt lat="37.7362518310547" lon="128.728210449219">
        <ele>982.3228</ele>
      </trkpt>
      <trkpt lat="37.7365531921387" lon="128.728149414062">
        <ele>979.0314</ele>
      </trkpt>
      <trkpt lat="37.7368621826172" lon="128.728302001953">
        <ele>975.41345</ele>
      </trkpt>
      <trkpt lat="37.7371788024902" lon="128.727935791016">
        <ele>972.2326</ele>
      </trkpt>
      <trkpt lat="37.7374687194824" lon="128.727920532227">
        <ele>972.12726</ele>
      </trkpt>
      <trkpt lat="37.7378082275391" lon="128.727737426758">
        <ele>971.01605</ele>
      </trkpt>
      <trkpt lat="37.7376403808594" lon="128.728729248047">
        <ele>967.4403</ele>
      </trkpt>
      <trkpt lat="37.738639831543" lon="128.729919433594">
        <ele>946.23816</ele>
      </trkpt>
      <trkpt lat="37.7388030732249" lon="128.729982376099">
        <ele>943</ele>
      </trkpt>
      <trkpt lat="37.7389133711522" lon="128.730121850967">
        <ele>943</ele>
      </trkpt>
      <trkpt lat="37.7385559082031" lon="128.730697631836">
        <ele>946.0275</ele>
      </trkpt>
      <trkpt lat="37.738624899303" lon="128.731119632721">
        <ele>942</ele>
      </trkpt>
      <trkpt lat="37.7387606509015" lon="128.731554150581">
        <ele>944</ele>
      </trkpt>
      <trkpt lat="37.7387771606445" lon="128.731811523438">
        <ele>954.006</ele>
      </trkpt>
      <trkpt lat="37.7384000601704" lon="128.731924295425">
        <ele>949</ele>
      </trkpt>
      <trkpt lat="37.7380714416504" lon="128.731918334961">
        <ele>963.36945</ele>
      </trkpt>
      <trkpt lat="37.7379455566406" lon="128.732025146484">
        <ele>964.8282</ele>
      </trkpt>
      <trkpt lat="37.7378273010254" lon="128.732315063477">
        <ele>968.33026</ele>
      </trkpt>
      <trkpt lat="37.7378540039063" lon="128.733276367188">
        <ele>980.19525</ele>
      </trkpt>
      <trkpt lat="37.7374725341797" lon="128.733215332031">
        <ele>986.54114</ele>
      </trkpt>
      <trkpt lat="37.7373008728027" lon="128.733474731445">
        <ele>988.8583</ele>
      </trkpt>
      <trkpt lat="37.7373734275293" lon="128.734155893326">
        <ele>995</ele>
      </trkpt>
      <trkpt lat="37.7373437313319" lon="128.734810352325">
        <ele>1000</ele>
      </trkpt>
      <trkpt lat="37.7371697962225" lon="128.735148310661">
        <ele>1001</ele>
      </trkpt>
      <trkpt lat="37.7369117736816" lon="128.735458374023">
        <ele>1016.73804</ele>
      </trkpt>
      <trkpt lat="37.7368278503418" lon="128.735931396484">
        <ele>1017.3331</ele>
      </trkpt>
      <trkpt lat="37.7365379333496" lon="128.736465454102">
        <ele>1014.4736</ele>
      </trkpt>
      <trkpt lat="37.7367706298828" lon="128.737228393555">
        <ele>1012.9832</ele>
      </trkpt>
      <trkpt lat="37.7361755371094" lon="128.738098144531">
        <ele>1009.76025</ele>
      </trkpt>
      <trkpt lat="37.7360877990723" lon="128.738494873047">
        <ele>1008.3857</ele>
      </trkpt>
      <trkpt lat="37.7361755371094" lon="128.738922119141">
        <ele>1007.44305</ele>
      </trkpt>
      <trkpt lat="37.7357139587402" lon="128.73908996582">
        <ele>1005.2786</ele>
      </trkpt>
      <trkpt lat="37.7354583740234" lon="128.739654541016">
        <ele>1001.17615</ele>
      </trkpt>
      <trkpt lat="37.7350740581459" lon="128.739826083183">
        <ele>992</ele>
      </trkpt>
      <trkpt lat="37.7347564697266" lon="128.740173339844">
        <ele>1006.42145</ele>
      </trkpt>
      <trkpt lat="37.7343613239864" lon="128.740131855011">
        <ele>995</ele>
      </trkpt>
      <trkpt lat="37.7343019291634" lon="128.740233778954">
        <ele>996</ele>
      </trkpt>
      <trkpt lat="37.7343215942383" lon="128.740463256836">
        <ele>1013.0833</ele>
      </trkpt>
      <trkpt lat="37.7341842651367" lon="128.74055480957">
        <ele>1013.2939</ele>
      </trkpt>
      <trkpt lat="37.7339096069336" lon="128.740493774414">
        <ele>1012.11426</ele>
      </trkpt>
      <trkpt lat="37.7338246476061" lon="128.740354478359">
        <ele>999</ele>
      </trkpt>
      <trkpt lat="37.7337228271423" lon="128.7401881814">
        <ele>1000</ele>
      </trkpt>
      <trkpt lat="37.7336719168579" lon="128.739984333515">
        <ele>998</ele>
      </trkpt>
      <trkpt lat="37.7336188852744" lon="128.739839494228">
        <ele>998</ele>
      </trkpt>
      <trkpt lat="37.7335679749186" lon="128.739724159241">
        <ele>996</ele>
      </trkpt>
      <trkpt lat="37.7335022156571" lon="128.73959004879">
        <ele>995</ele>
      </trkpt>
      <trkpt lat="37.7334343350679" lon="128.739488124847">
        <ele>993</ele>
      </trkpt>
      <trkpt lat="37.7333537267874" lon="128.73939961195">
        <ele>992</ele>
      </trkpt>
      <trkpt lat="37.7332582694996" lon="128.739391565323">
        <ele>993</ele>
      </trkpt>
      <trkpt lat="37.7331055375832" lon="128.739482760429">
        <ele>997</ele>
      </trkpt>
      <trkpt lat="37.7330122012569" lon="128.739595413208">
        <ele>1000</ele>
      </trkpt>
      <trkpt lat="37.7329931097212" lon="128.739796578884">
        <ele>1003</ele>
      </trkpt>
      <trkpt lat="37.7330291715068" lon="128.74016135931">
        <ele>1006</ele>
      </trkpt>
      <trkpt lat="37.7330482630333" lon="128.740338385105">
        <ele>1007</ele>
      </trkpt>
      <trkpt lat="37.7330291715068" lon="128.740493953228">
        <ele>1007</ele>
      </trkpt>
      <trkpt lat="37.7329803820279" lon="128.740601241589">
        <ele>1006</ele>
      </trkpt>
      <trkpt lat="37.7329612904839" lon="128.740711212158">
        <ele>1007</ele>
      </trkpt>
      <trkpt lat="37.7329718968978" lon="128.741003572941">
        <ele>1012</ele>
      </trkpt>
      <trkpt lat="37.732976139463" lon="128.741298615932">
        <ele>1019</ele>
      </trkpt>
      <trkpt lat="37.7329803820279" lon="128.741540014744">
        <ele>1023</ele>
      </trkpt>
      <trkpt lat="37.732988867157" lon="128.741706311703">
        <ele>1025</ele>
      </trkpt>
      <trkpt lat="37.7330482630333" lon="128.741848468781">
        <ele>1026</ele>
      </trkpt>
      <trkpt lat="37.7332561482252" lon="128.74198526144">
        <ele>1028</ele>
      </trkpt>
      <trkpt lat="37.7334767604435" lon="128.742108643055">
        <ele>1027</ele>
      </trkpt>
      <trkpt lat="37.7336502075195" lon="128.742279052734">
        <ele>1041.0472</ele>
      </trkpt>
      <trkpt lat="37.7336349487305" lon="128.742752075195">
        <ele>1041.1158</ele>
      </trkpt>
      <trkpt lat="37.7337760925293" lon="128.743057250977">
        <ele>1042.4271</ele>
      </trkpt>
      <trkpt lat="37.7345437506449" lon="128.743516802788">
        <ele>1041</ele>
      </trkpt>
      <trkpt lat="37.7347176919238" lon="128.744259774685">
        <ele>1031</ele>
      </trkpt>
      <trkpt lat="37.7346964795946" lon="128.744377791882">
        <ele>1029</ele>
      </trkpt>
      <trkpt lat="37.7346498124489" lon="128.744493126869">
        <ele>1027</ele>
      </trkpt>
      <trkpt lat="37.7346243576298" lon="128.744511902332">
        <ele>1026</ele>
      </trkpt>
      <trkpt lat="37.7345670842548" lon="128.744485080242">
        <ele>1027</ele>
      </trkpt>
      <trkpt lat="37.7344504161316" lon="128.744407296181">
        <ele>1028</ele>
      </trkpt>
      <trkpt lat="37.7343358690681" lon="128.744278550148">
        <ele>1028</ele>
      </trkpt>
      <trkpt lat="37.7342064730981" lon="128.74416321516">
        <ele>1028</ele>
      </trkpt>
      <trkpt lat="37.7340664706463" lon="128.744096159935">
        <ele>1026</ele>
      </trkpt>
      <trkpt lat="37.7327046148036" lon="128.74367505312">
        <ele>993</ele>
      </trkpt>
      <trkpt lat="37.732564609512" lon="128.743680417538">
        <ele>992</ele>
      </trkpt>
      <trkpt lat="37.7324479382335" lon="128.743717968464">
        <ele>992</ele>
      </trkpt>
      <trkpt lat="37.732369450179" lon="128.74375551939">
        <ele>991</ele>
      </trkpt>
      <trkpt lat="37.7322824768323" lon="128.743825256824">
        <ele>991</ele>
      </trkpt>
      <trkpt lat="37.7321212576756" lon="128.743994235992">
        <ele>991</ele>
      </trkpt>
      <trkpt lat="37.7318963987918" lon="128.744238317013">
        <ele>990</ele>
      </trkpt>
      <trkpt lat="37.7317691198757" lon="128.744267821312">
        <ele>990</ele>
      </trkpt>
      <trkpt lat="37.7311199940004" lon="128.743693828583">
        <ele>987</ele>
      </trkpt>
      <trkpt lat="37.7307014465332" lon="128.743148803711">
        <ele>999.95966</ele>
      </trkpt>
      <trkpt lat="37.7305323816835" lon="128.743055462837">
        <ele>976</ele>
      </trkpt>
      <trkpt lat="37.7303457024263" lon="128.743007183075">
        <ele>973</ele>
      </trkpt>
      <trkpt lat="37.7301017458695" lon="128.743114471436">
        <ele>973</ele>
      </trkpt>
      <trkpt lat="37.7298683953674" lon="128.743213713169">
        <ele>976</ele>
      </trkpt>
      <trkpt lat="37.7289201362166" lon="128.742843568325">
        <ele>988</ele>
      </trkpt>
      <trkpt lat="37.7286719321519" lon="128.742781877518">
        <ele>992</ele>
      </trkpt>
      <trkpt lat="37.7284576698544" lon="128.742779195309">
        <ele>994</ele>
      </trkpt>
      <trkpt lat="37.7283240207806" lon="128.742865025997">
        <ele>997</ele>
      </trkpt>
      <trkpt lat="37.7282115856588" lon="128.743031322956">
        <ele>1001</ele>
      </trkpt>
      <trkpt lat="37.7280158996582" lon="128.743316650391">
        <ele>1025.933</ele>
      </trkpt>
      <trkpt lat="37.7272781554143" lon="128.744696974754">
        <ele>1034</ele>
      </trkpt>
      <trkpt lat="37.7269026585659" lon="128.745348751545">
        <ele>1041</ele>
      </trkpt>
      <trkpt lat="37.7267223345439" lon="128.745485544205">
        <ele>1041</ele>
      </trkpt>
      <trkpt lat="37.7264359366654" lon="128.745391666889">
        <ele>1042</ele>
      </trkpt>
      <trkpt lat="37.7260073985122" lon="128.745437264442">
        <ele>1051</ele>
      </trkpt>
      <trkpt lat="37.7259119317542" lon="128.74541580677">
        <ele>1054</ele>
      </trkpt>
      <trkpt lat="37.7258207078483" lon="128.745351433754">
        <ele>1059</ele>
      </trkpt>
      <trkpt lat="37.7254486083984" lon="128.744812011719">
        <ele>1091.4458</ele>
      </trkpt>
      <trkpt lat="37.7250484823756" lon="128.743913769722">
        <ele>1085</ele>
      </trkpt>
      <trkpt lat="37.7247366198062" lon="128.743192255497">
        <ele>1085</ele>
      </trkpt>
      <trkpt lat="37.7244820371434" lon="128.742961585522">
        <ele>1085</ele>
      </trkpt>
      <trkpt lat="37.7242465474013" lon="128.742881119251">
        <ele>1087</ele>
      </trkpt>
      <trkpt lat="37.7240295410156" lon="128.742767333984">
        <ele>1111.0364</ele>
      </trkpt>
      <trkpt lat="37.721565246582" lon="128.742965698242">
        <ele>1106.9445</ele>
      </trkpt>
      <trkpt lat="37.7209358215332" lon="128.74267578125">
        <ele>1105.4226</ele>
      </trkpt>
      <trkpt lat="37.7207671522483" lon="128.742771148682">
        <ele>1097</ele>
      </trkpt>
      <trkpt lat="37.7206759220059" lon="128.742827475071">
        <ele>1094</ele>
      </trkpt>
      <trkpt lat="37.7205889349259" lon="128.742897212505">
        <ele>1092</ele>
      </trkpt>
      <trkpt lat="37.7203216552734" lon="128.743255615234">
        <ele>1096.1012</ele>
      </trkpt>
      <trkpt lat="37.7198590880845" lon="128.74329417944">
        <ele>1075</ele>
      </trkpt>
      <trkpt lat="37.7192989681898" lon="128.743573129177">
        <ele>1071</ele>
      </trkpt>
      <trkpt lat="37.7189297959438" lon="128.743667006493">
        <ele>1072</ele>
      </trkpt>
      <trkpt lat="37.7187261139171" lon="128.743785023689">
        <ele>1073</ele>
      </trkpt>
      <trkpt lat="37.7182731628418" lon="128.743743896484">
        <ele>1076.3579</ele>
      </trkpt>
      <trkpt lat="37.7180726303008" lon="128.743768930435">
        <ele>1062</ele>
      </trkpt>
      <trkpt lat="37.7178192138672" lon="128.743957519531">
        <ele>1069.6592</ele>
      </trkpt>
      <trkpt lat="37.7172431945801" lon="128.743682861328">
        <ele>1062.2811</ele>
      </trkpt>
      <trkpt lat="37.7171390722782" lon="128.743699193001">
        <ele>1050</ele>
      </trkpt>
      <trkpt lat="37.7170075245204" lon="128.743790388107">
        <ele>1047</ele>
      </trkpt>
      <trkpt lat="37.716973576674" lon="128.744047880173">
        <ele>1050</ele>
      </trkpt>
      <trkpt lat="37.7169162896479" lon="128.744222223759">
        <ele>1051</ele>
      </trkpt>
      <trkpt lat="37.7166001493369" lon="128.744222223759">
        <ele>1046</ele>
      </trkpt>
      <trkpt lat="37.7163179558392" lon="128.744257092476">
        <ele>1042</ele>
      </trkpt>
      <trkpt lat="37.7161483764648" lon="128.744064331055">
        <ele>1043.9175</ele>
      </trkpt>
      <trkpt lat="37.7159890823617" lon="128.74399960041">
        <ele>1034</ele>
      </trkpt>
      <trkpt lat="37.7158426801505" lon="128.744013011456">
        <ele>1030</ele>
      </trkpt>
      <trkpt lat="37.7154798560324" lon="128.744208812714">
        <ele>1027</ele>
      </trkpt>
      <trkpt lat="37.715163709592" lon="128.744224905968">
        <ele>1020</ele>
      </trkpt>
      <trkpt lat="37.7148878760253" lon="128.744321465492">
        <ele>1016</ele>
      </trkpt>
      <trkpt lat="37.7146502339752" lon="128.744404613972">
        <ele>1011</ele>
      </trkpt>
      <trkpt lat="37.7144720019374" lon="128.744782805443">
        <ele>1012</ele>
      </trkpt>
      <trkpt lat="37.7143871293877" lon="128.744884729385">
        <ele>1011</ele>
      </trkpt>
      <trkpt lat="37.7142767949278" lon="128.744941055775">
        <ele>1009</ele>
      </trkpt>
      <trkpt lat="37.7140960693359" lon="128.7451171875">
        <ele>1013.3729</ele>
      </trkpt>
      <trkpt lat="37.7140197753906" lon="128.745101928711">
        <ele>1013.71</ele>
      </trkpt>
      <trkpt lat="37.7139472961426" lon="128.745086669922">
        <ele>1014.0786</ele>
      </trkpt>
      <trkpt lat="37.7137222290039" lon="128.74462890625">
        <ele>1008.01184</ele>
      </trkpt>
      <trkpt lat="37.7134857177734" lon="128.744583129883">
        <ele>1004.5835</ele>
      </trkpt>
      <trkpt lat="37.7129440307617" lon="128.744644165039">
        <ele>1001.0182</ele>
      </trkpt>
      <trkpt lat="37.7121353149414" lon="128.745025634766">
        <ele>997.1001</ele>
      </trkpt>
      <trkpt lat="37.7118721008301" lon="128.744979858398">
        <ele>993.8244</ele>
      </trkpt>
      <trkpt lat="37.7114753723145" lon="128.7451171875">
        <ele>989.9906</ele>
      </trkpt>
      <trkpt lat="37.7111206054688" lon="128.746124267578">
        <ele>988.8846</ele>
      </trkpt>
      <trkpt lat="37.7107467651367" lon="128.746292114258">
        <ele>983.1338</ele>
      </trkpt>
      <trkpt lat="37.7106475830078" lon="128.746673583984">
        <ele>983.2234</ele>
      </trkpt>
      <trkpt lat="37.7101249694824" lon="128.747360229492">
        <ele>982.4335</ele>
      </trkpt>
      <trkpt lat="37.7096099853516" lon="128.747573852539">
        <ele>978.4521</ele>
      </trkpt>
      <trkpt lat="37.7090187072754" lon="128.747543334961">
        <ele>976.01904</ele>
      </trkpt>
      <trkpt lat="37.7082939147949" lon="128.747787475586">
        <ele>971.23206</ele>
      </trkpt>
      <trkpt lat="37.70703125" lon="128.74787902832">
        <ele>954.7116</ele>
      </trkpt>
      <trkpt lat="37.7067794799805" lon="128.748016357422">
        <ele>950.8304</ele>
      </trkpt>
      <trkpt lat="37.7064971923828" lon="128.748611450195">
        <ele>944.95844</ele>
      </trkpt>
      <trkpt lat="37.7062034606934" lon="128.748809814453">
        <ele>935.77924</ele>
      </trkpt>
      <trkpt lat="37.7049446105957" lon="128.748825073242">
        <ele>926.4</ele>
      </trkpt>
      <trkpt lat="37.7044448852539" lon="128.7490234375">
        <ele>924.4251</ele>
      </trkpt>
      <trkpt lat="37.7038269042969" lon="128.749069213867">
        <ele>922.1237</ele>
      </trkpt>
      <trkpt lat="37.7034187316895" lon="128.748840332031">
        <ele>917.758</ele>
      </trkpt>
      <trkpt lat="37.7031211853027" lon="128.748352050781">
        <ele>912.26526</ele>
      </trkpt>
      <trkpt lat="37.7025184631348" lon="128.748291015625">
        <ele>908.7631</ele>
      </trkpt>
      <trkpt lat="37.7018051147461" lon="128.747940063477">
        <ele>902.75433</ele>
      </trkpt>
      <trkpt lat="37.7006607055664" lon="128.74787902832">
        <ele>895.7764</ele>
      </trkpt>
      <trkpt lat="37.6999206542969" lon="128.747634887695">
        <ele>892.96954</ele>
      </trkpt>
      <trkpt lat="37.6992416381836" lon="128.747848510742">
        <ele>895.31305</ele>
      </trkpt>
      <trkpt lat="37.6989860534668" lon="128.747421264648">
        <ele>892.959</ele>
      </trkpt>
      <trkpt lat="37.6986427307129" lon="128.747283935547">
        <ele>892.8642</ele>
      </trkpt>
      <trkpt lat="37.6973037719727" lon="128.74723815918">
        <ele>890.289</ele>
      </trkpt>
      <trkpt lat="37.6969375610352" lon="128.74690246582">
        <ele>887.6822</ele>
      </trkpt>
      <trkpt lat="37.6970367431641" lon="128.746627807617">
        <ele>884.1274</ele>
      </trkpt>
      <trkpt lat="37.6969604492188" lon="128.74609375">
        <ele>882.08936</ele>
      </trkpt>
      <trkpt lat="37.6965217590332" lon="128.745208740234">
        <ele>877.79205</ele>
      </trkpt>
      <trkpt lat="37.6964950561523" lon="128.744812011719">
        <ele>873.12085</ele>
      </trkpt>
      <trkpt lat="37.6955184936523" lon="128.743988037109">
        <ele>867.7018</ele>
      </trkpt>
      <trkpt lat="37.6950950622559" lon="128.743347167969">
        <ele>861.93524</ele>
      </trkpt>
      <trkpt lat="37.6949424743652" lon="128.74284362793">
        <ele>858.2646</ele>
      </trkpt>
      <trkpt lat="37.6946640014648" lon="128.742523193359">
        <ele>855.3998</ele>
      </trkpt>
      <trkpt lat="37.6942977905273" lon="128.742584228516">
        <ele>850.66534</ele>
      </trkpt>
      <trkpt lat="37.6940155029297" lon="128.742477416992">
        <ele>845.38324</ele>
      </trkpt>
      <trkpt lat="37.6935195922852" lon="128.742492675781">
        <ele>841.265</ele>
      </trkpt>
      <trkpt lat="37.6933975219727" lon="128.742385864258">
        <ele>839.5851</ele>
      </trkpt>
      <trkpt lat="37.6927337646484" lon="128.742401123047">
        <ele>835.10345</ele>
      </trkpt>
      <trkpt lat="37.6923217773438" lon="128.742218017578">
        <ele>828.3678</ele>
      </trkpt>
      <trkpt lat="37.6918144226074" lon="128.741729736328">
        <ele>818.741</ele>
      </trkpt>
      <trkpt lat="37.6915397644043" lon="128.741622924805">
        <ele>810.2202</ele>
      </trkpt>
      <trkpt lat="37.6912422180176" lon="128.741790771484">
        <ele>803.38446</ele>
      </trkpt>
      <trkpt lat="37.6909828186035" lon="128.741577148438">
        <ele>799.17145</ele>
      </trkpt>
      <trkpt lat="37.6908149719238" lon="128.741592407227">
        <ele>797.70746</ele>
      </trkpt>
      <trkpt lat="37.6903038024902" lon="128.742095947266">
        <ele>793.5155</ele>
      </trkpt>
      <trkpt lat="37.6889915466309" lon="128.741958618164">
        <ele>791.36676</ele>
      </trkpt>
      <trkpt lat="37.687671661377" lon="128.742080688477">
        <ele>787.90155</ele>
      </trkpt>
      <trkpt lat="37.6865158081055" lon="128.740768432617">
        <ele>782.6827</ele>
      </trkpt>
      <trkpt lat="37.686164855957" lon="128.740600585938">
        <ele>781.661</ele>
      </trkpt>
      <trkpt lat="37.6850242614746" lon="128.741088867188">
        <ele>781.166</ele>
      </trkpt>
      <trkpt lat="37.6844465175989" lon="128.740231096745">
        <ele>771</ele>
      </trkpt>
      <trkpt lat="37.6837906090279" lon="128.740628063679">
        <ele>775</ele>
      </trkpt>
      <trkpt lat="37.6835273948962" lon="128.740727305412">
        <ele>783</ele>
      </trkpt>
      <trkpt lat="37.6828226556872" lon="128.740421533585">
        <ele>777</ele>
      </trkpt>
      <trkpt lat="37.6825191063142" lon="128.741462230682">
        <ele>790</ele>
      </trkpt>
      <trkpt lat="37.6818207257677" lon="128.740641474724">
        <ele>793</ele>
      </trkpt>
      <trkpt lat="37.6813324923014" lon="128.740561008453">
        <ele>799</ele>
      </trkpt>
      <trkpt lat="37.681166916744" lon="128.740274012089">
        <ele>794</ele>
      </trkpt>
      <trkpt lat="37.6811159703443" lon="128.739946782589">
        <ele>794</ele>
      </trkpt>
      <trkpt lat="37.6810119546696" lon="128.739665150642">
        <ele>795</ele>
      </trkpt>
      <trkpt lat="37.6810607783718" lon="128.739370107651">
        <ele>789</ele>
      </trkpt>
      <trkpt lat="37.6812645639123" lon="128.739278912544">
        <ele>786</ele>
      </trkpt>
      <trkpt lat="37.6813961751096" lon="128.739206492901">
        <ele>785</ele>
      </trkpt>
      <trkpt lat="37.6814258937348" lon="128.739123344421">
        <ele>783</ele>
      </trkpt>
      <trkpt lat="37.681374947513" lon="128.738747835159">
        <ele>783</ele>
      </trkpt>
      <trkpt lat="37.6811796533384" lon="128.738522529602">
        <ele>789</ele>
      </trkpt>
      <trkpt lat="37.6810544100647" lon="128.738375008106">
        <ele>793</ele>
      </trkpt>
      <trkpt lat="37.6807720812312" lon="128.738297224045">
        <ele>795</ele>
      </trkpt>
      <trkpt lat="37.6804579095368" lon="128.738329410553">
        <ele>792</ele>
      </trkpt>
      <trkpt lat="37.6803220510948" lon="128.73814702034">
        <ele>787</ele>
      </trkpt>
      <trkpt lat="37.6802392622346" lon="128.738071918488">
        <ele>785</ele>
      </trkpt>
      <trkpt lat="37.6800758070344" lon="128.738104104996">
        <ele>791</ele>
      </trkpt>
      <trkpt lat="37.6796257726741" lon="128.737578392029">
        <ele>789</ele>
      </trkpt>
      <trkpt lat="37.679574825216" lon="128.737133145332">
        <ele>779</ele>
      </trkpt>
      <trkpt lat="37.6797913516713" lon="128.736779093742">
        <ele>768</ele>
      </trkpt>
      <trkpt lat="37.6797849832551" lon="128.736309707165">
        <ele>764</ele>
      </trkpt>
      <trkpt lat="37.6782455444336" lon="128.734954833984">
        <ele>768.6796</ele>
      </trkpt>
      <trkpt lat="37.6774711608887" lon="128.733963012695">
        <ele>768.074</ele>
      </trkpt>
      <trkpt lat="37.677059173584" lon="128.73274230957">
        <ele>768.81647</ele>
      </trkpt>
      <trkpt lat="37.6765289306641" lon="128.732208251953">
        <ele>768.8955</ele>
      </trkpt>
      <trkpt lat="37.6761016845703" lon="128.731475830078">
        <ele>768.44257</ele>
      </trkpt>
      <trkpt lat="37.6754760742188" lon="128.729797363281">
        <ele>765.04584</ele>
      </trkpt>
      <trkpt lat="37.6753082275391" lon="128.728851318359">
        <ele>764.5771</ele>
      </trkpt>
      <trkpt lat="37.6752662658691" lon="128.727752685547">
        <ele>764.1032</ele>
      </trkpt>
      <trkpt lat="37.6750907897949" lon="128.727066040039">
        <ele>762.86554</ele>
      </trkpt>
      <trkpt lat="37.674015045166" lon="128.725524902344">
        <ele>758.89484</ele>
      </trkpt>
      <trkpt lat="37.673469543457" lon="128.724365234375">
        <ele>754.87134</ele>
      </trkpt>
      <trkpt lat="37.6734504699707" lon="128.723983764648">
        <ele>754.05505</ele>
      </trkpt>
      <trkpt lat="37.6731071472168" lon="128.72380065918">
        <ele>753.7022</ele>
      </trkpt>
      <trkpt lat="37.6728324890137" lon="128.723266601562">
        <ele>752.7069</ele>
      </trkpt>
      <trkpt lat="37.6726036071777" lon="128.722534179688">
        <ele>750.8637</ele>
      </trkpt>
      <trkpt lat="37.6726493835449" lon="128.721939086914">
        <ele>750.68463</ele>
      </trkpt>
      <trkpt lat="37.6723556518555" lon="128.721557617188">
        <ele>751.9749</ele>
      </trkpt>
      <trkpt lat="37.671272277832" lon="128.71745300293">
        <ele>750.58984</ele>
      </trkpt>
      <trkpt lat="37.6684207353226" lon="128.712118864059">
        <ele>733</ele>
      </trkpt>
      <trkpt lat="37.6681404815529" lon="128.708910942078">
        <ele>732</ele>
      </trkpt>
      <trkpt lat="37.6681744517632" lon="128.708154559135">
        <ele>737</ele>
      </trkpt>
      <trkpt lat="37.6682806085701" lon="128.707408905029">
        <ele>740</ele>
      </trkpt>
      <trkpt lat="37.6681976318359" lon="128.707305908203">
        <ele>745.3183</ele>
      </trkpt>
      <trkpt lat="37.6671600341797" lon="128.70735168457">
        <ele>747.20886</ele>
      </trkpt>
      <trkpt lat="37.6666330378185" lon="128.706947565079">
        <ele>740</ele>
      </trkpt>
      <trkpt lat="37.6663436889648" lon="128.706604003906">
        <ele>747.41956</ele>
      </trkpt>
      <trkpt lat="37.666267849659" lon="128.70637357235">
        <ele>732</ele>
      </trkpt>
      <trkpt lat="37.6662381249623" lon="128.706250190735">
        <ele>731</ele>
      </trkpt>
      <trkpt lat="37.666412226588" lon="128.706185817718">
        <ele>732</ele>
      </trkpt>
      <trkpt lat="37.6665905741714" lon="128.706228733063">
        <ele>733</ele>
      </trkpt>
      <trkpt lat="37.6666670087188" lon="128.706201910973">
        <ele>733</ele>
      </trkpt>
      <trkpt lat="37.6673316955566" lon="128.705947875977">
        <ele>747.9409</ele>
      </trkpt>
    </trkseg>
  </trk>
</gpx>