<?xml version="1.0" encoding="utf-8"?>
<gpx xmlns:xsd="http://www.w3.org/2001/XMLSchema" xmlns:xsi="http://www.w3.org/2001/XMLSchema-instance" version="1.1" creator="ROUTEEDITOR1" xmlns="http://www.topografix.com/GPX/1/1">
  <metadata>
    <desc>Created/Modified by using GPS Route Editor.</desc>
    <link href="http://www.gpsnote.net">
      <text>GpsNote.NET</text>
    </link>
  </metadata>
  <trk>
    <trkseg>
      <trkpt lat="37.6664461975893" lon="128.707065582275">
        <ele>735</ele>
      </trkpt>
      <trkpt lat="37.6658856740796" lon="128.706614971161">
        <ele>730</ele>
      </trkpt>
      <trkpt lat="37.6656691070444" lon="128.706620335579">
        <ele>728</ele>
      </trkpt>
      <trkpt lat="37.6657094480107" lon="128.706443309784">
        <ele>728</ele>
      </trkpt>
      <trkpt lat="37.6657837602594" lon="128.706287741661">
        <ele>728</ele>
      </trkpt>
      <trkpt lat="37.6657412961264" lon="128.706158995628">
        <ele>727</ele>
      </trkpt>
      <trkpt lat="37.6656351356875" lon="128.706078529358">
        <ele>727</ele>
      </trkpt>
      <trkpt lat="37.6655374679496" lon="128.70612680912">
        <ele>727</ele>
      </trkpt>
      <trkpt lat="37.6654695250996" lon="128.70637357235">
        <ele>726</ele>
      </trkpt>
      <trkpt lat="37.665363364272" lon="128.70675444603">
        <ele>725</ele>
      </trkpt>
      <trkpt lat="37.6653293927751" lon="128.70686173439">
        <ele>725</ele>
      </trkpt>
      <trkpt lat="37.6652656961765" lon="128.706947565079">
        <ele>725</ele>
      </trkpt>
      <trkpt lat="37.6651043312154" lon="128.706985116005">
        <ele>726</ele>
      </trkpt>
      <trkpt lat="37.6650066627791" lon="128.707065582275">
        <ele>727</ele>
      </trkpt>
      <trkpt lat="37.6649896769509" lon="128.707194328308">
        <ele>728</ele>
      </trkpt>
      <trkpt lat="37.6653803500146" lon="128.708310127258">
        <ele>734</ele>
      </trkpt>
      <trkpt lat="37.6658007459058" lon="128.709345459938">
        <ele>732</ele>
      </trkpt>
      <trkpt lat="37.6653785705566" lon="128.709747314453">
        <ele>710.6044</ele>
      </trkpt>
      <trkpt lat="37.6652374267578" lon="128.710296630859">
        <ele>712.26666</ele>
      </trkpt>
      <trkpt lat="37.6652412414551" lon="128.711303710938">
        <ele>712.7588</ele>
      </trkpt>
      <trkpt lat="37.6648559570313" lon="128.712844848633">
        <ele>718.49475</ele>
      </trkpt>
      <trkpt lat="37.6640357971191" lon="128.713897705078">
        <ele>723.6238</ele>
      </trkpt>
      <trkpt lat="37.6628875732422" lon="128.714172363281">
        <ele>729.4035</ele>
      </trkpt>
      <trkpt lat="37.661808013916" lon="128.714874267578">
        <ele>734.702</ele>
      </trkpt>
      <trkpt lat="37.6611480712891" lon="128.715744018555">
        <ele>746.4091</ele>
      </trkpt>
      <trkpt lat="37.6604385375977" lon="128.715896606445">
        <ele>753.0965</ele>
      </trkpt>
      <trkpt lat="37.6596794128418" lon="128.716552734375">
        <ele>762.075</ele>
      </trkpt>
      <trkpt lat="37.6579627990723" lon="128.717681884766">
        <ele>776.5216</ele>
      </trkpt>
      <trkpt lat="37.6575698852539" lon="128.718246459961">
        <ele>778.39166</ele>
      </trkpt>
      <trkpt lat="37.6570663452148" lon="128.718063354492">
        <ele>788.2286</ele>
      </trkpt>
      <trkpt lat="37.6566276550293" lon="128.718307495117">
        <ele>795.28784</ele>
      </trkpt>
      <trkpt lat="37.6562919616699" lon="128.718826293945">
        <ele>813.19025</ele>
      </trkpt>
      <trkpt lat="37.6560134887695" lon="128.718811035156">
        <ele>823.40454</ele>
      </trkpt>
      <trkpt lat="37.6555633544922" lon="128.719100952148">
        <ele>838.4745</ele>
      </trkpt>
      <trkpt lat="37.6551551818848" lon="128.718322753906">
        <ele>855.61127</ele>
      </trkpt>
      <trkpt lat="37.6548652648926" lon="128.71809387207">
        <ele>861.7081</ele>
      </trkpt>
      <trkpt lat="37.6543617248535" lon="128.718002319336">
        <ele>878.0521</ele>
      </trkpt>
      <trkpt lat="37.6538772583008" lon="128.718170166016">
        <ele>883.35065</ele>
      </trkpt>
      <trkpt lat="37.6538352966309" lon="128.71728515625">
        <ele>899.536</ele>
      </trkpt>
      <trkpt lat="37.6534881591797" lon="128.717727661133">
        <ele>908.45984</ele>
      </trkpt>
      <trkpt lat="37.6531181335449" lon="128.717880249023">
        <ele>921.91675</ele>
      </trkpt>
      <trkpt lat="37.653247833252" lon="128.71842956543">
        <ele>941.2407</ele>
      </trkpt>
      <trkpt lat="37.6530838012695" lon="128.71940612793">
        <ele>965.4532</ele>
      </trkpt>
      <trkpt lat="37.6522254943848" lon="128.720016479492">
        <ele>966.9569</ele>
      </trkpt>
      <trkpt lat="37.652027130127" lon="128.721267700195">
        <ele>954.26013</ele>
      </trkpt>
      <trkpt lat="37.6518173217773" lon="128.721618652344">
        <ele>952.44476</ele>
      </trkpt>
      <trkpt lat="37.6518020629883" lon="128.722549438477">
        <ele>951.30194</ele>
      </trkpt>
      <trkpt lat="37.6514511108398" lon="128.723037719727">
        <ele>962.60986</ele>
      </trkpt>
      <trkpt lat="37.6507110595703" lon="128.723342895508">
        <ele>967.64594</ele>
      </trkpt>
      <trkpt lat="37.6500205993652" lon="128.724136352539">
        <ele>980.217</ele>
      </trkpt>
      <trkpt lat="37.649959564209" lon="128.724380493164">
        <ele>984.87573</ele>
      </trkpt>
      <trkpt lat="37.650218963623" lon="128.724807739258">
        <ele>991.9021</ele>
      </trkpt>
      <trkpt lat="37.6509895324707" lon="128.724868774414">
        <ele>987.9268</ele>
      </trkpt>
      <trkpt lat="37.6508827209473" lon="128.725540161133">
        <ele>979.1999</ele>
      </trkpt>
      <trkpt lat="37.6510238647461" lon="128.726135253906">
        <ele>968.06696</ele>
      </trkpt>
      <trkpt lat="37.6507835388184" lon="128.726593017578">
        <ele>971.5829</ele>
      </trkpt>
      <trkpt lat="37.6508598327637" lon="128.727172851562">
        <ele>977.46106</ele>
      </trkpt>
      <trkpt lat="37.6510810852051" lon="128.727157592773">
        <ele>982.32214</ele>
      </trkpt>
      <trkpt lat="37.6516342163086" lon="128.726455688477">
        <ele>977.8876</ele>
      </trkpt>
      <trkpt lat="37.652416229248" lon="128.72575378418">
        <ele>977.1166</ele>
      </trkpt>
      <trkpt lat="37.6534385681152" lon="128.725708007812">
        <ele>962.2435</ele>
      </trkpt>
      <trkpt lat="37.653881072998" lon="128.72477722168">
        <ele>969.07855</ele>
      </trkpt>
      <trkpt lat="37.6540145874023" lon="128.725341796875">
        <ele>966.86395</ele>
      </trkpt>
      <trkpt lat="37.6545219421387" lon="128.725723266602">
        <ele>961.99744</ele>
      </trkpt>
      <trkpt lat="37.6546287536621" lon="128.725967407227">
        <ele>958.77673</ele>
      </trkpt>
      <trkpt lat="37.6542892456055" lon="128.727340698242">
        <ele>948.3547</ele>
      </trkpt>
      <trkpt lat="37.6546516418457" lon="128.727478027344">
        <ele>952.4885</ele>
      </trkpt>
      <trkpt lat="37.6553649902344" lon="128.727416992188">
        <ele>955.8513</ele>
      </trkpt>
      <trkpt lat="37.6557998657227" lon="128.72802734375">
        <ele>949.32794</ele>
      </trkpt>
      <trkpt lat="37.6561088562012" lon="128.727828979492">
        <ele>952.61975</ele>
      </trkpt>
      <trkpt lat="37.6561164855957" lon="128.727111816406">
        <ele>944.3904</ele>
      </trkpt>
      <trkpt lat="37.6563148498535" lon="128.726043701172">
        <ele>956.58954</ele>
      </trkpt>
      <trkpt lat="37.6567649841309" lon="128.724655151367">
        <ele>980.43024</ele>
      </trkpt>
      <trkpt lat="37.6575355529785" lon="128.726409912109">
        <ele>987.4675</ele>
      </trkpt>
      <trkpt lat="37.6577529907227" lon="128.726547241211">
        <ele>986.4341</ele>
      </trkpt>
      <trkpt lat="37.6581115722656" lon="128.726303100586">
        <ele>983.8587</ele>
      </trkpt>
      <trkpt lat="37.6583137512207" lon="128.726303100586">
        <ele>979.9708</ele>
      </trkpt>
      <trkpt lat="37.6585006713867" lon="128.72688293457">
        <ele>970.7627</ele>
      </trkpt>
      <trkpt lat="37.6588745117188" lon="128.727493286133">
        <ele>965.065</ele>
      </trkpt>
      <trkpt lat="37.6588325500488" lon="128.728149414062">
        <ele>960.6742</ele>
      </trkpt>
      <trkpt lat="37.6589622497559" lon="128.728439331055">
        <ele>958.4104</ele>
      </trkpt>
      <trkpt lat="37.6593589782715" lon="128.728729248047">
        <ele>956.86835</ele>
      </trkpt>
      <trkpt lat="37.6594123840332" lon="128.729232788086">
        <ele>950.0443</ele>
      </trkpt>
      <trkpt lat="37.6592254638672" lon="128.729858398438">
        <ele>944.5052</ele>
      </trkpt>
      <trkpt lat="37.6594467163086" lon="128.730285644531">
        <ele>931.2069</ele>
      </trkpt>
      <trkpt lat="37.6592903137207" lon="128.73078918457">
        <ele>922.49084</ele>
      </trkpt>
      <trkpt lat="37.6597862243652" lon="128.730651855469">
        <ele>916.2409</ele>
      </trkpt>
      <trkpt lat="37.6599349975586" lon="128.73046875">
        <ele>920.11224</ele>
      </trkpt>
      <trkpt lat="37.6605339050293" lon="128.730712890625">
        <ele>938.89496</ele>
      </trkpt>
      <trkpt lat="37.6606597900391" lon="128.730590820312">
        <ele>940.33856</ele>
      </trkpt>
      <trkpt lat="37.6608200073242" lon="128.73095703125">
        <ele>939.5949</ele>
      </trkpt>
      <trkpt lat="37.661808013916" lon="128.731689453125">
        <ele>929.4079</ele>
      </trkpt>
      <trkpt lat="37.6616668701172" lon="128.732635498047">
        <ele>909.4003</ele>
      </trkpt>
      <trkpt lat="37.6619110107422" lon="128.732727050781">
        <ele>902.3794</ele>
      </trkpt>
      <trkpt lat="37.6624336242676" lon="128.732452392578">
        <ele>890.6286</ele>
      </trkpt>
      <trkpt lat="37.6629447937012" lon="128.732360839844">
        <ele>884.13257</ele>
      </trkpt>
      <trkpt lat="37.6629981994629" lon="128.732299804688">
        <ele>882.28986</ele>
      </trkpt>
      <trkpt lat="37.6630439758301" lon="128.732238769531">
        <ele>881.6009</ele>
      </trkpt>
      <trkpt lat="37.663330078125" lon="128.732177734375">
        <ele>884.61926</ele>
      </trkpt>
      <trkpt lat="37.6636161804199" lon="128.732284545898">
        <ele>890.1474</ele>
      </trkpt>
      <trkpt lat="37.6641082763672" lon="128.732147216797">
        <ele>872.89575</ele>
      </trkpt>
      <trkpt lat="37.6642036437988" lon="128.731903076172">
        <ele>862.6377</ele>
      </trkpt>
      <trkpt lat="37.6646041870117" lon="128.732299804688">
        <ele>849.1699</ele>
      </trkpt>
      <trkpt lat="37.6647415161133" lon="128.731979370117">
        <ele>831.89087</ele>
      </trkpt>
      <trkpt lat="37.6650505065918" lon="128.732116699219">
        <ele>824.1591</ele>
      </trkpt>
      <trkpt lat="37.6657104492188" lon="128.731826782227">
        <ele>803.2329</ele>
      </trkpt>
      <trkpt lat="37.6664581298828" lon="128.731735229492">
        <ele>786.9601</ele>
      </trkpt>
      <trkpt lat="37.6669158935547" lon="128.731735229492">
        <ele>774.6569</ele>
      </trkpt>
      <trkpt lat="37.6672782897949" lon="128.732147216797">
        <ele>769.41315</ele>
      </trkpt>
      <trkpt lat="37.667594909668" lon="128.731979370117">
        <ele>771.2066</ele>
      </trkpt>
      <trkpt lat="37.6678695678711" lon="128.732788085938">
        <ele>782.9137</ele>
      </trkpt>
      <trkpt lat="37.6677436828613" lon="128.733520507812">
        <ele>777.4511</ele>
      </trkpt>
      <trkpt lat="37.6679801940918" lon="128.733505249023">
        <ele>780.40936</ele>
      </trkpt>
      <trkpt lat="37.6676712036133" lon="128.734359741211">
        <ele>785.6422</ele>
      </trkpt>
      <trkpt lat="37.6677207946777" lon="128.734664916992">
        <ele>783.9909</ele>
      </trkpt>
      <trkpt lat="37.6682090759277" lon="128.734573364258">
        <ele>786.3531</ele>
      </trkpt>
      <trkpt lat="37.6684188842773" lon="128.734710693359">
        <ele>785.50006</ele>
      </trkpt>
      <trkpt lat="37.6684265136719" lon="128.735733032227">
        <ele>792.75073</ele>
      </trkpt>
      <trkpt lat="37.6686820983887" lon="128.736373901367">
        <ele>804.5945</ele>
      </trkpt>
      <trkpt lat="37.6689643859863" lon="128.736938476562">
        <ele>814.46423</ele>
      </trkpt>
      <trkpt lat="37.6694831848145" lon="128.737243652344">
        <ele>815.6235</ele>
      </trkpt>
      <trkpt lat="37.6696281433105" lon="128.737503051758">
        <ele>816.0555</ele>
      </trkpt>
      <trkpt lat="37.6696357727051" lon="128.737915039062">
        <ele>821.4798</ele>
      </trkpt>
      <trkpt lat="37.6690216064453" lon="128.738922119141">
        <ele>816.8484</ele>
      </trkpt>
      <trkpt lat="37.668701171875" lon="128.738418579102">
        <ele>836.42944</ele>
      </trkpt>
      <trkpt lat="37.6686363220215" lon="128.738372802734">
        <ele>836.9653</ele>
      </trkpt>
      <trkpt lat="37.6685523986816" lon="128.738357543945">
        <ele>837.84564</ele>
      </trkpt>
      <trkpt lat="37.6683464050293" lon="128.738494873047">
        <ele>834.75073</ele>
      </trkpt>
      <trkpt lat="37.6681022644043" lon="128.73893737793">
        <ele>827.25946</ele>
      </trkpt>
      <trkpt lat="37.6681861877441" lon="128.739151000977">
        <ele>825.6136</ele>
      </trkpt>
      <trkpt lat="37.6686706542969" lon="128.739410400391">
        <ele>814.67206</ele>
      </trkpt>
      <trkpt lat="37.6690216064453" lon="128.739944458008">
        <ele>813.96124</ele>
      </trkpt>
      <trkpt lat="37.6687622070313" lon="128.740646362305">
        <ele>826.2151</ele>
      </trkpt>
      <trkpt lat="37.6689834594727" lon="128.741073608398">
        <ele>822.7374</ele>
      </trkpt>
      <trkpt lat="37.6690063476563" lon="128.74137878418">
        <ele>819.38007</ele>
      </trkpt>
      <trkpt lat="37.6687316894531" lon="128.742126464844">
        <ele>799.7498</ele>
      </trkpt>
      <trkpt lat="37.6691589355469" lon="128.743057250977">
        <ele>804.3594</ele>
      </trkpt>
      <trkpt lat="37.6693801879883" lon="128.742965698242">
        <ele>804.92255</ele>
      </trkpt>
      <trkpt lat="37.6696853637695" lon="128.743133544922">
        <ele>807.43787</ele>
      </trkpt>
      <trkpt lat="37.6703491210938" lon="128.743072509766">
        <ele>804.2336</ele>
      </trkpt>
      <trkpt lat="37.6704711914063" lon="128.74284362793">
        <ele>802.6971</ele>
      </trkpt>
      <trkpt lat="37.6704597473145" lon="128.742263793945">
        <ele>809.1384</ele>
      </trkpt>
      <trkpt lat="37.6709861755371" lon="128.741424560547">
        <ele>804.1461</ele>
      </trkpt>
      <trkpt lat="37.671215057373" lon="128.741363525391">
        <ele>801.9753</ele>
      </trkpt>
      <trkpt lat="37.6714744567871" lon="128.741668701172">
        <ele>801.4503</ele>
      </trkpt>
      <trkpt lat="37.6718826293945" lon="128.741821289062">
        <ele>805.66077</ele>
      </trkpt>
      <trkpt lat="37.6724853515625" lon="128.742340087891">
        <ele>801.773</ele>
      </trkpt>
      <trkpt lat="37.6728172302246" lon="128.742446899414">
        <ele>800.8762</ele>
      </trkpt>
      <trkpt lat="37.6730079650879" lon="128.742706298828">
        <ele>796.726</ele>
      </trkpt>
      <trkpt lat="37.6734733581543" lon="128.742660522461">
        <ele>792.9202</ele>
      </trkpt>
      <trkpt lat="37.6738090515137" lon="128.742767333984">
        <ele>787.9716</ele>
      </trkpt>
      <trkpt lat="37.6741790771484" lon="128.743469238281">
        <ele>784.12756</ele>
      </trkpt>
      <trkpt lat="37.674690246582" lon="128.743927001953">
        <ele>785.57666</ele>
      </trkpt>
      <trkpt lat="37.6753425598145" lon="128.74235534668">
        <ele>777.2816</ele>
      </trkpt>
      <trkpt lat="37.6755104064941" lon="128.740875244141">
        <ele>766.6463</ele>
      </trkpt>
      <trkpt lat="37.676212310791" lon="128.739700317383">
        <ele>761.38605</ele>
      </trkpt>
      <trkpt lat="37.6763763427734" lon="128.740219116211">
        <ele>762.10785</ele>
      </trkpt>
      <trkpt lat="37.6765632629395" lon="128.740371704102">
        <ele>767.6032</ele>
      </trkpt>
      <trkpt lat="37.6768913269043" lon="128.740127563477">
        <ele>768.8444</ele>
      </trkpt>
      <trkpt lat="37.6771202087402" lon="128.740219116211">
        <ele>766.6026</ele>
      </trkpt>
      <trkpt lat="37.6770782470703" lon="128.741287231445">
        <ele>762.7913</ele>
      </trkpt>
      <trkpt lat="37.6772155761719" lon="128.741683959961">
        <ele>760.7736</ele>
      </trkpt>
      <trkpt lat="37.677074432373" lon="128.741821289062">
        <ele>761.27124</ele>
      </trkpt>
      <trkpt lat="37.6770973205566" lon="128.742034912109">
        <ele>762.44684</ele>
      </trkpt>
      <trkpt lat="37.6774940490723" lon="128.743179321289">
        <ele>768.5601</ele>
      </trkpt>
      <trkpt lat="37.6779098510742" lon="128.743881225586">
        <ele>777.823</ele>
      </trkpt>
      <trkpt lat="37.6782264709473" lon="128.744171142578">
        <ele>773.56335</ele>
      </trkpt>
      <trkpt lat="37.6784706115723" lon="128.74479675293">
        <ele>767.82196</ele>
      </trkpt>
      <trkpt lat="37.678897857666" lon="128.74543762207">
        <ele>773.25165</ele>
      </trkpt>
      <trkpt lat="37.6807098388672" lon="128.749938964844">
        <ele>783.70105</ele>
      </trkpt>
      <trkpt lat="37.6817474365234" lon="128.751571655273">
        <ele>785.69696</ele>
      </trkpt>
      <trkpt lat="37.6818008422852" lon="128.752288818359">
        <ele>789.1145</ele>
      </trkpt>
      <trkpt lat="37.6822280883789" lon="128.752792358398">
        <ele>791.5259</ele>
      </trkpt>
      <trkpt lat="37.682544708252" lon="128.753692626953">
        <ele>789.9784</ele>
      </trkpt>
      <trkpt lat="37.6825370788574" lon="128.754364013672">
        <ele>792.75073</ele>
      </trkpt>
      <trkpt lat="37.6829071044922" lon="128.755096435547">
        <ele>801.5214</ele>
      </trkpt>
      <trkpt lat="37.682788848877" lon="128.758560180664">
        <ele>823.69977</ele>
      </trkpt>
      <trkpt lat="37.6819458007813" lon="128.761093139648">
        <ele>848.82544</ele>
      </trkpt>
      <trkpt lat="37.6819648742676" lon="128.761642456055">
        <ele>851.68524</ele>
      </trkpt>
      <trkpt lat="37.6822624206543" lon="128.762084960938">
        <ele>858.21405</ele>
      </trkpt>
      <trkpt lat="37.6830215454102" lon="128.76171875">
        <ele>862.9439</ele>
      </trkpt>
      <trkpt lat="37.683952331543" lon="128.761047363281">
        <ele>863.26654</ele>
      </trkpt>
      <trkpt lat="37.6848106384277" lon="128.761154174805">
        <ele>851.472</ele>
      </trkpt>
      <trkpt lat="37.6852188110352" lon="128.761611938477">
        <ele>847.16864</ele>
      </trkpt>
      <trkpt lat="37.6860618591309" lon="128.761581420898">
        <ele>841.45447</ele>
      </trkpt>
      <trkpt lat="37.6862144470215" lon="128.761367797852">
        <ele>840.9077</ele>
      </trkpt>
      <trkpt lat="37.6863250585958" lon="128.76112818718">
        <ele>851</ele>
      </trkpt>
      <trkpt lat="37.6860830797132" lon="128.760597109795">
        <ele>846</ele>
      </trkpt>
      <trkpt lat="37.6856203459677" lon="128.759572505951">
        <ele>828</ele>
      </trkpt>
      <trkpt lat="37.6848349655714" lon="128.757635951042">
        <ele>827</ele>
      </trkpt>
      <trkpt lat="37.6847585497375" lon="128.757475018501">
        <ele>827</ele>
      </trkpt>
      <trkpt lat="37.6845760004824" lon="128.756954669952">
        <ele>828</ele>
      </trkpt>
      <trkpt lat="37.6845972271631" lon="128.756777644157">
        <ele>827</ele>
      </trkpt>
      <trkpt lat="37.6846566618366" lon="128.756595253944">
        <ele>826</ele>
      </trkpt>
      <trkpt lat="37.6848816640977" lon="128.756343126297">
        <ele>823</ele>
      </trkpt>
      <trkpt lat="37.6855057234011" lon="128.755887150764">
        <ele>821</ele>
      </trkpt>
      <trkpt lat="37.6855566667859" lon="128.755779862404">
        <ele>821</ele>
      </trkpt>
      <trkpt lat="37.6855863837442" lon="128.755667209625">
        <ele>821</ele>
      </trkpt>
      <trkpt lat="37.6856076101357" lon="128.755519688129">
        <ele>822</ele>
      </trkpt>
      <trkpt lat="37.6856564308131" lon="128.755474090576">
        <ele>824</ele>
      </trkpt>
      <trkpt lat="37.6857392136274" lon="128.755441904068">
        <ele>826</ele>
      </trkpt>
      <trkpt lat="37.6858411000413" lon="128.755431175232">
        <ele>828</ele>
      </trkpt>
      <trkpt lat="37.6858835526724" lon="128.755511641502">
        <ele>829</ele>
      </trkpt>
      <trkpt lat="37.6858920431957" lon="128.755635023117">
        <ele>829</ele>
      </trkpt>
      <trkpt lat="37.6859090242394" lon="128.75587105751">
        <ele>828</ele>
      </trkpt>
      <trkpt lat="37.6859344957977" lon="128.756321668625">
        <ele>826</ele>
      </trkpt>
      <trkpt lat="37.6859705804903" lon="128.756780326366">
        <ele>824</ele>
      </trkpt>
      <trkpt lat="37.6860236461828" lon="128.757013678551">
        <ele>825</ele>
      </trkpt>
      <trkpt lat="37.6861000607132" lon="128.757217526436">
        <ele>827</ele>
      </trkpt>
      <trkpt lat="37.6865500557958" lon="128.757324814796">
        <ele>825</ele>
      </trkpt>
      <trkpt lat="37.6880035400391" lon="128.757263183594">
        <ele>825.13245</ele>
      </trkpt>
      <trkpt lat="37.6885604858398" lon="128.757431030273">
        <ele>829.7584</ele>
      </trkpt>
      <trkpt lat="37.688720703125" lon="128.757263183594">
        <ele>831.12537</ele>
      </trkpt>
      <trkpt lat="37.6889610290527" lon="128.757354736328">
        <ele>832.7056</ele>
      </trkpt>
      <trkpt lat="37.6894454956055" lon="128.757247924805">
        <ele>835.43427</ele>
      </trkpt>
      <trkpt lat="37.6897773742676" lon="128.757354736328">
        <ele>841.0281</ele>
      </trkpt>
      <trkpt lat="37.6902809143066" lon="128.75715637207">
        <ele>847.699</ele>
      </trkpt>
      <trkpt lat="37.6905403137207" lon="128.756912231445">
        <ele>852.9921</ele>
      </trkpt>
      <trkpt lat="37.6906051635742" lon="128.756393432617">
        <ele>859.24207</ele>
      </trkpt>
      <trkpt lat="37.6911544799805" lon="128.755783081055">
        <ele>877.5217</ele>
      </trkpt>
      <trkpt lat="37.6910781860352" lon="128.755615234375">
        <ele>880.96655</ele>
      </trkpt>
      <trkpt lat="37.6912536621094" lon="128.75505065918">
        <ele>895.1944</ele>
      </trkpt>
      <trkpt lat="37.6909103393555" lon="128.755187988281">
        <ele>900.86475</ele>
      </trkpt>
      <trkpt lat="37.6907997131348" lon="128.754684448242">
        <ele>902.5817</ele>
      </trkpt>
      <trkpt lat="37.6916007995605" lon="128.754104614258">
        <ele>911.48364</ele>
      </trkpt>
      <trkpt lat="37.6922264099121" lon="128.754104614258">
        <ele>920.1451</ele>
      </trkpt>
      <trkpt lat="37.6923599243164" lon="128.753967285156">
        <ele>921.2113</ele>
      </trkpt>
      <trkpt lat="37.6930313110352" lon="128.753814697266">
        <ele>923.8579</ele>
      </trkpt>
      <trkpt lat="37.6931610107422" lon="128.753402709961">
        <ele>926.9911</ele>
      </trkpt>
      <trkpt lat="37.6935539245605" lon="128.753219604492">
        <ele>918.4226</ele>
      </trkpt>
      <trkpt lat="37.6940383911133" lon="128.752502441406">
        <ele>909.887</ele>
      </trkpt>
      <trkpt lat="37.6940536499023" lon="128.751907348633">
        <ele>899.0712</ele>
      </trkpt>
      <trkpt lat="37.6951293945313" lon="128.750534057617">
        <ele>923.065</ele>
      </trkpt>
      <trkpt lat="37.6970481872559" lon="128.751022338867">
        <ele>924.69446</ele>
      </trkpt>
      <trkpt lat="37.6975898742676" lon="128.75065612793">
        <ele>920.6809</ele>
      </trkpt>
      <trkpt lat="37.6981506347656" lon="128.749404907227">
        <ele>906.8632</ele>
      </trkpt>
      <trkpt lat="37.6981430053711" lon="128.748474121094">
        <ele>893.98596</ele>
      </trkpt>
      <trkpt lat="37.6977806091309" lon="128.747833251953">
        <ele>883.53656</ele>
      </trkpt>
      <trkpt lat="37.6976776123047" lon="128.747299194336">
        <ele>873.81433</ele>
      </trkpt>
      <trkpt lat="37.6972770690918" lon="128.747222900391">
        <ele>870.40234</ele>
      </trkpt>
      <trkpt lat="37.6969451904297" lon="128.746948242188">
        <ele>868.74005</ele>
      </trkpt>
      <trkpt lat="37.6969862040245" lon="128.746976852417">
        <ele>879</ele>
      </trkpt>
      <trkpt lat="37.6970307725877" lon="128.747017085552">
        <ele>878</ele>
      </trkpt>
      <trkpt lat="37.6969480023777" lon="128.7469419837">
        <ele>879</ele>
      </trkpt>
      <trkpt lat="37.6970265279638" lon="128.746606707573">
        <ele>875</ele>
      </trkpt>
      <trkpt lat="37.6970307725877" lon="128.7466147542">
        <ele>875</ele>
      </trkpt>
      <trkpt lat="37.6970286502758" lon="128.746609389782">
        <ele>875</ele>
      </trkpt>
      <trkpt lat="37.6969649808898" lon="128.746866881847">
        <ele>878</ele>
      </trkpt>
      <trkpt lat="37.6969480023777" lon="128.7469419837">
        <ele>879</ele>
      </trkpt>
      <trkpt lat="37.6969501246919" lon="128.746944665909">
        <ele>879</ele>
      </trkpt>
      <trkpt lat="37.6969501246919" lon="128.746936619282">
        <ele>879</ele>
      </trkpt>
      <trkpt lat="37.6969522470061" lon="128.746944665909">
        <ele>879</ele>
      </trkpt>
      <trkpt lat="37.6969458800634" lon="128.746936619282">
        <ele>879</ele>
      </trkpt>
      <trkpt lat="37.6969501246919" lon="128.746944665909">
        <ele>879</ele>
      </trkpt>
      <trkpt lat="37.6969501246919" lon="128.746947348118">
        <ele>879</ele>
      </trkpt>
      <trkpt lat="37.696949005127" lon="128.746932983398">
        <ele>868.9806</ele>
      </trkpt>
      <trkpt lat="37.6970291137695" lon="128.746612548828">
        <ele>865.2624</ele>
      </trkpt>
      <trkpt lat="37.6969413757324" lon="128.746032714844">
        <ele>862.92206</ele>
      </trkpt>
      <trkpt lat="37.6965255737305" lon="128.745223999023">
        <ele>858.98505</ele>
      </trkpt>
      <trkpt lat="37.6964416503906" lon="128.744705200195">
        <ele>852.7898</ele>
      </trkpt>
      <trkpt lat="37.6952743530273" lon="128.743728637695">
        <ele>845.32587</ele>
      </trkpt>
      <trkpt lat="37.6949310302734" lon="128.742813110352">
        <ele>838.43066</ele>
      </trkpt>
      <trkpt lat="37.6946449279785" lon="128.742538452148">
        <ele>834.8928</ele>
      </trkpt>
      <trkpt lat="37.694408416748" lon="128.742492675781">
        <ele>831.14185</ele>
      </trkpt>
      <trkpt lat="37.6942367553711" lon="128.742584228516">
        <ele>830.1411</ele>
      </trkpt>
      <trkpt lat="37.6933860778809" lon="128.742385864258">
        <ele>818.2099</ele>
      </trkpt>
      <trkpt lat="37.6927490234375" lon="128.742416381836">
        <ele>814.3385</ele>
      </trkpt>
      <trkpt lat="37.6922492980957" lon="128.7421875">
        <ele>806.96216</ele>
      </trkpt>
      <trkpt lat="37.6921997070313" lon="128.742004394531">
        <ele>803.9438</ele>
      </trkpt>
      <trkpt lat="37.6918144226074" lon="128.741729736328">
        <ele>799.3068</ele>
      </trkpt>
      <trkpt lat="37.6914596557617" lon="128.741607666016">
        <ele>787.75836</ele>
      </trkpt>
      <trkpt lat="37.6912155151367" lon="128.741790771484">
        <ele>782.9574</ele>
      </trkpt>
      <trkpt lat="37.6910133361816" lon="128.741561889648">
        <ele>778.3807</ele>
      </trkpt>
      <trkpt lat="37.6907653808594" lon="128.741607666016">
        <ele>775.4936</ele>
      </trkpt>
      <trkpt lat="37.6903915405273" lon="128.742080688477">
        <ele>774.15393</ele>
      </trkpt>
      <trkpt lat="37.6902503967285" lon="128.742111206055">
        <ele>773.3118</ele>
      </trkpt>
      <trkpt lat="37.6892242431641" lon="128.741958618164">
        <ele>772.40955</ele>
      </trkpt>
      <trkpt lat="37.6876945495605" lon="128.742080688477">
        <ele>767.9586</ele>
      </trkpt>
      <trkpt lat="37.6869087219238" lon="128.741165161133">
        <ele>764.2677</ele>
      </trkpt>
      <trkpt lat="37.6864356994629" lon="128.74072265625">
        <ele>762.9335</ele>
      </trkpt>
      <trkpt lat="37.6861305236816" lon="128.740600585938">
        <ele>763.2014</ele>
      </trkpt>
      <trkpt lat="37.6849746704102" lon="128.741073608398">
        <ele>762.33203</ele>
      </trkpt>
      <trkpt lat="37.684414677511" lon="128.740239143372">
        <ele>771</ele>
      </trkpt>
      <trkpt lat="37.6836674928568" lon="128.74073266983">
        <ele>780</ele>
      </trkpt>
      <trkpt lat="37.6828905826495" lon="128.740523457527">
        <ele>779</ele>
      </trkpt>
      <trkpt lat="37.6824872653989" lon="128.741371035576">
        <ele>788</ele>
      </trkpt>
      <trkpt lat="37.6819056356078" lon="128.740721940994">
        <ele>791</ele>
      </trkpt>
      <trkpt lat="37.6814089116647" lon="128.740689754486">
        <ele>802</ele>
      </trkpt>
      <trkpt lat="37.6813261240175" lon="128.740552961826">
        <ele>799</ele>
      </trkpt>
      <trkpt lat="37.6812030037559" lon="128.74035179615">
        <ele>795</ele>
      </trkpt>
      <trkpt lat="37.681162671212" lon="128.740035295486">
        <ele>794</ele>
      </trkpt>
      <trkpt lat="37.6810437962182" lon="128.739702701569">
        <ele>795</ele>
      </trkpt>
      <trkpt lat="37.6810353051399" lon="128.739423751831">
        <ele>790</ele>
      </trkpt>
      <trkpt lat="37.6814089116647" lon="128.739198446274">
        <ele>785</ele>
      </trkpt>
      <trkpt lat="37.6813919295908" lon="128.738940954208">
        <ele>783</ele>
      </trkpt>
      <trkpt lat="37.6813919295908" lon="128.738820254803">
        <ele>782</ele>
      </trkpt>
      <trkpt lat="37.6813346150625" lon="128.738694190979">
        <ele>784</ele>
      </trkpt>
      <trkpt lat="37.6812518273324" lon="128.738565444946">
        <ele>786</ele>
      </trkpt>
      <trkpt lat="37.6811202158789" lon="128.738425970078">
        <ele>791</ele>
      </trkpt>
      <trkpt lat="37.680806045659" lon="128.738297224045">
        <ele>795</ele>
      </trkpt>
      <trkpt lat="37.6804664006812" lon="128.738350868225">
        <ele>792</ele>
      </trkpt>
      <trkpt lat="37.6803093143531" lon="128.738104104996">
        <ele>786</ele>
      </trkpt>
      <trkpt lat="37.6801309997397" lon="128.738104104996">
        <ele>789</ele>
      </trkpt>
      <trkpt lat="37.6800460878683" lon="128.738050460815">
        <ele>790</ele>
      </trkpt>
      <trkpt lat="37.6798295621566" lon="128.737771511078">
        <ele>786</ele>
      </trkpt>
      <trkpt lat="37.6795790708388" lon="128.737514019012">
        <ele>789</ele>
      </trkpt>
      <trkpt lat="37.6796913146973" lon="128.736251831055">
        <ele>754.8189</ele>
      </trkpt>
      <trkpt lat="37.6785087585449" lon="128.735214233398">
        <ele>752.5989</ele>
      </trkpt>
      <trkpt lat="37.6775360107422" lon="128.73405456543">
        <ele>751.0842</ele>
      </trkpt>
      <trkpt lat="37.6772481873484" lon="128.733496069908">
        <ele>759</ele>
      </trkpt>
      <trkpt lat="37.6771240234375" lon="128.732879638672">
        <ele>750.86554</ele>
      </trkpt>
      <trkpt lat="37.67664104174" lon="128.732369542122">
        <ele>755</ele>
      </trkpt>
      <trkpt lat="37.6762351989746" lon="128.731735229492">
        <ele>750.40625</ele>
      </trkpt>
      <trkpt lat="37.6756172180176" lon="128.73030090332">
        <ele>746.4856</ele>
      </trkpt>
      <trkpt lat="37.6753349304199" lon="128.729202270508">
        <ele>746.8629</ele>
      </trkpt>
      <trkpt lat="37.6752624511719" lon="128.727844238281">
        <ele>745.92786</ele>
      </trkpt>
      <trkpt lat="37.6750869750977" lon="128.727096557617">
        <ele>744.4023</ele>
      </trkpt>
      <trkpt lat="37.6739768981934" lon="128.725479125977">
        <ele>740.17554</ele>
      </trkpt>
      <trkpt lat="37.6735038757324" lon="128.724456787109">
        <ele>738.6773</ele>
      </trkpt>
      <trkpt lat="37.6734275817871" lon="128.72395324707">
        <ele>737.2173</ele>
      </trkpt>
      <trkpt lat="37.6730461120605" lon="128.723739624023">
        <ele>736.97675</ele>
      </trkpt>
      <trkpt lat="37.6727905273438" lon="128.723175048828">
        <ele>735.9761</ele>
      </trkpt>
      <trkpt lat="37.6725921630859" lon="128.722396850586">
        <ele>734.6145</ele>
      </trkpt>
      <trkpt lat="37.6726455688477" lon="128.721923828125">
        <ele>733.5482</ele>
      </trkpt>
      <trkpt lat="37.6723709106445" lon="128.721603393555">
        <ele>734.2209</ele>
      </trkpt>
      <trkpt lat="37.6711044311523" lon="128.717010498047">
        <ele>732.9468</ele>
      </trkpt>
      <trkpt lat="37.6685485839844" lon="128.712142944336">
        <ele>727.86145</ele>
      </trkpt>
      <trkpt lat="37.6684112548828" lon="128.711456298828">
        <ele>727.3038</ele>
      </trkpt>
      <trkpt lat="37.6682662963867" lon="128.708969116211">
        <ele>726.91003</ele>
      </trkpt>
      <trkpt lat="37.6683807373047" lon="128.70751953125">
        <ele>726.5328</ele>
      </trkpt>
      <trkpt lat="37.6682662963867" lon="128.707336425781">
        <ele>727.34753</ele>
      </trkpt>
      <trkpt lat="37.667781829834" lon="128.707321166992">
        <ele>729.0918</ele>
      </trkpt>
      <trkpt lat="37.6675502466674" lon="128.707355260849">
        <ele>738</ele>
      </trkpt>
      <trkpt lat="37.6673846403526" lon="128.707382082939">
        <ele>737</ele>
      </trkpt>
      <trkpt lat="37.6671638313582" lon="128.707392811775">
        <ele>736</ele>
      </trkpt>
      <trkpt lat="37.6670746583088" lon="128.707339167595">
        <ele>737</ele>
      </trkpt>
      <trkpt lat="37.6658453332092" lon="128.706277012825">
        <ele>728</ele>
      </trkpt>
      <trkpt lat="37.6657370497117" lon="128.706416487694">
        <ele>728</ele>
      </trkpt>
      <trkpt lat="37.6657158176349" lon="128.706614971161">
        <ele>728</ele>
      </trkpt>
      <trkpt lat="37.6659323845338" lon="128.706609606743">
        <ele>730</ele>
      </trkpt>
      <trkpt lat="37.6664674294572" lon="128.707009255886">
        <ele>736</ele>
      </trkpt>
    </trkseg>
  </trk>
</gpx>