<?xml version="1.0" encoding="utf-8"?>
<gpx xmlns:xsd="http://www.w3.org/2001/XMLSchema" xmlns:xsi="http://www.w3.org/2001/XMLSchema-instance" version="1.1" creator="ROUTEEDITOR1" xmlns="http://www.topografix.com/GPX/1/1">
  <metadata>
    <desc>Created/Modified by using GPS Route Editor.</desc>
    <link href="http://www.gpsnote.net">
      <text>GpsNote.NET</text>
    </link>
  </metadata>
  <trk>
    <trkseg>
      <trkpt lat="37.6665056468042" lon="128.707081675529">
        <ele>737</ele>
      </trkpt>
      <trkpt lat="37.6661935378949" lon="128.706810772419">
        <ele>730</ele>
      </trkpt>
      <trkpt lat="37.6660534069373" lon="128.706700801849">
        <ele>729</ele>
      </trkpt>
      <trkpt lat="37.6659854645596" lon="128.706652522087">
        <ele>729</ele>
      </trkpt>
      <trkpt lat="37.6659493701462" lon="128.706631064415">
        <ele>730</ele>
      </trkpt>
      <trkpt lat="37.6659005365" lon="128.706614971161">
        <ele>730</ele>
      </trkpt>
      <trkpt lat="37.6657646514026" lon="128.706631064415">
        <ele>729</ele>
      </trkpt>
      <trkpt lat="37.6656351356875" lon="128.706623017788">
        <ele>727</ele>
      </trkpt>
      <trkpt lat="37.6657880066714" lon="128.706223368645">
        <ele>728</ele>
      </trkpt>
      <trkpt lat="37.6657455425408" lon="128.706134855747">
        <ele>727</ele>
      </trkpt>
      <trkpt lat="37.6656839695082" lon="128.706086575985">
        <ele>727</ele>
      </trkpt>
      <trkpt lat="37.6655884250463" lon="128.70604634285">
        <ele>727</ele>
      </trkpt>
      <trkpt lat="37.6655310983101" lon="128.706118762493">
        <ele>727</ele>
      </trkpt>
      <trkpt lat="37.6654950036756" lon="128.706231415272">
        <ele>727</ele>
      </trkpt>
      <trkpt lat="37.6654185679213" lon="128.706521093845">
        <ele>726</ele>
      </trkpt>
      <trkpt lat="37.665335762432" lon="128.706842958927">
        <ele>725</ele>
      </trkpt>
      <trkpt lat="37.6651085776663" lon="128.707001209259">
        <ele>726</ele>
      </trkpt>
      <trkpt lat="37.6649939234083" lon="128.707306981087">
        <ele>729</ele>
      </trkpt>
      <trkpt lat="37.6654100750549" lon="128.708326220512">
        <ele>734</ele>
      </trkpt>
      <trkpt lat="37.6657964994946" lon="128.709364235401">
        <ele>732</ele>
      </trkpt>
      <trkpt lat="37.6657731442284" lon="128.709468841553">
        <ele>731</ele>
      </trkpt>
      <trkpt lat="37.6654567858083" lon="128.709653913975">
        <ele>729</ele>
      </trkpt>
      <trkpt lat="37.6653952125362" lon="128.709739744663">
        <ele>729</ele>
      </trkpt>
      <trkpt lat="37.6653518676758" lon="128.709808349609">
        <ele>729</ele>
      </trkpt>
      <trkpt lat="37.6652221679688" lon="128.710342407227">
        <ele>729</ele>
      </trkpt>
      <trkpt lat="37.6652946472168" lon="128.711227416992">
        <ele>727</ele>
      </trkpt>
      <trkpt lat="37.6648712158203" lon="128.712814331055">
        <ele>730</ele>
      </trkpt>
      <trkpt lat="37.6640434265137" lon="128.713912963867">
        <ele>737</ele>
      </trkpt>
      <trkpt lat="37.6628837585449" lon="128.714202880859">
        <ele>737</ele>
      </trkpt>
      <trkpt lat="37.6623039245605" lon="128.714538574219">
        <ele>740</ele>
      </trkpt>
      <trkpt lat="37.6617202758789" lon="128.714965820312">
        <ele>744</ele>
      </trkpt>
      <trkpt lat="37.6611557006836" lon="128.715759277344">
        <ele>758</ele>
      </trkpt>
      <trkpt lat="37.6604118347168" lon="128.715911865234">
        <ele>753.143</ele>
      </trkpt>
      <trkpt lat="37.6597137451172" lon="128.716537475586">
        <ele>760</ele>
      </trkpt>
      <trkpt lat="37.658275604248" lon="128.717483520508">
        <ele>781</ele>
      </trkpt>
      <trkpt lat="37.6577568054199" lon="128.71794128418">
        <ele>788</ele>
      </trkpt>
      <trkpt lat="37.6576042175293" lon="128.718246459961">
        <ele>791</ele>
      </trkpt>
      <trkpt lat="37.6571197509766" lon="128.71809387207">
        <ele>796</ele>
      </trkpt>
      <trkpt lat="37.6566390991211" lon="128.718322753906">
        <ele>803</ele>
      </trkpt>
      <trkpt lat="37.6565399169922" lon="128.718673706055">
        <ele>807</ele>
      </trkpt>
      <trkpt lat="37.6564826965332" lon="128.718704223633">
        <ele>809</ele>
      </trkpt>
      <trkpt lat="37.6562194824219" lon="128.718673706055">
        <ele>821</ele>
      </trkpt>
      <trkpt lat="37.6563415527344" lon="128.718856811523">
        <ele>808.265</ele>
      </trkpt>
      <trkpt lat="37.6559982299805" lon="128.718856811523">
        <ele>817.595</ele>
      </trkpt>
      <trkpt lat="37.6556396484375" lon="128.719100952148">
        <ele>829.645</ele>
      </trkpt>
      <trkpt lat="37.6554794311523" lon="128.71907043457">
        <ele>833.787</ele>
      </trkpt>
      <trkpt lat="37.6554145812988" lon="128.718780517578">
        <ele>855</ele>
      </trkpt>
      <trkpt lat="37.655029296875" lon="128.718215942383">
        <ele>850.438</ele>
      </trkpt>
      <trkpt lat="37.6545028686523" lon="128.718002319336">
        <ele>893</ele>
      </trkpt>
      <trkpt lat="37.6540031433105" lon="128.718154907227">
        <ele>915</ele>
      </trkpt>
      <trkpt lat="37.6537704467773" lon="128.717651367188">
        <ele>910</ele>
      </trkpt>
      <trkpt lat="37.6538352966309" lon="128.717300415039">
        <ele>909</ele>
      </trkpt>
      <trkpt lat="37.6535606384277" lon="128.717681884766">
        <ele>914</ele>
      </trkpt>
      <trkpt lat="37.6531066894531" lon="128.717971801758">
        <ele>930</ele>
      </trkpt>
      <trkpt lat="37.6531715393066" lon="128.718856811523">
        <ele>954</ele>
      </trkpt>
      <trkpt lat="37.6530151367188" lon="128.719482421875">
        <ele>950.276</ele>
      </trkpt>
      <trkpt lat="37.6523399353027" lon="128.719909667969">
        <ele>967</ele>
      </trkpt>
      <trkpt lat="37.6521835327148" lon="128.720123291016">
        <ele>952.118</ele>
      </trkpt>
      <trkpt lat="37.6521263122559" lon="128.720748901367">
        <ele>971</ele>
      </trkpt>
      <trkpt lat="37.6522827148438" lon="128.721145629883">
        <ele>948.453</ele>
      </trkpt>
      <trkpt lat="37.6521530151367" lon="128.72102355957">
        <ele>966</ele>
      </trkpt>
      <trkpt lat="37.6518363952637" lon="128.721496582031">
        <ele>970</ele>
      </trkpt>
      <trkpt lat="37.6518516540527" lon="128.722244262695">
        <ele>960</ele>
      </trkpt>
      <trkpt lat="37.6516342163086" lon="128.722869873047">
        <ele>968</ele>
      </trkpt>
      <trkpt lat="37.6507263183594" lon="128.723419189453">
        <ele>977</ele>
      </trkpt>
      <trkpt lat="37.6501235961914" lon="128.724044799805">
        <ele>998</ele>
      </trkpt>
      <trkpt lat="37.6500282287598" lon="128.724365234375">
        <ele>1000</ele>
      </trkpt>
      <trkpt lat="37.6502075195313" lon="128.724731445312">
        <ele>996</ele>
      </trkpt>
      <trkpt lat="37.6508903503418" lon="128.724792480469">
        <ele>976</ele>
      </trkpt>
      <trkpt lat="37.6509323120117" lon="128.724868774414">
        <ele>971.914</ele>
      </trkpt>
      <trkpt lat="37.6509552001953" lon="128.724914550781">
        <ele>974</ele>
      </trkpt>
      <trkpt lat="37.6508560180664" lon="128.725524902344">
        <ele>981</ele>
      </trkpt>
      <trkpt lat="37.6510162353516" lon="128.726135253906">
        <ele>981</ele>
      </trkpt>
      <trkpt lat="37.6508560180664" lon="128.726623535156">
        <ele>994</ele>
      </trkpt>
      <trkpt lat="37.6508827209473" lon="128.727096557617">
        <ele>1000</ele>
      </trkpt>
      <trkpt lat="37.650993347168" lon="128.727096557617">
        <ele>1001</ele>
      </trkpt>
      <trkpt lat="37.6510429382324" lon="128.72705078125">
        <ele>1001</ele>
      </trkpt>
      <trkpt lat="37.6515922546387" lon="128.726333618164">
        <ele>962.983</ele>
      </trkpt>
      <trkpt lat="37.652099609375" lon="128.725997924805">
        <ele>993</ele>
      </trkpt>
      <trkpt lat="37.6523323059082" lon="128.725708007812">
        <ele>981</ele>
      </trkpt>
      <trkpt lat="37.653377532959" lon="128.725646972656">
        <ele>989</ele>
      </trkpt>
      <trkpt lat="37.653678894043" lon="128.72492980957">
        <ele>975</ele>
      </trkpt>
      <trkpt lat="37.6539306640625" lon="128.724731445312">
        <ele>970</ele>
      </trkpt>
      <trkpt lat="37.6539459228516" lon="128.724792480469">
        <ele>953.612</ele>
      </trkpt>
      <trkpt lat="37.6541366577148" lon="128.72509765625">
        <ele>953.42</ele>
      </trkpt>
      <trkpt lat="37.6539916992188" lon="128.725128173828">
        <ele>976</ele>
      </trkpt>
      <trkpt lat="37.6539535522461" lon="128.725173950195">
        <ele>979</ele>
      </trkpt>
      <trkpt lat="37.6539840698242" lon="128.725219726562">
        <ele>978</ele>
      </trkpt>
      <trkpt lat="37.653995513916" lon="128.725311279297">
        <ele>979</ele>
      </trkpt>
      <trkpt lat="37.654483795166" lon="128.725723266602">
        <ele>948</ele>
      </trkpt>
      <trkpt lat="37.6546363830566" lon="128.726043701172">
        <ele>941</ele>
      </trkpt>
      <trkpt lat="37.6543045043945" lon="128.727294921875">
        <ele>966</ele>
      </trkpt>
      <trkpt lat="37.6545333862305" lon="128.727401733398">
        <ele>937.51</ele>
      </trkpt>
      <trkpt lat="37.6552352905273" lon="128.727325439453">
        <ele>954</ele>
      </trkpt>
      <trkpt lat="37.6557121276855" lon="128.727966308594">
        <ele>974</ele>
      </trkpt>
      <trkpt lat="37.6558876037598" lon="128.727920532227">
        <ele>973</ele>
      </trkpt>
      <trkpt lat="37.6560478210449" lon="128.72770690918">
        <ele>973</ele>
      </trkpt>
      <trkpt lat="37.6562232971191" lon="128.726165771484">
        <ele>976</ele>
      </trkpt>
      <trkpt lat="37.6567611694336" lon="128.724716186523">
        <ele>998</ele>
      </trkpt>
      <trkpt lat="37.6570434570313" lon="128.725524902344">
        <ele>1003</ele>
      </trkpt>
      <trkpt lat="37.6572875976563" lon="128.725784301758">
        <ele>998</ele>
      </trkpt>
      <trkpt lat="37.6574020385742" lon="128.726303100586">
        <ele>1012</ele>
      </trkpt>
      <trkpt lat="37.6574668884277" lon="128.72624206543">
        <ele>1009</ele>
      </trkpt>
      <trkpt lat="37.6577377319336" lon="128.726470947266">
        <ele>1006</ele>
      </trkpt>
      <trkpt lat="37.6581230163574" lon="128.72624206543">
        <ele>994</ele>
      </trkpt>
      <trkpt lat="37.6582221984863" lon="128.72624206543">
        <ele>991</ele>
      </trkpt>
      <trkpt lat="37.6582984924316" lon="128.726272583008">
        <ele>990</ele>
      </trkpt>
      <trkpt lat="37.6585121154785" lon="128.726654052734">
        <ele>956.712</ele>
      </trkpt>
      <trkpt lat="37.658561706543" lon="128.727111816406">
        <ele>987</ele>
      </trkpt>
      <trkpt lat="37.6586723327637" lon="128.727279663086">
        <ele>981</ele>
      </trkpt>
      <trkpt lat="37.658821105957" lon="128.727066040039">
        <ele>970</ele>
      </trkpt>
      <trkpt lat="37.6586151123047" lon="128.727798461914">
        <ele>983</ele>
      </trkpt>
      <trkpt lat="37.6588439941406" lon="128.727630615234">
        <ele>949.968</ele>
      </trkpt>
      <trkpt lat="37.6588287353516" lon="128.728210449219">
        <ele>971</ele>
      </trkpt>
      <trkpt lat="37.6593856811523" lon="128.728820800781">
        <ele>958</ele>
      </trkpt>
      <trkpt lat="37.659252166748" lon="128.729919433594">
        <ele>953</ele>
      </trkpt>
      <trkpt lat="37.6594390869141" lon="128.730239868164">
        <ele>943</ele>
      </trkpt>
      <trkpt lat="37.6593551635742" lon="128.730728149414">
        <ele>950</ele>
      </trkpt>
      <trkpt lat="37.6600036621094" lon="128.730422973633">
        <ele>910.827</ele>
      </trkpt>
      <trkpt lat="37.6602439880371" lon="128.730484008789">
        <ele>942</ele>
      </trkpt>
      <trkpt lat="37.6604537963867" lon="128.730697631836">
        <ele>950</ele>
      </trkpt>
      <trkpt lat="37.6606674194336" lon="128.730590820312">
        <ele>941</ele>
      </trkpt>
      <trkpt lat="37.660831451416" lon="128.730926513672">
        <ele>944</ele>
      </trkpt>
      <trkpt lat="37.6610488891602" lon="128.730987548828">
        <ele>939</ele>
      </trkpt>
      <trkpt lat="37.661808013916" lon="128.731597900391">
        <ele>935</ele>
      </trkpt>
      <trkpt lat="37.661808013916" lon="128.732208251953">
        <ele>930</ele>
      </trkpt>
      <trkpt lat="37.661693572998" lon="128.732559204102">
        <ele>929</ele>
      </trkpt>
      <trkpt lat="37.6618804931641" lon="128.732635498047">
        <ele>925</ele>
      </trkpt>
      <trkpt lat="37.6624412536621" lon="128.732330322266">
        <ele>907</ele>
      </trkpt>
      <trkpt lat="37.6630554199219" lon="128.732162475586">
        <ele>893</ele>
      </trkpt>
      <trkpt lat="37.6637306213379" lon="128.73225402832">
        <ele>895</ele>
      </trkpt>
      <trkpt lat="37.6640853881836" lon="128.732131958008">
        <ele>877</ele>
      </trkpt>
      <trkpt lat="37.6642112731934" lon="128.731872558594">
        <ele>871</ele>
      </trkpt>
      <trkpt lat="37.6644706726074" lon="128.73210144043">
        <ele>863</ele>
      </trkpt>
      <trkpt lat="37.6645126342773" lon="128.732315063477">
        <ele>861</ele>
      </trkpt>
      <trkpt lat="37.6645965576172" lon="128.732131958008">
        <ele>858</ele>
      </trkpt>
      <trkpt lat="37.6645077024577" lon="128.732313215733">
        <ele>861</ele>
      </trkpt>
      <trkpt lat="37.6645774841309" lon="128.732177734375">
        <ele>859</ele>
      </trkpt>
      <trkpt lat="37.6645459208137" lon="128.732227385044">
        <ele>860</ele>
      </trkpt>
      <trkpt lat="37.6645798926691" lon="128.732176423073">
        <ele>859</ele>
      </trkpt>
      <trkpt lat="37.6645183186696" lon="128.732289075851">
        <ele>861</ele>
      </trkpt>
      <trkpt lat="37.6645289348801" lon="128.732267618179">
        <ele>861</ele>
      </trkpt>
      <trkpt lat="37.664531058122" lon="128.732267618179">
        <ele>861</ele>
      </trkpt>
      <trkpt lat="37.6645204419119" lon="128.732275664806">
        <ele>861</ele>
      </trkpt>
      <trkpt lat="37.664522565154" lon="128.732294440269">
        <ele>861</ele>
      </trkpt>
      <trkpt lat="37.664522565154" lon="128.732286393642">
        <ele>861</ele>
      </trkpt>
      <trkpt lat="37.664522565154" lon="128.732289075851">
        <ele>861</ele>
      </trkpt>
      <trkpt lat="37.6646690368652" lon="128.731979370117">
        <ele>855</ele>
      </trkpt>
      <trkpt lat="37.6649780273438" lon="128.732070922852">
        <ele>840</ele>
      </trkpt>
      <trkpt lat="37.6653518676758" lon="128.732009887695">
        <ele>824</ele>
      </trkpt>
      <trkpt lat="37.665641784668" lon="128.731781005859">
        <ele>813</ele>
      </trkpt>
      <trkpt lat="37.6659774780273" lon="128.731826782227">
        <ele>805</ele>
      </trkpt>
      <trkpt lat="37.6669120788574" lon="128.731643676758">
        <ele>785</ele>
      </trkpt>
      <trkpt lat="37.6672248840332" lon="128.732070922852">
        <ele>785</ele>
      </trkpt>
      <trkpt lat="37.6675910949707" lon="128.732025146484">
        <ele>786</ele>
      </trkpt>
      <trkpt lat="37.6678733825684" lon="128.732788085938">
        <ele>780.334</ele>
      </trkpt>
      <trkpt lat="37.6677436828613" lon="128.733367919922">
        <ele>792</ele>
      </trkpt>
      <trkpt lat="37.6677551269531" lon="128.733428955078">
        <ele>792</ele>
      </trkpt>
      <trkpt lat="37.6677780151367" lon="128.733489990234">
        <ele>791</ele>
      </trkpt>
      <trkpt lat="37.6679916381836" lon="128.733474731445">
        <ele>782</ele>
      </trkpt>
      <trkpt lat="37.6677436828613" lon="128.734069824219">
        <ele>784.498</ele>
      </trkpt>
      <trkpt lat="37.6677436828613" lon="128.734680175781">
        <ele>794</ele>
      </trkpt>
      <trkpt lat="37.6679557682624" lon="128.734660148621">
        <ele>790</ele>
      </trkpt>
      <trkpt lat="37.6681823730469" lon="128.734527587891">
        <ele>790</ele>
      </trkpt>
      <trkpt lat="37.6683846420935" lon="128.734692335129">
        <ele>793</ele>
      </trkpt>
      <trkpt lat="37.6687498198377" lon="128.734268546104">
        <ele>784</ele>
      </trkpt>
      <trkpt lat="37.6688007747289" lon="128.734255135059">
        <ele>783</ele>
      </trkpt>
      <trkpt lat="37.6688580989397" lon="128.734303414822">
        <ele>784</ele>
      </trkpt>
      <trkpt lat="37.6689186096191" lon="128.734451293945">
        <ele>785</ele>
      </trkpt>
      <trkpt lat="37.6689910888672" lon="128.734436035156">
        <ele>786</ele>
      </trkpt>
      <trkpt lat="37.6690292358398" lon="128.734359741211">
        <ele>785</ele>
      </trkpt>
      <trkpt lat="37.6690673828125" lon="128.733963012695">
        <ele>776.298</ele>
      </trkpt>
      <trkpt lat="37.6688856994698" lon="128.733522891998">
        <ele>779</ele>
      </trkpt>
      <trkpt lat="37.6696548461914" lon="128.73258972168">
        <ele>776</ele>
      </trkpt>
      <trkpt lat="37.6693916320801" lon="128.732192993164">
        <ele>773</ele>
      </trkpt>
      <trkpt lat="37.6693676455342" lon="128.732023537159">
        <ele>771</ele>
      </trkpt>
      <trkpt lat="37.6693740148445" lon="128.731851875782">
        <ele>771</ele>
      </trkpt>
      <trkpt lat="37.6694398310188" lon="128.731653392315">
        <ele>770</ele>
      </trkpt>
      <trkpt lat="37.6694907854363" lon="128.73144954443">
        <ele>769</ele>
      </trkpt>
      <trkpt lat="37.6695863248747" lon="128.731020390987">
        <ele>769</ele>
      </trkpt>
      <trkpt lat="37.6696181713269" lon="128.730910420418">
        <ele>768</ele>
      </trkpt>
      <trkpt lat="37.6696712487168" lon="128.730808496475">
        <ele>767</ele>
      </trkpt>
      <trkpt lat="37.6697795264744" lon="128.730612695217">
        <ele>763</ele>
      </trkpt>
      <trkpt lat="37.6699026656931" lon="128.730194270611">
        <ele>758</ele>
      </trkpt>
      <trkpt lat="37.6700364201302" lon="128.729883134365">
        <ele>756</ele>
      </trkpt>
      <trkpt lat="37.6701192203752" lon="128.729558587074">
        <ele>756</ele>
      </trkpt>
      <trkpt lat="37.6701446973551" lon="128.729322552681">
        <ele>755</ele>
      </trkpt>
      <trkpt lat="37.6703643798828" lon="128.728256225586">
        <ele>750</ele>
      </trkpt>
      <trkpt lat="37.67041015625" lon="128.728164672852">
        <ele>750</ele>
      </trkpt>
      <trkpt lat="37.6712359531157" lon="128.726581335068">
        <ele>742</ele>
      </trkpt>
      <trkpt lat="37.6716728210449" lon="128.725891113281">
        <ele>739</ele>
      </trkpt>
      <trkpt lat="37.6714227812869" lon="128.725444078445">
        <ele>739</ele>
      </trkpt>
      <trkpt lat="37.6712265014648" lon="128.724914550781">
        <ele>737</ele>
      </trkpt>
      <trkpt lat="37.6720504760742" lon="128.723510742188">
        <ele>738</ele>
      </trkpt>
      <trkpt lat="37.6725997924805" lon="128.723022460938">
        <ele>739</ele>
      </trkpt>
      <trkpt lat="37.6726226806641" lon="128.72297668457">
        <ele>740</ele>
      </trkpt>
      <trkpt lat="37.6726493835449" lon="128.722854614258">
        <ele>741</ele>
      </trkpt>
      <trkpt lat="37.6726379394531" lon="128.721893310547">
        <ele>741</ele>
      </trkpt>
      <trkpt lat="37.6723213195801" lon="128.72151184082">
        <ele>731.374</ele>
      </trkpt>
      <trkpt lat="37.6711921691895" lon="128.71728515625">
        <ele>739</ele>
      </trkpt>
      <trkpt lat="37.6685981750488" lon="128.712371826172">
        <ele>733</ele>
      </trkpt>
      <trkpt lat="37.6684226989746" lon="128.711868286133">
        <ele>729.858</ele>
      </trkpt>
      <trkpt lat="37.6682721160311" lon="128.708846569061">
        <ele>735</ele>
      </trkpt>
      <trkpt lat="37.668352795112" lon="128.708138465881">
        <ele>739</ele>
      </trkpt>
      <trkpt lat="37.6684631979227" lon="128.707446455956">
        <ele>741</ele>
      </trkpt>
      <trkpt lat="37.6682169145042" lon="128.707360625267">
        <ele>740</ele>
      </trkpt>
      <trkpt lat="37.6677158526126" lon="128.707371354103">
        <ele>739</ele>
      </trkpt>
      <trkpt lat="37.6673060833818" lon="128.707395493984">
        <ele>736</ele>
      </trkpt>
      <trkpt lat="37.6671043826705" lon="128.707384765148">
        <ele>737</ele>
      </trkpt>
      <trkpt lat="37.6658601956377" lon="128.706252872944">
        <ele>728</ele>
      </trkpt>
      <trkpt lat="37.6658007459058" lon="128.706293106079">
        <ele>728</ele>
      </trkpt>
      <trkpt lat="37.6657752674348" lon="128.706333339214">
        <ele>728</ele>
      </trkpt>
      <trkpt lat="37.6657136944269" lon="128.706464767456">
        <ele>728</ele>
      </trkpt>
      <trkpt lat="37.6656669838351" lon="128.706604242325">
        <ele>728</ele>
      </trkpt>
      <trkpt lat="37.6657667746091" lon="128.706601560116">
        <ele>729</ele>
      </trkpt>
      <trkpt lat="37.6659026597027" lon="128.706580102444">
        <ele>730</ele>
      </trkpt>
      <trkpt lat="37.6659621093529" lon="128.706601560116">
        <ele>730</ele>
      </trkpt>
      <trkpt lat="37.6660109429586" lon="128.706633746624">
        <ele>729</ele>
      </trkpt>
      <trkpt lat="37.6661128564668" lon="128.706711530685">
        <ele>729</ele>
      </trkpt>
      <trkpt lat="37.6665205091004" lon="128.707044124603">
        <ele>737</ele>
      </trkpt>
    </trkseg>
  </trk>
</gpx>