<?xml version="1.0" encoding="UTF-8"?>
<gpx version="1.1" creator="HTML GPX Creator" xmlns="http://www.topografix.com/GPX/1/1">
  <trk>
    <name>happy_trailrun_9k</name>
    <trkseg>
      <trkpt lat="37.48649666835624" lon="127.1023213863373">
        <ele>46.5</ele>
      </trkpt>
      <trkpt lat="37.486496" lon="127.10232">
        <ele>46.8</ele>
      </trkpt>
      <trkpt lat="37.486337" lon="127.102261">
        <ele>47.2</ele>
      </trkpt>
      <trkpt lat="37.48629" lon="127.102229">
        <ele>47.5</ele>
      </trkpt>
      <trkpt lat="37.486274" lon="127.102175">
        <ele>47.9</ele>
      </trkpt>
      <trkpt lat="37.486209" lon="127.102265">
        <ele>48.2</ele>
      </trkpt>
      <trkpt lat="37.486159" lon="127.102115">
        <ele>48.5</ele>
      </trkpt>
      <trkpt lat="37.486156" lon="127.102">
        <ele>48.9</ele>
      </trkpt>
      <trkpt lat="37.48614" lon="127.101957">
        <ele>49.2</ele>
      </trkpt>
      <trkpt lat="37.486052" lon="127.101892">
        <ele>49.5</ele>
      </trkpt>
      <trkpt lat="37.485969" lon="127.101872">
        <ele>49.8</ele>
      </trkpt>
      <trkpt lat="37.485859" lon="127.10177">
        <ele>50.1</ele>
      </trkpt>
      <trkpt lat="37.48584" lon="127.101722">
        <ele>50.4</ele>
      </trkpt>
      <trkpt lat="37.485832" lon="127.101617">
        <ele>50.6</ele>
      </trkpt>
      <trkpt lat="37.485772" lon="127.101452">
        <ele>50.9</ele>
      </trkpt>
      <trkpt lat="37.485721" lon="127.101358">
        <ele>51.1</ele>
      </trkpt>
      <trkpt lat="37.48573898108359" lon="127.10134506225587">
        <ele>51.6</ele>
      </trkpt>
      <trkpt lat="37.485721" lon="127.101358">
        <ele>52.2</ele>
      </trkpt>
      <trkpt lat="37.485709" lon="127.101337">
        <ele>52.7</ele>
      </trkpt>
      <trkpt lat="37.485663" lon="127.101301">
        <ele>53.2</ele>
      </trkpt>
      <trkpt lat="37.485576" lon="127.101287">
        <ele>53.7</ele>
      </trkpt>
      <trkpt lat="37.485485" lon="127.101328">
        <ele>54.2</ele>
      </trkpt>
      <trkpt lat="37.485421" lon="127.101368">
        <ele>54.7</ele>
      </trkpt>
      <trkpt lat="37.485333" lon="127.1014">
        <ele>55.1</ele>
      </trkpt>
      <trkpt lat="37.485255" lon="127.101415">
        <ele>55.6</ele>
      </trkpt>
      <trkpt lat="37.48509" lon="127.10151">
        <ele>56.1</ele>
      </trkpt>
      <trkpt lat="37.484924" lon="127.101654">
        <ele>56.6</ele>
      </trkpt>
      <trkpt lat="37.484862" lon="127.101673">
        <ele>57.1</ele>
      </trkpt>
      <trkpt lat="37.484771" lon="127.101747">
        <ele>57.6</ele>
      </trkpt>
      <trkpt lat="37.48465" lon="127.101777">
        <ele>58.0</ele>
      </trkpt>
      <trkpt lat="37.484611" lon="127.101773">
        <ele>58.5</ele>
      </trkpt>
      <trkpt lat="37.484615206034235" lon="127.10173130035402">
        <ele>59.0</ele>
      </trkpt>
      <trkpt lat="37.484611" lon="127.101773">
        <ele>59.4</ele>
      </trkpt>
      <trkpt lat="37.484595" lon="127.101772">
        <ele>59.8</ele>
      </trkpt>
      <trkpt lat="37.484545" lon="127.101749">
        <ele>60.2</ele>
      </trkpt>
      <trkpt lat="37.484426" lon="127.101646">
        <ele>60.6</ele>
      </trkpt>
      <trkpt lat="37.484283" lon="127.101613">
        <ele>61.0</ele>
      </trkpt>
      <trkpt lat="37.48413" lon="127.10149">
        <ele>61.4</ele>
      </trkpt>
      <trkpt lat="37.483917" lon="127.101332">
        <ele>61.8</ele>
      </trkpt>
      <trkpt lat="37.483826" lon="127.101275">
        <ele>62.1</ele>
      </trkpt>
      <trkpt lat="37.483764" lon="127.101183">
        <ele>62.5</ele>
      </trkpt>
      <trkpt lat="37.48371276837851" lon="127.10123777389528">
        <ele>62.9</ele>
      </trkpt>
      <trkpt lat="37.483764" lon="127.101183">
        <ele>63.3</ele>
      </trkpt>
      <trkpt lat="37.483751" lon="127.101162">
        <ele>63.7</ele>
      </trkpt>
      <trkpt lat="37.483714" lon="127.10112">
        <ele>64.1</ele>
      </trkpt>
      <trkpt lat="37.483691" lon="127.101081">
        <ele>64.5</ele>
      </trkpt>
      <trkpt lat="37.483558" lon="127.100848">
        <ele>64.9</ele>
      </trkpt>
      <trkpt lat="37.483501" lon="127.100689">
        <ele>65.3</ele>
      </trkpt>
      <trkpt lat="37.483449" lon="127.100494">
        <ele>65.8</ele>
      </trkpt>
      <trkpt lat="37.483437" lon="127.10035">
        <ele>66.2</ele>
      </trkpt>
      <trkpt lat="37.483402" lon="127.100165">
        <ele>66.7</ele>
      </trkpt>
      <trkpt lat="37.483328" lon="127.099902">
        <ele>67.2</ele>
      </trkpt>
      <trkpt lat="37.483144" lon="127.099458">
        <ele>67.7</ele>
      </trkpt>
      <trkpt lat="37.482761" lon="127.098917">
        <ele>68.2</ele>
      </trkpt>
      <trkpt lat="37.482595" lon="127.098663">
        <ele>68.7</ele>
      </trkpt>
      <trkpt lat="37.482351" lon="127.098362">
        <ele>69.3</ele>
      </trkpt>
      <trkpt lat="37.482131" lon="127.097976">
        <ele>70.0</ele>
      </trkpt>
      <trkpt lat="37.481895" lon="127.097848">
        <ele>70.6</ele>
      </trkpt>
      <trkpt lat="37.481801" lon="127.097743">
        <ele>71.3</ele>
      </trkpt>
      <trkpt lat="37.48178866679263" lon="127.09776163101198">
        <ele>72.0</ele>
      </trkpt>
      <trkpt lat="37.481801" lon="127.097743">
        <ele>72.8</ele>
      </trkpt>
      <trkpt lat="37.481793" lon="127.097735">
        <ele>73.5</ele>
      </trkpt>
      <trkpt lat="37.481691" lon="127.097687">
        <ele>74.4</ele>
      </trkpt>
      <trkpt lat="37.481586" lon="127.097657">
        <ele>75.3</ele>
      </trkpt>
      <trkpt lat="37.481467" lon="127.097706">
        <ele>76.2</ele>
      </trkpt>
      <trkpt lat="37.481386" lon="127.097713">
        <ele>77.2</ele>
      </trkpt>
      <trkpt lat="37.481152" lon="127.097638">
        <ele>78.2</ele>
      </trkpt>
      <trkpt lat="37.480976" lon="127.097719">
        <ele>79.2</ele>
      </trkpt>
      <trkpt lat="37.480839" lon="127.097691">
        <ele>80.3</ele>
      </trkpt>
      <trkpt lat="37.480764" lon="127.09771">
        <ele>81.5</ele>
      </trkpt>
      <trkpt lat="37.480627" lon="127.097904">
        <ele>82.7</ele>
      </trkpt>
      <trkpt lat="37.480499" lon="127.098003">
        <ele>83.9</ele>
      </trkpt>
      <trkpt lat="37.480395" lon="127.098164">
        <ele>85.2</ele>
      </trkpt>
      <trkpt lat="37.480287" lon="127.098214">
        <ele>86.6</ele>
      </trkpt>
      <trkpt lat="37.480103" lon="127.098263">
        <ele>87.9</ele>
      </trkpt>
      <trkpt lat="37.479971" lon="127.09822">
        <ele>89.4</ele>
      </trkpt>
      <trkpt lat="37.479845" lon="127.098215">
        <ele>90.8</ele>
      </trkpt>
      <trkpt lat="37.47984748754994" lon="127.09819078445436">
        <ele>92.3</ele>
      </trkpt>
      <trkpt lat="37.479845" lon="127.098215">
        <ele>93.7</ele>
      </trkpt>
      <trkpt lat="37.479747" lon="127.098212">
        <ele>95.2</ele>
      </trkpt>
      <trkpt lat="37.479588" lon="127.098116">
        <ele>96.8</ele>
      </trkpt>
      <trkpt lat="37.47948" lon="127.098108">
        <ele>98.3</ele>
      </trkpt>
      <trkpt lat="37.479255" lon="127.098152">
        <ele>99.8</ele>
      </trkpt>
      <trkpt lat="37.47923" lon="127.098145">
        <ele>101.3</ele>
      </trkpt>
      <trkpt lat="37.479096" lon="127.09811">
        <ele>102.9</ele>
      </trkpt>
      <trkpt lat="37.478989" lon="127.098068">
        <ele>104.3</ele>
      </trkpt>
      <trkpt lat="37.478956" lon="127.098021">
        <ele>105.8</ele>
      </trkpt>
      <trkpt lat="37.47892" lon="127.097983">
        <ele>107.3</ele>
      </trkpt>
      <trkpt lat="37.478687" lon="127.097999">
        <ele>108.7</ele>
      </trkpt>
      <trkpt lat="37.478573" lon="127.09789">
        <ele>110.0</ele>
      </trkpt>
      <trkpt lat="37.478472" lon="127.097833">
        <ele>111.3</ele>
      </trkpt>
      <trkpt lat="37.478255" lon="127.097818">
        <ele>112.6</ele>
      </trkpt>
      <trkpt lat="37.478016" lon="127.097858">
        <ele>113.8</ele>
      </trkpt>
      <trkpt lat="37.477959" lon="127.097845">
        <ele>114.9</ele>
      </trkpt>
      <trkpt lat="37.477941" lon="127.097814">
        <ele>115.9</ele>
      </trkpt>
      <trkpt lat="37.477943" lon="127.097778">
        <ele>116.9</ele>
      </trkpt>
      <trkpt lat="37.477963" lon="127.097699">
        <ele>117.8</ele>
      </trkpt>
      <trkpt lat="37.47795734351527" lon="127.09769725799562">
        <ele>118.7</ele>
      </trkpt>
      <trkpt lat="37.477963" lon="127.097699">
        <ele>119.4</ele>
      </trkpt>
      <trkpt lat="37.477984" lon="127.097624">
        <ele>120.2</ele>
      </trkpt>
      <trkpt lat="37.477999" lon="127.097542">
        <ele>120.8</ele>
      </trkpt>
      <trkpt lat="37.477983" lon="127.097485">
        <ele>121.5</ele>
      </trkpt>
      <trkpt lat="37.478026" lon="127.097403">
        <ele>122.0</ele>
      </trkpt>
      <trkpt lat="37.478069" lon="127.097272">
        <ele>122.5</ele>
      </trkpt>
      <trkpt lat="37.478115" lon="127.097186">
        <ele>123.0</ele>
      </trkpt>
      <trkpt lat="37.478115" lon="127.096997">
        <ele>123.4</ele>
      </trkpt>
      <trkpt lat="37.478071" lon="127.096874">
        <ele>123.8</ele>
      </trkpt>
      <trkpt lat="37.477862" lon="127.096493">
        <ele>124.1</ele>
      </trkpt>
      <trkpt lat="37.477793" lon="127.096345">
        <ele>124.4</ele>
      </trkpt>
      <trkpt lat="37.477763" lon="127.09619">
        <ele>124.7</ele>
      </trkpt>
      <trkpt lat="37.47775300075596" lon="127.09619522094728">
        <ele>125.0</ele>
      </trkpt>
      <trkpt lat="37.477763" lon="127.09619">
        <ele>125.2</ele>
      </trkpt>
      <trkpt lat="37.477751" lon="127.096128">
        <ele>125.4</ele>
      </trkpt>
      <trkpt lat="37.477632" lon="127.095916">
        <ele>125.7</ele>
      </trkpt>
      <trkpt lat="37.477596" lon="127.095737">
        <ele>125.9</ele>
      </trkpt>
      <trkpt lat="37.4776" lon="127.095493">
        <ele>126.2</ele>
      </trkpt>
      <trkpt lat="37.477619" lon="127.095262">
        <ele>126.4</ele>
      </trkpt>
      <trkpt lat="37.477512" lon="127.09456">
        <ele>126.7</ele>
      </trkpt>
      <trkpt lat="37.477481" lon="127.094052">
        <ele>127.1</ele>
      </trkpt>
      <trkpt lat="37.477435" lon="127.093736">
        <ele>127.5</ele>
      </trkpt>
      <trkpt lat="37.477315" lon="127.093237">
        <ele>127.9</ele>
      </trkpt>
      <trkpt lat="37.47732728487938" lon="127.09323406219484">
        <ele>128.3</ele>
      </trkpt>
      <trkpt lat="37.477315" lon="127.093237">
        <ele>128.9</ele>
      </trkpt>
      <trkpt lat="37.477261" lon="127.093011">
        <ele>129.5</ele>
      </trkpt>
      <trkpt lat="37.477221" lon="127.092701">
        <ele>130.1</ele>
      </trkpt>
      <trkpt lat="37.477217" lon="127.092534">
        <ele>130.8</ele>
      </trkpt>
      <trkpt lat="37.477246" lon="127.09234">
        <ele>131.6</ele>
      </trkpt>
      <trkpt lat="37.477308" lon="127.092244">
        <ele>132.4</ele>
      </trkpt>
      <trkpt lat="37.477347" lon="127.092128">
        <ele>133.3</ele>
      </trkpt>
      <trkpt lat="37.477453" lon="127.092009">
        <ele>134.2</ele>
      </trkpt>
      <trkpt lat="37.477502" lon="127.091918">
        <ele>135.1</ele>
      </trkpt>
      <trkpt lat="37.477542" lon="127.091779">
        <ele>136.1</ele>
      </trkpt>
      <trkpt lat="37.477556" lon="127.091696">
        <ele>137.1</ele>
      </trkpt>
      <trkpt lat="37.477597" lon="127.091632">
        <ele>138.1</ele>
      </trkpt>
      <trkpt lat="37.477615" lon="127.091581">
        <ele>139.2</ele>
      </trkpt>
      <trkpt lat="37.477574" lon="127.091492">
        <ele>140.4</ele>
      </trkpt>
      <trkpt lat="37.477599743319786" lon="127.09147453308107">
        <ele>141.5</ele>
      </trkpt>
      <trkpt lat="37.477574" lon="127.091492">
        <ele>142.8</ele>
      </trkpt>
      <trkpt lat="37.477425" lon="127.09117">
        <ele>144.0</ele>
      </trkpt>
      <trkpt lat="37.47731" lon="127.090946">
        <ele>145.3</ele>
      </trkpt>
      <trkpt lat="37.477246" lon="127.090766">
        <ele>146.7</ele>
      </trkpt>
      <trkpt lat="37.477208" lon="127.090611">
        <ele>148.1</ele>
      </trkpt>
      <trkpt lat="37.477031" lon="127.090396">
        <ele>149.5</ele>
      </trkpt>
      <trkpt lat="37.476978" lon="127.090354">
        <ele>151.0</ele>
      </trkpt>
      <trkpt lat="37.476931" lon="127.090304">
        <ele>152.5</ele>
      </trkpt>
      <trkpt lat="37.476908" lon="127.090224">
        <ele>154.1</ele>
      </trkpt>
      <trkpt lat="37.476733" lon="127.089931">
        <ele>155.6</ele>
      </trkpt>
      <trkpt lat="37.476609" lon="127.089893">
        <ele>157.2</ele>
      </trkpt>
      <trkpt lat="37.47649" lon="127.089858">
        <ele>158.8</ele>
      </trkpt>
      <trkpt lat="37.47632" lon="127.089843">
        <ele>160.4</ele>
      </trkpt>
      <trkpt lat="37.47632" lon="127.089886">
        <ele>162.0</ele>
      </trkpt>
      <trkpt lat="37.476339614705914" lon="127.08988666534425">
        <ele>163.7</ele>
      </trkpt>
      <trkpt lat="37.47632" lon="127.089886">
        <ele>165.3</ele>
      </trkpt>
      <trkpt lat="37.47632" lon="127.089843">
        <ele>167.0</ele>
      </trkpt>
      <trkpt lat="37.476302" lon="127.089805">
        <ele>168.7</ele>
      </trkpt>
      <trkpt lat="37.476284" lon="127.089645">
        <ele>170.4</ele>
      </trkpt>
      <trkpt lat="37.476286" lon="127.089553">
        <ele>172.2</ele>
      </trkpt>
      <trkpt lat="37.476338" lon="127.089476">
        <ele>173.9</ele>
      </trkpt>
      <trkpt lat="37.476367" lon="127.089326">
        <ele>175.7</ele>
      </trkpt>
      <trkpt lat="37.476366" lon="127.089235">
        <ele>177.5</ele>
      </trkpt>
      <trkpt lat="37.47633" lon="127.089161">
        <ele>179.3</ele>
      </trkpt>
      <trkpt lat="37.476249" lon="127.089054">
        <ele>181.1</ele>
      </trkpt>
      <trkpt lat="37.476169" lon="127.08897">
        <ele>183.0</ele>
      </trkpt>
      <trkpt lat="37.476018" lon="127.088752">
        <ele>184.9</ele>
      </trkpt>
      <trkpt lat="37.475925" lon="127.088647">
        <ele>186.8</ele>
      </trkpt>
      <trkpt lat="37.475917" lon="127.08862">
        <ele>188.7</ele>
      </trkpt>
      <trkpt lat="37.475887" lon="127.088506">
        <ele>190.6</ele>
      </trkpt>
      <trkpt lat="37.475885" lon="127.08841">
        <ele>192.4</ele>
      </trkpt>
      <trkpt lat="37.475931" lon="127.088279">
        <ele>194.3</ele>
      </trkpt>
      <trkpt lat="37.47598" lon="127.087644">
        <ele>196.2</ele>
      </trkpt>
      <trkpt lat="37.475977" lon="127.087439">
        <ele>198.0</ele>
      </trkpt>
      <trkpt lat="37.47599903575742" lon="127.08744049072267">
        <ele>199.8</ele>
      </trkpt>
      <trkpt lat="37.475977" lon="127.087439">
        <ele>201.5</ele>
      </trkpt>
      <trkpt lat="37.475976" lon="127.087282">
        <ele>203.3</ele>
      </trkpt>
      <trkpt lat="37.476018" lon="127.087084">
        <ele>204.9</ele>
      </trkpt>
      <trkpt lat="37.476014" lon="127.086964">
        <ele>206.6</ele>
      </trkpt>
      <trkpt lat="37.475989" lon="127.086762">
        <ele>208.2</ele>
      </trkpt>
      <trkpt lat="37.475943" lon="127.086621">
        <ele>209.7</ele>
      </trkpt>
      <trkpt lat="37.475874" lon="127.08651">
        <ele>211.2</ele>
      </trkpt>
      <trkpt lat="37.475814" lon="127.08633">
        <ele>212.6</ele>
      </trkpt>
      <trkpt lat="37.475825" lon="127.08618">
        <ele>214.0</ele>
      </trkpt>
      <trkpt lat="37.475735" lon="127.086159">
        <ele>215.4</ele>
      </trkpt>
      <trkpt lat="37.475743600527494" lon="127.08611011505128">
        <ele>216.6</ele>
      </trkpt>
      <trkpt lat="37.475735" lon="127.086159">
        <ele>217.8</ele>
      </trkpt>
      <trkpt lat="37.47565" lon="127.086139">
        <ele>219.0</ele>
      </trkpt>
      <trkpt lat="37.475592" lon="127.086068">
        <ele>220.1</ele>
      </trkpt>
      <trkpt lat="37.475562" lon="127.085949">
        <ele>221.1</ele>
      </trkpt>
      <trkpt lat="37.475537" lon="127.085758">
        <ele>222.1</ele>
      </trkpt>
      <trkpt lat="37.47548" lon="127.085582">
        <ele>223.0</ele>
      </trkpt>
      <trkpt lat="37.475418" lon="127.08545">
        <ele>223.9</ele>
      </trkpt>
      <trkpt lat="37.475369" lon="127.085381">
        <ele>224.7</ele>
      </trkpt>
      <trkpt lat="37.47535193147925" lon="127.08540201187135">
        <ele>225.5</ele>
      </trkpt>
      <trkpt lat="37.475369" lon="127.085381">
        <ele>226.2</ele>
      </trkpt>
      <trkpt lat="37.475341" lon="127.085341">
        <ele>226.9</ele>
      </trkpt>
      <trkpt lat="37.475293" lon="127.085143">
        <ele>227.6</ele>
      </trkpt>
      <trkpt lat="37.475375" lon="127.084796">
        <ele>228.3</ele>
      </trkpt>
      <trkpt lat="37.475488" lon="127.084431">
        <ele>228.9</ele>
      </trkpt>
      <trkpt lat="37.475498" lon="127.084305">
        <ele>229.6</ele>
      </trkpt>
      <trkpt lat="37.475436" lon="127.084218">
        <ele>230.2</ele>
      </trkpt>
      <trkpt lat="37.475397" lon="127.084103">
        <ele>230.8</ele>
      </trkpt>
      <trkpt lat="37.475412" lon="127.084014">
        <ele>231.5</ele>
      </trkpt>
      <trkpt lat="37.475429" lon="127.083959">
        <ele>232.1</ele>
      </trkpt>
      <trkpt lat="37.475463" lon="127.083633">
        <ele>232.8</ele>
      </trkpt>
      <trkpt lat="37.475539" lon="127.083362">
        <ele>233.5</ele>
      </trkpt>
      <trkpt lat="37.475547" lon="127.083224">
        <ele>234.2</ele>
      </trkpt>
      <trkpt lat="37.475529" lon="127.08317">
        <ele>234.9</ele>
      </trkpt>
      <trkpt lat="37.475386" lon="127.082989">
        <ele>235.7</ele>
      </trkpt>
      <trkpt lat="37.475317" lon="127.082774">
        <ele>236.5</ele>
      </trkpt>
      <trkpt lat="37.475282" lon="127.082588">
        <ele>237.3</ele>
      </trkpt>
      <trkpt lat="37.475295" lon="127.08246">
        <ele>238.2</ele>
      </trkpt>
      <trkpt lat="37.475317" lon="127.082336">
        <ele>239.1</ele>
      </trkpt>
      <trkpt lat="37.475309" lon="127.082208">
        <ele>240.1</ele>
      </trkpt>
      <trkpt lat="37.475285" lon="127.082049">
        <ele>241.1</ele>
      </trkpt>
      <trkpt lat="37.475266785762386" lon="127.08205461502077">
        <ele>242.1</ele>
      </trkpt>
      <trkpt lat="37.475285" lon="127.082049">
        <ele>243.1</ele>
      </trkpt>
      <trkpt lat="37.475271" lon="127.081951">
        <ele>244.1</ele>
      </trkpt>
      <trkpt lat="37.475265" lon="127.081829">
        <ele>245.1</ele>
      </trkpt>
      <trkpt lat="37.475268" lon="127.081711">
        <ele>246.0</ele>
      </trkpt>
      <trkpt lat="37.475255" lon="127.081543">
        <ele>246.9</ele>
      </trkpt>
      <trkpt lat="37.475122" lon="127.080971">
        <ele>247.8</ele>
      </trkpt>
      <trkpt lat="37.475069" lon="127.080816">
        <ele>248.6</ele>
      </trkpt>
      <trkpt lat="37.474741" lon="127.079856">
        <ele>249.4</ele>
      </trkpt>
      <trkpt lat="37.474748" lon="127.079617">
        <ele>250.1</ele>
      </trkpt>
      <trkpt lat="37.474841" lon="127.079639">
        <ele>250.6</ele>
      </trkpt>
      <trkpt lat="37.474896" lon="127.07956">
        <ele>251.1</ele>
      </trkpt>
      <trkpt lat="37.474881" lon="127.079487">
        <ele>251.5</ele>
      </trkpt>
      <trkpt lat="37.474797" lon="127.079358">
        <ele>251.7</ele>
      </trkpt>
      <trkpt lat="37.474774" lon="127.079299">
        <ele>251.9</ele>
      </trkpt>
      <trkpt lat="37.4748" lon="127.079232">
        <ele>251.9</ele>
      </trkpt>
      <trkpt lat="37.474808" lon="127.079205">
        <ele>251.8</ele>
      </trkpt>
      <trkpt lat="37.47475590942397" lon="127.0791792869568">
        <ele>251.5</ele>
      </trkpt>
      <trkpt lat="37.474808" lon="127.079205">
        <ele>251.1</ele>
      </trkpt>
      <trkpt lat="37.474837" lon="127.079118">
        <ele>250.5</ele>
      </trkpt>
      <trkpt lat="37.474842" lon="127.079006">
        <ele>249.8</ele>
      </trkpt>
      <trkpt lat="37.47498" lon="127.078707">
        <ele>248.9</ele>
      </trkpt>
      <trkpt lat="37.474979" lon="127.07864">
        <ele>247.8</ele>
      </trkpt>
      <trkpt lat="37.474919" lon="127.07856">
        <ele>246.6</ele>
      </trkpt>
      <trkpt lat="37.474836" lon="127.078334">
        <ele>245.2</ele>
      </trkpt>
      <trkpt lat="37.474869" lon="127.07812">
        <ele>243.6</ele>
      </trkpt>
      <trkpt lat="37.474974" lon="127.077789">
        <ele>241.8</ele>
      </trkpt>
      <trkpt lat="37.475003" lon="127.077633">
        <ele>239.8</ele>
      </trkpt>
      <trkpt lat="37.475057" lon="127.077112">
        <ele>237.7</ele>
      </trkpt>
      <trkpt lat="37.474943" lon="127.077087">
        <ele>235.4</ele>
      </trkpt>
      <trkpt lat="37.474694" lon="127.076851">
        <ele>232.9</ele>
      </trkpt>
      <trkpt lat="37.474498" lon="127.076501">
        <ele>230.3</ele>
      </trkpt>
      <trkpt lat="37.474078" lon="127.076174">
        <ele>227.7</ele>
      </trkpt>
      <trkpt lat="37.473777" lon="127.075871">
        <ele>224.9</ele>
      </trkpt>
      <trkpt lat="37.473774" lon="127.075527">
        <ele>222.2</ele>
      </trkpt>
      <trkpt lat="37.473794" lon="127.075287">
        <ele>219.3</ele>
      </trkpt>
      <trkpt lat="37.473551" lon="127.074815">
        <ele>216.5</ele>
      </trkpt>
      <trkpt lat="37.47347" lon="127.074713">
        <ele>213.6</ele>
      </trkpt>
      <trkpt lat="37.473427" lon="127.074688">
        <ele>210.8</ele>
      </trkpt>
      <trkpt lat="37.47339355544875" lon="127.07478046417238">
        <ele>207.9</ele>
      </trkpt>
      <trkpt lat="37.473427" lon="127.074688">
        <ele>205.2</ele>
      </trkpt>
      <trkpt lat="37.473287" lon="127.074606">
        <ele>202.4</ele>
      </trkpt>
      <trkpt lat="37.473255" lon="127.074445">
        <ele>199.7</ele>
      </trkpt>
      <trkpt lat="37.473202" lon="127.074346">
        <ele>196.9</ele>
      </trkpt>
      <trkpt lat="37.473072" lon="127.074185">
        <ele>194.3</ele>
      </trkpt>
      <trkpt lat="37.472937" lon="127.074068">
        <ele>191.7</ele>
      </trkpt>
      <trkpt lat="37.472606" lon="127.073761">
        <ele>189.2</ele>
      </trkpt>
      <trkpt lat="37.472446" lon="127.073595">
        <ele>186.8</ele>
      </trkpt>
      <trkpt lat="37.472357" lon="127.073421">
        <ele>184.5</ele>
      </trkpt>
      <trkpt lat="37.472197" lon="127.073219">
        <ele>182.3</ele>
      </trkpt>
      <trkpt lat="37.472111" lon="127.072944">
        <ele>180.2</ele>
      </trkpt>
      <trkpt lat="37.471984" lon="127.072777">
        <ele>178.2</ele>
      </trkpt>
      <trkpt lat="37.471972" lon="127.072554">
        <ele>176.4</ele>
      </trkpt>
      <trkpt lat="37.471998" lon="127.072252">
        <ele>174.7</ele>
      </trkpt>
      <trkpt lat="37.47205" lon="127.072008">
        <ele>173.2</ele>
      </trkpt>
      <trkpt lat="37.471998" lon="127.071829">
        <ele>171.8</ele>
      </trkpt>
      <trkpt lat="37.47192899722893" lon="127.07186222076417">
        <ele>170.6</ele>
      </trkpt>
      <trkpt lat="37.471998" lon="127.071829">
        <ele>169.5</ele>
      </trkpt>
      <trkpt lat="37.47205" lon="127.072008">
        <ele>168.7</ele>
      </trkpt>
      <trkpt lat="37.471998" lon="127.072252">
        <ele>167.9</ele>
      </trkpt>
      <trkpt lat="37.471784" lon="127.071825">
        <ele>167.4</ele>
      </trkpt>
      <trkpt lat="37.471664" lon="127.071673">
        <ele>167.0</ele>
      </trkpt>
      <trkpt lat="37.471597" lon="127.071366">
        <ele>166.8</ele>
      </trkpt>
      <trkpt lat="37.471566" lon="127.071178">
        <ele>166.7</ele>
      </trkpt>
      <trkpt lat="37.471439" lon="127.070808">
        <ele>166.7</ele>
      </trkpt>
      <trkpt lat="37.471293" lon="127.070572">
        <ele>166.9</ele>
      </trkpt>
      <trkpt lat="37.471107" lon="127.070403">
        <ele>167.2</ele>
      </trkpt>
      <trkpt lat="37.47111" lon="127.070221">
        <ele>167.5</ele>
      </trkpt>
      <trkpt lat="37.47108" lon="127.070089">
        <ele>168.0</ele>
      </trkpt>
      <trkpt lat="37.471086" lon="127.069859">
        <ele>168.6</ele>
      </trkpt>
      <trkpt lat="37.47115" lon="127.069434">
        <ele>169.3</ele>
      </trkpt>
      <trkpt lat="37.471082" lon="127.069073">
        <ele>170.1</ele>
      </trkpt>
      <trkpt lat="37.4709412557146" lon="127.06911563873292">
        <ele>171.0</ele>
      </trkpt>
      <trkpt lat="37.471082" lon="127.069073">
        <ele>172.1</ele>
      </trkpt>
      <trkpt lat="37.471036" lon="127.068829">
        <ele>173.3</ele>
      </trkpt>
      <trkpt lat="37.471043" lon="127.068649">
        <ele>174.7</ele>
      </trkpt>
      <trkpt lat="37.471034" lon="127.068505">
        <ele>176.2</ele>
      </trkpt>
      <trkpt lat="37.470893" lon="127.06839">
        <ele>177.8</ele>
      </trkpt>
      <trkpt lat="37.470797" lon="127.068282">
        <ele>179.5</ele>
      </trkpt>
      <trkpt lat="37.470631" lon="127.068104">
        <ele>181.3</ele>
      </trkpt>
      <trkpt lat="37.470526" lon="127.067831">
        <ele>183.2</ele>
      </trkpt>
      <trkpt lat="37.470399" lon="127.06766">
        <ele>185.3</ele>
      </trkpt>
      <trkpt lat="37.47029" lon="127.067261">
        <ele>187.4</ele>
      </trkpt>
      <trkpt lat="37.470261" lon="127.06712">
        <ele>189.7</ele>
      </trkpt>
      <trkpt lat="37.470245" lon="127.066817">
        <ele>192.1</ele>
      </trkpt>
      <trkpt lat="37.47019" lon="127.066527">
        <ele>194.5</ele>
      </trkpt>
      <trkpt lat="37.470036" lon="127.066324">
        <ele>197.0</ele>
      </trkpt>
      <trkpt lat="37.469875" lon="127.066059">
        <ele>199.6</ele>
      </trkpt>
      <trkpt lat="37.469682" lon="127.06576">
        <ele>202.3</ele>
      </trkpt>
      <trkpt lat="37.469544" lon="127.06563">
        <ele>205.0</ele>
      </trkpt>
      <trkpt lat="37.469423" lon="127.065384">
        <ele>207.7</ele>
      </trkpt>
      <trkpt lat="37.469413" lon="127.065253">
        <ele>210.5</ele>
      </trkpt>
      <trkpt lat="37.46937" lon="127.065104">
        <ele>213.3</ele>
      </trkpt>
      <trkpt lat="37.469351" lon="127.06484">
        <ele>216.2</ele>
      </trkpt>
      <trkpt lat="37.469338" lon="127.064749">
        <ele>219.0</ele>
      </trkpt>
      <trkpt lat="37.469314" lon="127.064619">
        <ele>221.8</ele>
      </trkpt>
      <trkpt lat="37.469279" lon="127.064521">
        <ele>224.6</ele>
      </trkpt>
      <trkpt lat="37.469307" lon="127.06436">
        <ele>227.4</ele>
      </trkpt>
      <trkpt lat="37.469244" lon="127.064199">
        <ele>230.2</ele>
      </trkpt>
      <trkpt lat="37.46918" lon="127.064101">
        <ele>232.9</ele>
      </trkpt>
      <trkpt lat="37.469052" lon="127.063819">
        <ele>235.6</ele>
      </trkpt>
      <trkpt lat="37.469042" lon="127.063655">
        <ele>238.2</ele>
      </trkpt>
      <trkpt lat="37.469046" lon="127.063166">
        <ele>240.7</ele>
      </trkpt>
      <trkpt lat="37.469161" lon="127.062852">
        <ele>243.2</ele>
      </trkpt>
      <trkpt lat="37.469194" lon="127.06279">
        <ele>245.5</ele>
      </trkpt>
      <trkpt lat="37.469287" lon="127.06261">
        <ele>247.6</ele>
      </trkpt>
      <trkpt lat="37.469311" lon="127.062475">
        <ele>249.7</ele>
      </trkpt>
      <trkpt lat="37.469281" lon="127.062297">
        <ele>251.6</ele>
      </trkpt>
      <trkpt lat="37.469098" lon="127.062115">
        <ele>253.4</ele>
      </trkpt>
      <trkpt lat="37.469047" lon="127.061858">
        <ele>255.1</ele>
      </trkpt>
      <trkpt lat="37.468952" lon="127.061624">
        <ele>256.6</ele>
      </trkpt>
      <trkpt lat="37.468928" lon="127.061466">
        <ele>257.9</ele>
      </trkpt>
      <trkpt lat="37.468967" lon="127.061177">
        <ele>259.1</ele>
      </trkpt>
      <trkpt lat="37.46876136618459" lon="127.0611333847046">
        <ele>260.1</ele>
      </trkpt>
      <trkpt lat="37.468967" lon="127.061177">
        <ele>260.9</ele>
      </trkpt>
      <trkpt lat="37.468999" lon="127.060945">
        <ele>261.5</ele>
      </trkpt>
      <trkpt lat="37.468998" lon="127.060411">
        <ele>262.0</ele>
      </trkpt>
      <trkpt lat="37.469065" lon="127.060111">
        <ele>262.3</ele>
      </trkpt>
      <trkpt lat="37.469097" lon="127.060049">
        <ele>262.4</ele>
      </trkpt>
      <trkpt lat="37.469057" lon="127.059791">
        <ele>262.4</ele>
      </trkpt>
      <trkpt lat="37.469145" lon="127.059261">
        <ele>262.3</ele>
      </trkpt>
      <trkpt lat="37.469134" lon="127.059045">
        <ele>261.9</ele>
      </trkpt>
      <trkpt lat="37.469037" lon="127.05889">
        <ele>261.4</ele>
      </trkpt>
      <trkpt lat="37.468903" lon="127.058599">
        <ele>260.8</ele>
      </trkpt>
      <trkpt lat="37.468929" lon="127.058285">
        <ele>260.0</ele>
      </trkpt>
      <trkpt lat="37.468893" lon="127.058072">
        <ele>259.1</ele>
      </trkpt>
      <trkpt lat="37.468958" lon="127.057853">
        <ele>258.0</ele>
      </trkpt>
      <trkpt lat="37.469006" lon="127.057736">
        <ele>256.9</ele>
      </trkpt>
      <trkpt lat="37.469022" lon="127.057632">
        <ele>255.5</ele>
      </trkpt>
      <trkpt lat="37.468964" lon="127.057532">
        <ele>254.0</ele>
      </trkpt>
      <trkpt lat="37.4689" lon="127.057391">
        <ele>252.4</ele>
      </trkpt>
      <trkpt lat="37.46882948869463" lon="127.05744266510011">
        <ele>250.7</ele>
      </trkpt>
      <trkpt lat="37.4689" lon="127.057391">
        <ele>248.8</ele>
      </trkpt>
      <trkpt lat="37.468884" lon="127.057355">
        <ele>246.8</ele>
      </trkpt>
      <trkpt lat="37.468791" lon="127.05726">
        <ele>244.6</ele>
      </trkpt>
      <trkpt lat="37.468757" lon="127.057172">
        <ele>242.3</ele>
      </trkpt>
      <trkpt lat="37.468697" lon="127.057081">
        <ele>239.9</ele>
      </trkpt>
      <trkpt lat="37.468586" lon="127.057013">
        <ele>237.3</ele>
      </trkpt>
      <trkpt lat="37.4684" lon="127.056706">
        <ele>234.6</ele>
      </trkpt>
      <trkpt lat="37.468384" lon="127.056467">
        <ele>231.8</ele>
      </trkpt>
      <trkpt lat="37.468391" lon="127.056368">
        <ele>228.9</ele>
      </trkpt>
      <trkpt lat="37.468432" lon="127.056186">
        <ele>225.9</ele>
      </trkpt>
      <trkpt lat="37.468499" lon="127.056071">
        <ele>222.8</ele>
      </trkpt>
      <trkpt lat="37.468625" lon="127.055879">
        <ele>219.5</ele>
      </trkpt>
      <trkpt lat="37.468755" lon="127.055622">
        <ele>216.2</ele>
      </trkpt>
      <trkpt lat="37.468781" lon="127.055546">
        <ele>212.8</ele>
      </trkpt>
      <trkpt lat="37.46875" lon="127.055431">
        <ele>209.3</ele>
      </trkpt>
      <trkpt lat="37.468723" lon="127.055223">
        <ele>205.7</ele>
      </trkpt>
      <trkpt lat="37.468678" lon="127.055101">
        <ele>202.1</ele>
      </trkpt>
      <trkpt lat="37.468604" lon="127.054999">
        <ele>198.4</ele>
      </trkpt>
      <trkpt lat="37.468456" lon="127.05496">
        <ele>194.6</ele>
      </trkpt>
      <trkpt lat="37.468194" lon="127.054671">
        <ele>190.7</ele>
      </trkpt>
      <trkpt lat="37.468049" lon="127.054282">
        <ele>186.8</ele>
      </trkpt>
      <trkpt lat="37.46797" lon="127.053783">
        <ele>182.7</ele>
      </trkpt>
      <trkpt lat="37.468023" lon="127.053623">
        <ele>178.7</ele>
      </trkpt>
      <trkpt lat="37.468056" lon="127.053464">
        <ele>174.6</ele>
      </trkpt>
      <trkpt lat="37.467916" lon="127.053109">
        <ele>170.4</ele>
      </trkpt>
      <trkpt lat="37.467786" lon="127.05313">
        <ele>166.2</ele>
      </trkpt>
      <trkpt lat="37.46787" lon="127.052919">
        <ele>162.0</ele>
      </trkpt>
      <trkpt lat="37.467925" lon="127.052725">
        <ele>157.9</ele>
      </trkpt>
      <trkpt lat="37.467856" lon="127.052619">
        <ele>153.7</ele>
      </trkpt>
      <trkpt lat="37.467681" lon="127.052076">
        <ele>149.5</ele>
      </trkpt>
      <trkpt lat="37.467529" lon="127.051866">
        <ele>145.4</ele>
      </trkpt>
      <trkpt lat="37.467416" lon="127.051511">
        <ele>141.3</ele>
      </trkpt>
      <trkpt lat="37.467207" lon="127.051038">
        <ele>137.3</ele>
      </trkpt>
      <trkpt lat="37.467022" lon="127.050687">
        <ele>133.3</ele>
      </trkpt>
      <trkpt lat="37.466849" lon="127.050285">
        <ele>129.4</ele>
      </trkpt>
      <trkpt lat="37.466556" lon="127.050031">
        <ele>125.6</ele>
      </trkpt>
      <trkpt lat="37.46643" lon="127.049857">
        <ele>121.9</ele>
      </trkpt>
      <trkpt lat="37.466218" lon="127.049508">
        <ele>118.3</ele>
      </trkpt>
      <trkpt lat="37.466139" lon="127.049319">
        <ele>114.8</ele>
      </trkpt>
      <trkpt lat="37.46609" lon="127.04905">
        <ele>111.4</ele>
      </trkpt>
      <trkpt lat="37.465964" lon="127.048913">
        <ele>108.0</ele>
      </trkpt>
      <trkpt lat="37.465946" lon="127.048853">
        <ele>104.8</ele>
      </trkpt>
      <trkpt lat="37.465934227271305" lon="127.04885959625244">
        <ele>101.7</ele>
      </trkpt>
      <trkpt lat="37.465946" lon="127.048853">
        <ele>98.6</ele>
      </trkpt>
      <trkpt lat="37.465964" lon="127.048913">
        <ele>95.6</ele>
      </trkpt>
      <trkpt lat="37.465606" lon="127.048967">
        <ele>92.7</ele>
      </trkpt>
      <trkpt lat="37.465511" lon="127.048954">
        <ele>89.9</ele>
      </trkpt>
      <trkpt lat="37.465445" lon="127.048896">
        <ele>87.1</ele>
      </trkpt>
      <trkpt lat="37.465281" lon="127.048803">
        <ele>84.4</ele>
      </trkpt>
      <trkpt lat="37.465215" lon="127.048721">
        <ele>81.9</ele>
      </trkpt>
      <trkpt lat="37.465101" lon="127.048725">
        <ele>79.4</ele>
      </trkpt>
      <trkpt lat="37.465007" lon="127.048886">
        <ele>77.0</ele>
      </trkpt>
      <trkpt lat="37.464909" lon="127.048842">
        <ele>74.7</ele>
      </trkpt>
      <trkpt lat="37.464808" lon="127.048886">
        <ele>72.5</ele>
      </trkpt>
      <trkpt lat="37.464731" lon="127.04895">
        <ele>70.4</ele>
      </trkpt>
      <trkpt lat="37.464566" lon="127.048987">
        <ele>68.3</ele>
      </trkpt>
      <trkpt lat="37.464418" lon="127.049187">
        <ele>66.4</ele>
      </trkpt>
      <trkpt lat="37.464307" lon="127.049302">
        <ele>64.5</ele>
      </trkpt>
      <trkpt lat="37.464103" lon="127.049442">
        <ele>62.7</ele>
      </trkpt>
      <trkpt lat="37.463966" lon="127.049625">
        <ele>61.0</ele>
      </trkpt>
      <trkpt lat="37.463834" lon="127.049778">
        <ele>59.3</ele>
      </trkpt>
      <trkpt lat="37.463795" lon="127.049812">
        <ele>57.8</ele>
      </trkpt>
      <trkpt lat="37.463788" lon="127.049855">
        <ele>56.3</ele>
      </trkpt>
      <trkpt lat="37.463828" lon="127.049896">
        <ele>54.9</ele>
      </trkpt>
      <trkpt lat="37.46378" lon="127.049949">
        <ele>53.5</ele>
      </trkpt>
      <trkpt lat="37.463743" lon="127.049962">
        <ele>52.2</ele>
      </trkpt>
      <trkpt lat="37.46355" lon="127.049913">
        <ele>50.9</ele>
      </trkpt>
      <trkpt lat="37.463457" lon="127.049902">
        <ele>49.7</ele>
      </trkpt>
      <trkpt lat="37.463397" lon="127.04996">
        <ele>48.5</ele>
      </trkpt>
      <trkpt lat="37.462953" lon="127.049925">
        <ele>47.4</ele>
      </trkpt>
      <trkpt lat="37.462908" lon="127.049923">
        <ele>46.4</ele>
      </trkpt>
      <trkpt lat="37.462189" lon="127.050149">
        <ele>45.4</ele>
      </trkpt>
      <trkpt lat="37.462154" lon="127.050189">
        <ele>44.4</ele>
      </trkpt>
      <trkpt lat="37.46218725192441" lon="127.05023288726808">
        <ele>43.5</ele>
      </trkpt>
      <trkpt lat="37.462154" lon="127.050189">
        <ele>42.7</ele>
      </trkpt>
      <trkpt lat="37.462118" lon="127.050232">
        <ele>42.0</ele>
      </trkpt>
      <trkpt lat="37.46168" lon="127.049844">
        <ele>41.3</ele>
      </trkpt>
      <trkpt lat="37.461639" lon="127.049806">
        <ele>40.7</ele>
      </trkpt>
      <trkpt lat="37.46164222168521" lon="127.0498037338257">
        <ele>40.1</ele>
      </trkpt>
      <trkpt lat="37.461639" lon="127.049806">
        <ele>39.7</ele>
      </trkpt>
      <trkpt lat="37.461591" lon="127.049763">
        <ele>39.3</ele>
      </trkpt>
      <trkpt lat="37.461524" lon="127.049911">
        <ele>38.9</ele>
      </trkpt>
      <trkpt lat="37.461540028073095" lon="127.04992175102235">
        <ele>38.6</ele>
      </trkpt>
      <trkpt lat="37.461524" lon="127.049911">
        <ele>38.4</ele>
      </trkpt>
      <trkpt lat="37.46146" lon="127.050053">
        <ele>38.3</ele>
      </trkpt>
      <trkpt lat="37.461454866622944" lon="127.05005049705507">
        <ele>38.2</ele>
      </trkpt>
      <trkpt lat="37.46146" lon="127.050053">
        <ele>38.2</ele>
      </trkpt>
      <trkpt lat="37.461424" lon="127.050135">
        <ele>38.3</ele>
      </trkpt>
      <trkpt lat="37.461369" lon="127.05027">
        <ele>38.4</ele>
      </trkpt>
      <trkpt lat="37.46134415659279" lon="127.05025434494019">
        <ele>38.5</ele>
      </trkpt>
      <trkpt lat="37.461369" lon="127.05027">
        <ele>38.7</ele>
      </trkpt>
      <trkpt lat="37.461236" lon="127.050594">
        <ele>38.9</ele>
      </trkpt>
      <trkpt lat="37.461241962573276" lon="127.0505976676941">
        <ele>39.2</ele>
      </trkpt>
      <trkpt lat="37.461236" lon="127.050594">
        <ele>39.5</ele>
      </trkpt>
      <trkpt lat="37.461085" lon="127.050965">
        <ele>39.8</ele>
      </trkpt>
      <trkpt lat="37.46108015509009" lon="127.05096244812013">
        <ele>40.2</ele>
      </trkpt>
      <trkpt lat="37.461086" lon="127.050965">
        <ele>40.6</ele>
      </trkpt>
      <trkpt lat="37.461004" lon="127.051166">
        <ele>41.0</ele>
      </trkpt>
      <trkpt lat="37.461003509317955" lon="127.05116629600526">
        <ele>41.5</ele>
      </trkpt>
      <trkpt lat="37.461004" lon="127.051166">
        <ele>42.0</ele>
      </trkpt>
      <trkpt lat="37.460906" lon="127.051405">
        <ele>42.5</ele>
      </trkpt>
      <trkpt lat="37.46090131483287" lon="127.05140233039857">
        <ele>43.1</ele>
      </trkpt>
      <trkpt lat="37.460906" lon="127.051405">
        <ele>43.6</ele>
      </trkpt>
      <trkpt lat="37.460904" lon="127.051413">
        <ele>44.2</ele>
      </trkpt>
      <trkpt lat="37.460794" lon="127.051626">
        <ele>44.9</ele>
      </trkpt>
      <trkpt lat="37.4607820877571" lon="127.05161690711977">
        <ele>45.5</ele>
      </trkpt>
      <trkpt lat="37.460794" lon="127.051626">
        <ele>46.1</ele>
      </trkpt>
      <trkpt lat="37.460677" lon="127.051855">
        <ele>46.8</ele>
      </trkpt>
      <trkpt lat="37.46068840920707" lon="127.05186367034914">
        <ele>47.4</ele>
      </trkpt>
      <trkpt lat="37.460677" lon="127.051855">
        <ele>48.1</ele>
      </trkpt>
      <trkpt lat="37.460605" lon="127.051996">
        <ele>48.7</ele>
      </trkpt>
      <trkpt lat="37.46055" lon="127.052125">
        <ele>49.4</ele>
      </trkpt>
      <trkpt lat="37.4605606655406" lon="127.05213189125062">
        <ele>50.0</ele>
      </trkpt>
      <trkpt lat="37.46055" lon="127.052125">
        <ele>50.6</ele>
      </trkpt>
      <trkpt lat="37.460438" lon="127.052388">
        <ele>51.2</ele>
      </trkpt>
      <trkpt lat="37.46040737285278" lon="127.05236792564394">
        <ele>51.8</ele>
      </trkpt>
      <trkpt lat="37.460439" lon="127.052389">
        <ele>52.4</ele>
      </trkpt>
      <trkpt lat="37.460339" lon="127.052625">
        <ele>52.9</ele>
      </trkpt>
      <trkpt lat="37.46033924266844" lon="127.05262541770936">
        <ele>53.4</ele>
      </trkpt>
      <trkpt lat="37.460339" lon="127.052625">
        <ele>53.9</ele>
      </trkpt>
      <trkpt lat="37.460121" lon="127.053141">
        <ele>54.3</ele>
      </trkpt>
      <trkpt lat="37.46013485174293" lon="127.05315113067628">
        <ele>54.8</ele>
      </trkpt>
      <trkpt lat="37.460122" lon="127.053142">
        <ele>55.2</ele>
      </trkpt>
      <trkpt lat="37.459978" lon="127.053481">
        <ele>55.5</ele>
      </trkpt>
      <trkpt lat="37.459964525544926" lon="127.05347299575807">
        <ele>55.9</ele>
      </trkpt>
      <trkpt lat="37.459979" lon="127.053482">
        <ele>56.2</ele>
      </trkpt>
      <trkpt lat="37.459827" lon="127.053842">
        <ele>56.5</ele>
      </trkpt>
      <trkpt lat="37.459819747971586" lon="127.0538377761841">
        <ele>56.7</ele>
      </trkpt>
      <trkpt lat="37.459827" lon="127.053842">
        <ele>56.9</ele>
      </trkpt>
      <trkpt lat="37.459788" lon="127.053936">
        <ele>57.1</ele>
      </trkpt>
      <trkpt lat="37.459624" lon="127.054311">
        <ele>57.2</ele>
      </trkpt>
      <trkpt lat="37.45960683926628" lon="127.05429911613466">
        <ele>57.3</ele>
      </trkpt>
      <trkpt lat="37.459624" lon="127.054311">
        <ele>57.4</ele>
      </trkpt>
      <trkpt lat="37.459436" lon="127.054744">
        <ele>57.5</ele>
      </trkpt>
      <trkpt lat="37.45944502824483" lon="127.05474972724916">
        <ele>57.5</ele>
      </trkpt>
      <trkpt lat="37.459436" lon="127.054744">
        <ele>57.5</ele>
      </trkpt>
      <trkpt lat="37.459317" lon="127.055018">
        <ele>57.5</ele>
      </trkpt>
      <trkpt lat="37.45931728245426" lon="127.05501794815065">
        <ele>57.4</ele>
      </trkpt>
      <trkpt lat="37.459317" lon="127.055018">
        <ele>57.3</ele>
      </trkpt>
      <trkpt lat="37.459199" lon="127.055287">
        <ele>57.2</ele>
      </trkpt>
      <trkpt lat="37.459181020037114" lon="127.05527544021608">
        <ele>57.1</ele>
      </trkpt>
      <trkpt lat="37.4592" lon="127.055288">
        <ele>56.9</ele>
      </trkpt>
      <trkpt lat="37.459103" lon="127.055509">
        <ele>56.7</ele>
      </trkpt>
      <trkpt lat="37.45912140515152" lon="127.05552220344545">
        <ele>56.5</ele>
      </trkpt>
      <trkpt lat="37.459119" lon="127.055524">
        <ele>56.3</ele>
      </trkpt>
      <trkpt lat="37.458891" lon="127.05538">
        <ele>56.0</ele>
      </trkpt>
      <trkpt lat="37.45888294513395" lon="127.0554041862488">
        <ele>55.7</ele>
      </trkpt>
      <trkpt lat="37.458941" lon="127.055442">
        <ele>55.4</ele>
      </trkpt>
      <trkpt lat="37.45882" lon="127.055726">
        <ele>55.1</ele>
      </trkpt>
      <trkpt lat="37.45875519838315" lon="127.05568313598634">
        <ele>54.8</ele>
      </trkpt>
      <trkpt lat="37.45882" lon="127.055726">
        <ele>54.5</ele>
      </trkpt>
      <trkpt lat="37.458717" lon="127.055971">
        <ele>54.1</ele>
      </trkpt>
      <trkpt lat="37.458667" lon="127.055963">
        <ele>53.7</ele>
      </trkpt>
      <trkpt lat="37.4586700337614" lon="127.05594062805177">
        <ele>53.4</ele>
      </trkpt>
      <trkpt lat="37.458667" lon="127.055963">
        <ele>53.0</ele>
      </trkpt>
      <trkpt lat="37.458548" lon="127.055947">
        <ele>52.5</ele>
      </trkpt>
      <trkpt lat="37.458494" lon="127.055958">
        <ele>52.1</ele>
      </trkpt>
      <trkpt lat="37.458477" lon="127.055986">
        <ele>51.7</ele>
      </trkpt>
      <trkpt lat="37.45847415476328" lon="127.05598354339601">
        <ele>51.3</ele>
      </trkpt>
      <trkpt lat="37.458477" lon="127.055986">
        <ele>50.9</ele>
      </trkpt>
      <trkpt lat="37.458416" lon="127.056093">
        <ele>50.4</ele>
      </trkpt>
      <trkpt lat="37.458307" lon="127.056384">
        <ele>50.0</ele>
      </trkpt>
      <trkpt lat="37.458233" lon="127.056474">
        <ele>49.5</ele>
      </trkpt>
      <trkpt lat="37.45788" lon="127.056673">
        <ele>49.1</ele>
      </trkpt>
      <trkpt lat="37.457752" lon="127.056818">
        <ele>48.6</ele>
      </trkpt>
      <trkpt lat="37.457727" lon="127.056862">
        <ele>48.2</ele>
      </trkpt>
      <trkpt lat="37.457568" lon="127.057139">
        <ele>47.8</ele>
      </trkpt>
      <trkpt lat="37.45757140144506" lon="127.05714225769044">
        <ele>47.3</ele>
      </trkpt>
      <trkpt lat="37.457568" lon="127.057139">
        <ele>46.9</ele>
      </trkpt>
      <trkpt lat="37.457477" lon="127.057299">
        <ele>46.4</ele>
      </trkpt>
      <trkpt lat="37.457109" lon="127.057943">
        <ele>46.0</ele>
      </trkpt>
      <trkpt lat="37.456876" lon="127.058281">
        <ele>45.6</ele>
      </trkpt>
      <trkpt lat="37.456754" lon="127.058399">
        <ele>45.1</ele>
      </trkpt>
      <trkpt lat="37.45659" lon="127.058521">
        <ele>44.7</ele>
      </trkpt>
      <trkpt lat="37.456046" lon="127.058809">
        <ele>44.3</ele>
      </trkpt>
      <trkpt lat="37.456055" lon="127.058835">
        <ele>43.9</ele>
      </trkpt>
      <trkpt lat="37.456055432678774" lon="127.05883741378786">
        <ele>43.5</ele>
      </trkpt>
      <trkpt lat="37.456055" lon="127.058835">
        <ele>43.1</ele>
      </trkpt>
      <trkpt lat="37.456046" lon="127.058809">
        <ele>42.7</ele>
      </trkpt>
      <trkpt lat="37.45593" lon="127.058504">
        <ele>42.4</ele>
      </trkpt>
      <trkpt lat="37.455557" lon="127.057713">
        <ele>42.0</ele>
      </trkpt>
      <trkpt lat="37.455512" lon="127.057539">
        <ele>41.6</ele>
      </trkpt>
      <trkpt lat="37.455482" lon="127.057194">
        <ele>41.3</ele>
      </trkpt>
      <trkpt lat="37.455453" lon="127.056506">
        <ele>41.0</ele>
      </trkpt>
      <trkpt lat="37.455394" lon="127.055791">
        <ele>40.6</ele>
      </trkpt>
      <trkpt lat="37.455395" lon="127.055619">
        <ele>40.3</ele>
      </trkpt>
      <trkpt lat="37.455385" lon="127.055155">
        <ele>40.0</ele>
      </trkpt>
      <trkpt lat="37.455395" lon="127.054746">
        <ele>39.7</ele>
      </trkpt>
      <trkpt lat="37.455389" lon="127.05459">
        <ele>39.4</ele>
      </trkpt>
      <trkpt lat="37.455401" lon="127.054434">
        <ele>39.1</ele>
      </trkpt>
      <trkpt lat="37.45546" lon="127.054293">
        <ele>38.9</ele>
      </trkpt>
      <trkpt lat="37.455531" lon="127.05415">
        <ele>38.6</ele>
      </trkpt>
      <trkpt lat="37.455711" lon="127.053919">
        <ele>38.3</ele>
      </trkpt>
      <trkpt lat="37.45584" lon="127.053799">
        <ele>38.0</ele>
      </trkpt>
      <trkpt lat="37.455938" lon="127.053664">
        <ele>37.8</ele>
      </trkpt>
      <trkpt lat="37.455983" lon="127.053503">
        <ele>37.5</ele>
      </trkpt>
      <trkpt lat="37.455988" lon="127.053382">
        <ele>37.2</ele>
      </trkpt>
      <trkpt lat="37.455977" lon="127.05328">
        <ele>36.9</ele>
      </trkpt>
      <trkpt lat="37.455919" lon="127.053094">
        <ele>36.6</ele>
      </trkpt>
      <trkpt lat="37.455855" lon="127.052968">
        <ele>36.4</ele>
      </trkpt>
      <trkpt lat="37.45581696288469" lon="127.05300092697145">
        <ele>36.1</ele>
      </trkpt>
      <trkpt lat="37.455855" lon="127.052968">
        <ele>35.8</ele>
      </trkpt>
      <trkpt lat="37.455807" lon="127.052875">
        <ele>35.5</ele>
      </trkpt>
      <trkpt lat="37.455761" lon="127.052747">
        <ele>35.3</ele>
      </trkpt>
      <trkpt lat="37.455738" lon="127.052602">
        <ele>35.0</ele>
      </trkpt>
      <trkpt lat="37.455748" lon="127.052458">
        <ele>34.8</ele>
      </trkpt>
      <trkpt lat="37.455782" lon="127.052354">
        <ele>34.6</ele>
      </trkpt>
      <trkpt lat="37.455752" lon="127.052331">
        <ele>34.3</ele>
      </trkpt>
      <trkpt lat="37.455729" lon="127.052298">
        <ele>34.1</ele>
      </trkpt>
      <trkpt lat="37.455716" lon="127.052256">
        <ele>34.0</ele>
      </trkpt>
      <trkpt lat="37.455715" lon="127.052212">
        <ele>33.8</ele>
      </trkpt>
      <trkpt lat="37.455726" lon="127.052169">
        <ele>33.7</ele>
      </trkpt>
      <trkpt lat="37.455747" lon="127.052134">
        <ele>33.5</ele>
      </trkpt>
      <trkpt lat="37.455775" lon="127.052109">
        <ele>33.4</ele>
      </trkpt>
      <trkpt lat="37.455734" lon="127.052041">
        <ele>33.3</ele>
      </trkpt>
      <trkpt lat="37.4556" lon="127.051739">
        <ele>33.2</ele>
      </trkpt>
      <trkpt lat="37.455578492330226" lon="127.05175638198854">
        <ele>33.0</ele>
      </trkpt>
      <trkpt lat="37.4556" lon="127.051739">
        <ele>32.9</ele>
      </trkpt>
      <trkpt lat="37.455587" lon="127.05171">
        <ele>32.8</ele>
      </trkpt>
      <trkpt lat="37.455557" lon="127.051612">
        <ele>32.6</ele>
      </trkpt>
      <trkpt lat="37.455127" lon="127.051679">
        <ele>32.5</ele>
      </trkpt>
      <trkpt lat="37.45504" lon="127.051704">
        <ele>32.4</ele>
      </trkpt>
      <trkpt lat="37.455015" lon="127.05171">
        <ele>32.3</ele>
      </trkpt>
      <trkpt lat="37.45501638015758" lon="127.0517134666443">
        <ele>32.1</ele>
      </trkpt>
    </trkseg>
  </trk>
</gpx>