<?xml version="1.0" encoding="UTF-8"?>
<gpx creator="Garmin Connect" version="1.1" schemaLocation="http://www.topografix.com/GPX/1/1 http://www.topografix.com/GPX/11.xsd" xmlns="http://www.topografix.com/GPX/1/1" xmlns:xsi="http://www.w3.org/2001/XMLSchema-instance" xsi:schemaLocation="http://www.topografix.com/GPX/1/1 http://www.topografix.com/GPX/1/1/gpx.xsd http://www.garmin.com/xmlschemas/GpxExtensions/v3 http://www.garmin.com/xmlschemas/GpxExtensionsv3.xsd http://www.garmin.com/xmlschemas/TrackPointExtension/v1 http://www.garmin.com/xmlschemas/TrackPointExtensionv1.xsd http://www.garmin.com/xmlschemas/PowerExtension/v1 http://www.garmin.com/xmlschemas/PowerExtensionv1.xsd http://www.topografix.com/GPX/gpx_style/0/2 http://www.topografix.com/GPX/gpx_style/0/2/gpx_style.xsd" xmlns:gpxtpx="http://www.garmin.com/xmlschemas/TrackPointExtension/v1" xmlns:gpxx="http://www.garmin.com/xmlschemas/GpxExtensions/v3" xmlns:gpxpx="http://www.garmin.com/xmlschemas/PowerExtension/v1" xmlns:gpx_style="http://www.topografix.com/GPX/gpx_style/0/2">
  <metadata>
    <name>Night 13</name>
    <author>
      <name>gpx.studio</name>
      <link href="https://gpx.studio"/>
    </author>
    <link href="connect.garmin.com">
      <text>Garmin Connect</text>
    </link>
    <time>2026-05-08T08:40:17.000Z</time>
  </metadata>
  <trk>
    <name>Night 13</name>
    <type>trail_running</type>
    <trkseg>
      <trkpt lat="35.59217132627964" lon="127.5010485202074">
        <ele>561.4000244140625</ele>
        <time>2026-05-08T08:40:17.000Z</time>
        <extensions>
          <gpxtpx:TrackPointExtension>
            <gpxtpx:hr>85</gpxtpx:hr>
            <gpxtpx:cad>51</gpxtpx:cad>
          </gpxtpx:TrackPointExtension>
        </extensions>
      </trkpt>
      <trkpt lat="35.59237131848931" lon="127.50096369534731">
        <ele>564</ele>
        <time>2026-05-08T08:40:25.000Z</time>
        <extensions>
          <gpxtpx:TrackPointExtension>
            <gpxtpx:hr>89</gpxtpx:hr>
            <gpxtpx:cad>98</gpxtpx:cad>
          </gpxtpx:TrackPointExtension>
        </extensions>
      </trkpt>
      <trkpt lat="35.592611879110336" lon="127.50145537778735">
        <ele>566.7999877929688</ele>
        <time>2026-05-08T08:40:38.000Z</time>
        <extensions>
          <gpxtpx:TrackPointExtension>
            <gpxtpx:hr>97</gpxtpx:hr>
            <gpxtpx:cad>88</gpxtpx:cad>
          </gpxtpx:TrackPointExtension>
        </extensions>
      </trkpt>
      <trkpt lat="35.59290977194905" lon="127.50131397508085">
        <ele>571.5999755859375</ele>
        <time>2026-05-08T08:40:49.000Z</time>
        <extensions>
          <gpxtpx:TrackPointExtension>
            <gpxtpx:hr>108</gpxtpx:hr>
            <gpxtpx:cad>88</gpxtpx:cad>
          </gpxtpx:TrackPointExtension>
        </extensions>
      </trkpt>
      <trkpt lat="35.59294288046658" lon="127.50033186748624">
        <ele>579.7999877929688</ele>
        <time>2026-05-08T08:41:17.000Z</time>
        <extensions>
          <gpxtpx:TrackPointExtension>
            <gpxtpx:hr>144</gpxtpx:hr>
            <gpxtpx:cad>85</gpxtpx:cad>
          </gpxtpx:TrackPointExtension>
        </extensions>
      </trkpt>
      <trkpt lat="35.59331679716706" lon="127.4992595706135">
        <ele>591.5999755859375</ele>
        <time>2026-05-08T08:41:56.000Z</time>
        <extensions>
          <gpxtpx:TrackPointExtension>
            <gpxtpx:hr>159</gpxtpx:hr>
            <gpxtpx:cad>82</gpxtpx:cad>
          </gpxtpx:TrackPointExtension>
        </extensions>
      </trkpt>
      <trkpt lat="35.593524584546685" lon="127.49891448765993">
        <ele>602.5999755859375</ele>
        <time>2026-05-08T08:42:18.000Z</time>
        <extensions>
          <gpxtpx:TrackPointExtension>
            <gpxtpx:hr>159</gpxtpx:hr>
            <gpxtpx:cad>82</gpxtpx:cad>
          </gpxtpx:TrackPointExtension>
        </extensions>
      </trkpt>
      <trkpt lat="35.59341981075704" lon="127.49808677472174">
        <ele>606.5999755859375</ele>
        <time>2026-05-08T08:42:49.000Z</time>
        <extensions>
          <gpxtpx:TrackPointExtension>
            <gpxtpx:hr>159</gpxtpx:hr>
            <gpxtpx:cad>82</gpxtpx:cad>
          </gpxtpx:TrackPointExtension>
        </extensions>
      </trkpt>
      <trkpt lat="35.59389665722847" lon="127.49742896296084">
        <ele>617</ele>
        <time>2026-05-08T08:43:25.000Z</time>
        <extensions>
          <gpxtpx:TrackPointExtension>
            <gpxtpx:hr>153</gpxtpx:hr>
            <gpxtpx:cad>83</gpxtpx:cad>
          </gpxtpx:TrackPointExtension>
        </extensions>
      </trkpt>
      <trkpt lat="35.59394066222012" lon="127.49707348644733">
        <ele>621.4000244140625</ele>
        <time>2026-05-08T08:43:48.000Z</time>
        <extensions>
          <gpxtpx:TrackPointExtension>
            <gpxtpx:hr>153</gpxtpx:hr>
            <gpxtpx:cad>65</gpxtpx:cad>
          </gpxtpx:TrackPointExtension>
        </extensions>
      </trkpt>
      <trkpt lat="35.59406907297671" lon="127.497064685449">
        <ele>622.7999877929688</ele>
        <time>2026-05-08T08:44:00.000Z</time>
        <extensions>
          <gpxtpx:TrackPointExtension>
            <gpxtpx:hr>151</gpxtpx:hr>
            <gpxtpx:cad>85</gpxtpx:cad>
          </gpxtpx:TrackPointExtension>
        </extensions>
      </trkpt>
      <trkpt lat="35.594172505661845" lon="127.49724271707237">
        <ele>625.2000122070312</ele>
        <time>2026-05-08T08:44:07.000Z</time>
        <extensions>
          <gpxtpx:TrackPointExtension>
            <gpxtpx:hr>149</gpxtpx:hr>
            <gpxtpx:cad>84</gpxtpx:cad>
          </gpxtpx:TrackPointExtension>
        </extensions>
      </trkpt>
      <trkpt lat="35.59427132830024" lon="127.4979180470109">
        <ele>631.4000244140625</ele>
        <time>2026-05-08T08:44:37.000Z</time>
        <extensions>
          <gpxtpx:TrackPointExtension>
            <gpxtpx:hr>159</gpxtpx:hr>
            <gpxtpx:cad>59</gpxtpx:cad>
          </gpxtpx:TrackPointExtension>
        </extensions>
      </trkpt>
      <trkpt lat="35.594711462035775" lon="127.49764412641525">
        <ele>639.2000122070312</ele>
        <time>2026-05-08T08:45:07.000Z</time>
        <extensions>
          <gpxtpx:TrackPointExtension>
            <gpxtpx:hr>152</gpxtpx:hr>
            <gpxtpx:cad>84</gpxtpx:cad>
          </gpxtpx:TrackPointExtension>
        </extensions>
      </trkpt>
      <trkpt lat="35.59495688416064" lon="127.49732603318989">
        <ele>649.7999877929688</ele>
        <time>2026-05-08T08:45:28.000Z</time>
        <extensions>
          <gpxtpx:TrackPointExtension>
            <gpxtpx:hr>157</gpxtpx:hr>
            <gpxtpx:cad>78</gpxtpx:cad>
          </gpxtpx:TrackPointExtension>
        </extensions>
      </trkpt>
      <trkpt lat="35.594813134521246" lon="127.49705756083131">
        <ele>648.4000244140625</ele>
        <time>2026-05-08T08:45:38.000Z</time>
        <extensions>
          <gpxtpx:TrackPointExtension>
            <gpxtpx:hr>158</gpxtpx:hr>
            <gpxtpx:cad>81</gpxtpx:cad>
          </gpxtpx:TrackPointExtension>
        </extensions>
      </trkpt>
      <trkpt lat="35.59473141096532" lon="127.49652589671314">
        <ele>643.4000244140625</ele>
        <time>2026-05-08T08:45:56.000Z</time>
        <extensions>
          <gpxtpx:TrackPointExtension>
            <gpxtpx:hr>153</gpxtpx:hr>
            <gpxtpx:cad>78</gpxtpx:cad>
          </gpxtpx:TrackPointExtension>
        </extensions>
      </trkpt>
      <trkpt lat="35.594243835657835" lon="127.4960738606751">
        <ele>637.5999755859375</ele>
        <time>2026-05-08T08:46:20.000Z</time>
        <extensions>
          <gpxtpx:TrackPointExtension>
            <gpxtpx:hr>140</gpxtpx:hr>
            <gpxtpx:cad>82</gpxtpx:cad>
          </gpxtpx:TrackPointExtension>
        </extensions>
      </trkpt>
      <trkpt lat="35.59428742155433" lon="127.49568393453956">
        <ele>638.4000244140625</ele>
        <time>2026-05-08T08:46:33.000Z</time>
        <extensions>
          <gpxtpx:TrackPointExtension>
            <gpxtpx:hr>136</gpxtpx:hr>
            <gpxtpx:cad>87</gpxtpx:cad>
          </gpxtpx:TrackPointExtension>
        </extensions>
      </trkpt>
      <trkpt lat="35.594463273882866" lon="127.49535134062171">
        <ele>648.5999755859375</ele>
        <time>2026-05-08T08:46:53.000Z</time>
        <extensions>
          <gpxtpx:TrackPointExtension>
            <gpxtpx:hr>141</gpxtpx:hr>
            <gpxtpx:cad>80</gpxtpx:cad>
          </gpxtpx:TrackPointExtension>
        </extensions>
      </trkpt>
      <trkpt lat="35.594300581142306" lon="127.49507918022573">
        <ele>653.2000122070312</ele>
        <time>2026-05-08T08:47:15.000Z</time>
        <extensions>
          <gpxtpx:TrackPointExtension>
            <gpxtpx:hr>145</gpxtpx:hr>
            <gpxtpx:cad>80</gpxtpx:cad>
          </gpxtpx:TrackPointExtension>
        </extensions>
      </trkpt>
      <trkpt lat="35.59451876208186" lon="127.49474683776498">
        <ele>664.4000244140625</ele>
        <time>2026-05-08T08:47:55.000Z</time>
        <extensions>
          <gpxtpx:TrackPointExtension>
            <gpxtpx:hr>150</gpxtpx:hr>
            <gpxtpx:cad>78</gpxtpx:cad>
          </gpxtpx:TrackPointExtension>
        </extensions>
      </trkpt>
      <trkpt lat="35.59456712566316" lon="127.49441466294229">
        <ele>671.7999877929688</ele>
        <time>2026-05-08T08:48:23.000Z</time>
        <extensions>
          <gpxtpx:TrackPointExtension>
            <gpxtpx:hr>152</gpxtpx:hr>
          </gpxtpx:TrackPointExtension>
        </extensions>
      </trkpt>
      <trkpt lat="35.5947707220912" lon="127.49466896988451">
        <ele>671.7999877929688</ele>
        <time>2026-05-08T08:48:39.000Z</time>
        <extensions>
          <gpxtpx:TrackPointExtension>
            <gpxtpx:hr>152</gpxtpx:hr>
            <gpxtpx:cad>81</gpxtpx:cad>
          </gpxtpx:TrackPointExtension>
        </extensions>
      </trkpt>
      <trkpt lat="35.59515813365579" lon="127.49465723522007">
        <ele>678.5999755859375</ele>
        <time>2026-05-08T08:49:00.000Z</time>
        <extensions>
          <gpxtpx:TrackPointExtension>
            <gpxtpx:hr>155</gpxtpx:hr>
            <gpxtpx:cad>83</gpxtpx:cad>
          </gpxtpx:TrackPointExtension>
        </extensions>
      </trkpt>
      <trkpt lat="35.59490173123777" lon="127.49430226162076">
        <ele>682.5999755859375</ele>
        <time>2026-05-08T08:49:19.000Z</time>
        <extensions>
          <gpxtpx:TrackPointExtension>
            <gpxtpx:hr>163</gpxtpx:hr>
            <gpxtpx:cad>83</gpxtpx:cad>
          </gpxtpx:TrackPointExtension>
        </extensions>
      </trkpt>
      <trkpt lat="35.59487155638635" lon="127.49370580539107">
        <ele>693</ele>
        <time>2026-05-08T08:49:48.000Z</time>
        <extensions>
          <gpxtpx:TrackPointExtension>
            <gpxtpx:hr>166</gpxtpx:hr>
            <gpxtpx:cad>80</gpxtpx:cad>
          </gpxtpx:TrackPointExtension>
        </extensions>
      </trkpt>
      <trkpt lat="35.59478170238435" lon="127.49360589310527">
        <ele>693.2000122070312</ele>
        <time>2026-05-08T08:49:54.000Z</time>
        <extensions>
          <gpxtpx:TrackPointExtension>
            <gpxtpx:hr>165</gpxtpx:hr>
            <gpxtpx:cad>80</gpxtpx:cad>
          </gpxtpx:TrackPointExtension>
        </extensions>
      </trkpt>
      <trkpt lat="35.59411861002445" lon="127.49356205575168">
        <ele>689</ele>
        <time>2026-05-08T08:50:16.000Z</time>
        <extensions>
          <gpxtpx:TrackPointExtension>
            <gpxtpx:hr>162</gpxtpx:hr>
            <gpxtpx:cad>80</gpxtpx:cad>
          </gpxtpx:TrackPointExtension>
        </extensions>
      </trkpt>
      <trkpt lat="35.59384846128523" lon="127.49376255087554">
        <ele>683.7999877929688</ele>
        <time>2026-05-08T08:50:28.000Z</time>
        <extensions>
          <gpxtpx:TrackPointExtension>
            <gpxtpx:hr>159</gpxtpx:hr>
            <gpxtpx:cad>79</gpxtpx:cad>
          </gpxtpx:TrackPointExtension>
        </extensions>
      </trkpt>
      <trkpt lat="35.59322618879378" lon="127.49508747830987">
        <ele>662.2000122070312</ele>
        <time>2026-05-08T08:50:58.000Z</time>
        <extensions>
          <gpxtpx:TrackPointExtension>
            <gpxtpx:hr>158</gpxtpx:hr>
            <gpxtpx:cad>91</gpxtpx:cad>
          </gpxtpx:TrackPointExtension>
        </extensions>
      </trkpt>
      <trkpt lat="35.59298085048795" lon="127.49539056792855">
        <ele>656.7999877929688</ele>
        <time>2026-05-08T08:51:06.000Z</time>
        <extensions>
          <gpxtpx:TrackPointExtension>
            <gpxtpx:hr>158</gpxtpx:hr>
            <gpxtpx:cad>86</gpxtpx:cad>
          </gpxtpx:TrackPointExtension>
        </extensions>
      </trkpt>
      <trkpt lat="35.59313775971532" lon="127.49567287042737">
        <ele>649.7999877929688</ele>
        <time>2026-05-08T08:51:17.000Z</time>
        <extensions>
          <gpxtpx:TrackPointExtension>
            <gpxtpx:hr>157</gpxtpx:hr>
            <gpxtpx:cad>84</gpxtpx:cad>
          </gpxtpx:TrackPointExtension>
        </extensions>
      </trkpt>
      <trkpt lat="35.59304111637175" lon="127.49635037966073">
        <ele>636.5999755859375</ele>
        <time>2026-05-08T08:51:31.000Z</time>
        <extensions>
          <gpxtpx:TrackPointExtension>
            <gpxtpx:hr>159</gpxtpx:hr>
            <gpxtpx:cad>121</gpxtpx:cad>
          </gpxtpx:TrackPointExtension>
        </extensions>
      </trkpt>
      <trkpt lat="35.591893550008535" lon="127.49854350462556">
        <ele>595.5999755859375</ele>
        <time>2026-05-08T08:52:23.000Z</time>
        <extensions>
          <gpxtpx:TrackPointExtension>
            <gpxtpx:hr>172</gpxtpx:hr>
            <gpxtpx:cad>88</gpxtpx:cad>
          </gpxtpx:TrackPointExtension>
        </extensions>
      </trkpt>
      <trkpt lat="35.591680984944105" lon="127.49928689561784">
        <ele>578.2000122070312</ele>
        <time>2026-05-08T08:52:41.000Z</time>
        <extensions>
          <gpxtpx:TrackPointExtension>
            <gpxtpx:hr>170</gpxtpx:hr>
            <gpxtpx:cad>122</gpxtpx:cad>
          </gpxtpx:TrackPointExtension>
        </extensions>
      </trkpt>
      <trkpt lat="35.59157411567867" lon="127.49945076182485">
        <ele>575</ele>
        <time>2026-05-08T08:52:46.000Z</time>
        <extensions>
          <gpxtpx:TrackPointExtension>
            <gpxtpx:hr>170</gpxtpx:hr>
            <gpxtpx:cad>88</gpxtpx:cad>
          </gpxtpx:TrackPointExtension>
        </extensions>
      </trkpt>
      <trkpt lat="35.59121495112777" lon="127.49950247816741">
        <ele>570.4000244140625</ele>
        <time>2026-05-08T08:52:56.000Z</time>
        <extensions>
          <gpxtpx:TrackPointExtension>
            <gpxtpx:hr>171</gpxtpx:hr>
            <gpxtpx:cad>81</gpxtpx:cad>
          </gpxtpx:TrackPointExtension>
        </extensions>
      </trkpt>
      <trkpt lat="35.59115200303495" lon="127.49981897883117">
        <ele>567.2000122070312</ele>
        <time>2026-05-08T08:53:03.000Z</time>
        <extensions>
          <gpxtpx:TrackPointExtension>
            <gpxtpx:hr>172</gpxtpx:hr>
            <gpxtpx:cad>81</gpxtpx:cad>
          </gpxtpx:TrackPointExtension>
        </extensions>
      </trkpt>
      <trkpt lat="35.5906037427485" lon="127.50050503760576">
        <ele>561</ele>
        <time>2026-05-08T08:53:23.000Z</time>
        <extensions>
          <gpxtpx:TrackPointExtension>
            <gpxtpx:hr>174</gpxtpx:hr>
            <gpxtpx:cad>81</gpxtpx:cad>
          </gpxtpx:TrackPointExtension>
        </extensions>
      </trkpt>
      <trkpt lat="35.590354884043336" lon="127.50121305696666">
        <ele>555.5999755859375</ele>
        <time>2026-05-08T08:53:43.000Z</time>
        <extensions>
          <gpxtpx:TrackPointExtension>
            <gpxtpx:hr>170</gpxtpx:hr>
            <gpxtpx:cad>78</gpxtpx:cad>
          </gpxtpx:TrackPointExtension>
        </extensions>
      </trkpt>
      <trkpt lat="35.58997" lon="127.501803">
        <ele>545.91</ele>
        <time>2026-05-08T08:56:14.164Z</time>
      </trkpt>
      <trkpt lat="35.589786" lon="127.502251">
        <ele>541.09</ele>
        <time>2026-05-08T08:58:17.291Z</time>
      </trkpt>
      <trkpt lat="35.589493" lon="127.503645">
        <ele>532.51</ele>
        <time>2026-05-08T09:04:10.830Z</time>
      </trkpt>
      <trkpt lat="35.589305" lon="127.504042">
        <ele>531.29</ele>
        <time>2026-05-08T09:06:03.534Z</time>
      </trkpt>
      <trkpt lat="35.589399" lon="127.504022">
        <ele>531.3</ele>
        <time>2026-05-08T09:06:32.312Z</time>
      </trkpt>
      <trkpt lat="35.58887767743085" lon="127.50462842145618">
        <ele>529.2707942282092</ele>
        <time>2026-05-08T09:09:51.508Z</time>
      </trkpt>
      <trkpt lat="35.58885997161269" lon="127.50482993200421">
        <ele>529.7999877929688</ele>
        <time>2026-05-08T09:11:06.154Z</time>
      </trkpt>
      <trkpt lat="35.58840994723141" lon="127.50525992363691">
        <ele>535.5999755859375</ele>
        <time>2026-05-08T09:12:20.154Z</time>
      </trkpt>
      <trkpt lat="35.5882999766618" lon="127.50553996302187">
        <ele>537.7999877929688</ele>
        <time>2026-05-08T09:12:45.154Z</time>
      </trkpt>
      <trkpt lat="35.588179947808385" lon="127.50561992637813">
        <ele>540</ele>
        <time>2026-05-08T09:13:09.154Z</time>
      </trkpt>
      <trkpt lat="35.587989930063486" lon="127.50541993416846">
        <ele>542.2000122070312</ele>
        <time>2026-05-08T09:13:59.154Z</time>
      </trkpt>
      <trkpt lat="35.58736992068589" lon="127.50535991974175">
        <ele>548.5999755859375</ele>
        <time>2026-05-08T09:15:38.154Z</time>
      </trkpt>
      <trkpt lat="35.58692995458841" lon="127.50585998408496">
        <ele>558.5999755859375</ele>
        <time>2026-05-08T09:17:43.154Z</time>
      </trkpt>
      <trkpt lat="35.58682995848358" lon="127.50628997571766">
        <ele>572.2000122070312</ele>
        <time>2026-05-08T09:18:57.154Z</time>
      </trkpt>
      <trkpt lat="35.58698996901512" lon="127.50664997845888">
        <ele>582.4000244140625</ele>
        <time>2026-05-08T09:19:47.154Z</time>
      </trkpt>
      <trkpt lat="35.58717998676002" lon="127.50674997456372">
        <ele>582.5999755859375</ele>
        <time>2026-05-08T09:20:37.154Z</time>
      </trkpt>
      <trkpt lat="35.587209993973374" lon="127.5068699195981">
        <ele>584.2000122070312</ele>
        <time>2026-05-08T09:21:02.154Z</time>
      </trkpt>
      <trkpt lat="35.58649996295571" lon="127.5080599822104">
        <ele>634.2000122070312</ele>
        <time>2026-05-08T09:26:04.154Z</time>
      </trkpt>
      <trkpt lat="35.58642997406423" lon="127.5082999560982">
        <ele>637.2000122070312</ele>
        <time>2026-05-08T09:26:54.154Z</time>
      </trkpt>
      <trkpt lat="35.58569999411702" lon="127.50884997658432">
        <ele>673.2000122070312</ele>
        <time>2026-05-08T09:30:16.154Z</time>
      </trkpt>
      <trkpt lat="35.58526991866529" lon="127.50946998596191">
        <ele>689.5999755859375</ele>
        <time>2026-05-08T09:32:47.154Z</time>
      </trkpt>
      <trkpt lat="35.58494998142123" lon="127.50960996374488">
        <ele>688.2000122070312</ele>
        <time>2026-05-08T09:34:04.154Z</time>
      </trkpt>
      <trkpt lat="35.58481997810304" lon="127.5100799370557">
        <ele>689.2000122070312</ele>
        <time>2026-05-08T09:35:20.154Z</time>
      </trkpt>
      <trkpt lat="35.584909999743104" lon="127.51053993590176">
        <ele>688.2000122070312</ele>
        <time>2026-05-08T09:36:36.154Z</time>
      </trkpt>
      <trkpt lat="35.58563997969031" lon="127.51135993748903">
        <ele>664</ele>
        <time>2026-05-08T09:39:35.154Z</time>
      </trkpt>
      <trkpt lat="35.58582999743521" lon="127.51138994470239">
        <ele>657</ele>
        <time>2026-05-08T09:40:00.154Z</time>
      </trkpt>
      <trkpt lat="35.585859920829535" lon="127.51166998408735">
        <ele>658</ele>
        <time>2026-05-08T09:41:17.154Z</time>
      </trkpt>
      <trkpt lat="35.58631991967559" lon="127.51192999072373">
        <ele>663</ele>
        <time>2026-05-08T09:43:51.154Z</time>
      </trkpt>
      <trkpt lat="35.58695996180177" lon="127.5120699685067">
        <ele>681.5999755859375</ele>
        <time>2026-05-08T09:50:16.154Z</time>
      </trkpt>
      <trkpt lat="35.58717998676002" lon="127.5125599745661">
        <ele>683.7999877929688</ele>
        <time>2026-05-08T09:53:42.154Z</time>
      </trkpt>
      <trkpt lat="35.58779999613762" lon="127.51272995956242">
        <ele>682.7999877929688</ele>
        <time>2026-05-08T09:58:26.154Z</time>
      </trkpt>
      <trkpt lat="35.588199980556965" lon="127.51262996345758">
        <ele>682.2000122070312</ele>
        <time>2026-05-08T10:01:02.154Z</time>
      </trkpt>
      <trkpt lat="35.58885997161269" lon="127.51281998120248">
        <ele>689.7999877929688</ele>
        <time>2026-05-08T10:02:46.154Z</time>
      </trkpt>
      <trkpt lat="35.58910991996527" lon="127.51311996951699">
        <ele>695</ele>
        <time>2026-05-08T10:04:30.154Z</time>
      </trkpt>
      <trkpt lat="35.58910991996527" lon="127.51349992118776">
        <ele>695</ele>
        <time>2026-05-08T10:07:58.154Z</time>
      </trkpt>
      <trkpt lat="35.58955994434655" lon="127.51356999389827">
        <ele>695.4000244140625</ele>
        <time>2026-05-08T10:10:34.154Z</time>
      </trkpt>
      <trkpt lat="35.589769994840026" lon="127.5137899350375">
        <ele>692.7999877929688</ele>
        <time>2026-05-08T10:12:19.154Z</time>
      </trkpt>
      <trkpt lat="35.59083994477987" lon="127.5138499494642">
        <ele>712</ele>
        <time>2026-05-08T10:17:33.154Z</time>
      </trkpt>
      <trkpt lat="35.59100992977619" lon="127.51373997889459">
        <ele>713.5999755859375</ele>
        <time>2026-05-08T10:19:18.154Z</time>
      </trkpt>
      <trkpt lat="35.591939985752106" lon="127.5142199266702">
        <ele>707.5999755859375</ele>
        <time>2026-05-08T10:25:53.154Z</time>
      </trkpt>
      <trkpt lat="35.59217995963991" lon="127.51444992609322">
        <ele>704.2000122070312</ele>
        <time>2026-05-08T10:27:12.154Z</time>
      </trkpt>
      <trkpt lat="35.59257994405925" lon="127.51457992941141">
        <ele>706.7999877929688</ele>
        <time>2026-05-08T10:28:58.154Z</time>
      </trkpt>
      <trkpt lat="35.59351997449994" lon="127.51429997384548">
        <ele>707.4000244140625</ele>
        <time>2026-05-08T10:33:22.154Z</time>
      </trkpt>
      <trkpt lat="35.59393999166787" lon="127.51398992724717">
        <ele>704</ele>
        <time>2026-05-08T10:36:55.154Z</time>
      </trkpt>
      <trkpt lat="35.59487993828952" lon="127.5140399672091">
        <ele>698.5999755859375</ele>
        <time>2026-05-08T10:41:21.154Z</time>
      </trkpt>
      <trkpt lat="35.59504992328584" lon="127.51393997110426">
        <ele>699.4000244140625</ele>
        <time>2026-05-08T10:42:15.154Z</time>
      </trkpt>
      <trkpt lat="35.595399951562285" lon="127.51402999274433">
        <ele>699.5999755859375</ele>
        <time>2026-05-08T10:44:02.154Z</time>
      </trkpt>
      <trkpt lat="35.59596992097795" lon="127.51461999490857">
        <ele>696.2000122070312</ele>
        <time>2026-05-08T10:48:30.154Z</time>
      </trkpt>
      <trkpt lat="35.596279967576265" lon="127.51477992162108">
        <ele>697.2000122070312</ele>
        <time>2026-05-08T10:49:50.154Z</time>
      </trkpt>
      <trkpt lat="35.59658993035555" lon="127.51517998985946">
        <ele>696.4000244140625</ele>
        <time>2026-05-08T10:51:38.154Z</time>
      </trkpt>
      <trkpt lat="35.596899976953864" lon="127.5152799859643">
        <ele>696</ele>
        <time>2026-05-08T10:52:59.154Z</time>
      </trkpt>
      <trkpt lat="35.5969999730587" lon="127.51554996706545">
        <ele>690.7999877929688</ele>
        <time>2026-05-08T10:54:20.154Z</time>
      </trkpt>
      <trkpt lat="35.59725997969508" lon="127.51571995206177">
        <ele>686.4000244140625</ele>
        <time>2026-05-08T10:55:40.154Z</time>
      </trkpt>
      <trkpt lat="35.5971899908036" lon="127.51563998870552">
        <ele>687.7999877929688</ele>
        <time>2026-05-08T10:56:08.154Z</time>
      </trkpt>
      <trkpt lat="35.5978599563241" lon="127.51640995033085">
        <ele>703</ele>
        <time>2026-05-08T11:00:11.154Z</time>
      </trkpt>
      <trkpt lat="35.59837996959686" lon="127.51643995754421">
        <ele>702.7999877929688</ele>
        <time>2026-05-08T11:04:15.154Z</time>
      </trkpt>
      <trkpt lat="35.598599994555116" lon="127.51672997139394">
        <ele>700.4000244140625</ele>
        <time>2026-05-08T11:07:26.154Z</time>
      </trkpt>
      <trkpt lat="35.599029986187816" lon="127.51665998250246">
        <ele>700</ele>
        <time>2026-05-08T11:11:04.154Z</time>
      </trkpt>
      <trkpt lat="35.59940993785858" lon="127.51690993085504">
        <ele>700.5999755859375</ele>
        <time>2026-05-08T11:14:14.154Z</time>
      </trkpt>
      <trkpt lat="35.59981998056173" lon="127.51687992364168">
        <ele>700.2000122070312</ele>
        <time>2026-05-08T11:16:04.154Z</time>
      </trkpt>
      <trkpt lat="35.60028995387256" lon="127.51716993749142">
        <ele>700.7999877929688</ele>
        <time>2026-05-08T11:19:43.154Z</time>
      </trkpt>
      <trkpt lat="35.60055993497372" lon="127.51719994470477">
        <ele>702.7999877929688</ele>
        <time>2026-05-08T11:20:37.154Z</time>
      </trkpt>
      <trkpt lat="35.60083997435868" lon="127.51774996519089">
        <ele>701</ele>
        <time>2026-05-08T11:23:22.154Z</time>
      </trkpt>
      <trkpt lat="35.60099998489022" lon="127.5182899273932">
        <ele>710.7999877929688</ele>
        <time>2026-05-08T11:28:25.154Z</time>
      </trkpt>
      <trkpt lat="35.60101993381977" lon="127.51876995898783">
        <ele>725.2000122070312</ele>
        <time>2026-05-08T11:33:56.154Z</time>
      </trkpt>
      <trkpt lat="35.601199977099895" lon="127.51930992119014">
        <ele>733.7999877929688</ele>
        <time>2026-05-08T11:37:36.154Z</time>
      </trkpt>
      <trkpt lat="35.60156995430589" lon="127.51922995783389">
        <ele>734.4000244140625</ele>
        <time>2026-05-08T11:41:18.154Z</time>
      </trkpt>
      <trkpt lat="35.60212994925678" lon="127.51970998942852">
        <ele>735.5999755859375</ele>
        <time>2026-05-08T11:44:32.154Z</time>
      </trkpt>
      <trkpt lat="35.6027299258858" lon="127.51997997052968">
        <ele>742</ele>
        <time>2026-05-08T11:45:55.154Z</time>
      </trkpt>
      <trkpt lat="35.603219931945205" lon="127.51979992724955">
        <ele>743.7999877929688</ele>
        <time>2026-05-08T11:48:14.154Z</time>
      </trkpt>
      <trkpt lat="35.60412995517254" lon="127.51986999996006">
        <ele>755.4000244140625</ele>
        <time>2026-05-08T11:52:25.154Z</time>
      </trkpt>
      <trkpt lat="35.604809978976846" lon="127.51997997052968">
        <ele>765.2000122070312</ele>
        <time>2026-05-08T11:57:34.154Z</time>
      </trkpt>
      <trkpt lat="35.60582997277379" lon="127.52037995494902">
        <ele>787.2000122070312</ele>
        <time>2026-05-08T12:03:11.154Z</time>
      </trkpt>
      <trkpt lat="35.60630992054939" lon="127.5203899294138">
        <ele>796.2000122070312</ele>
        <time>2026-05-08T12:07:25.154Z</time>
      </trkpt>
      <trkpt lat="35.60644998215139" lon="127.52048992551863">
        <ele>799</ele>
        <time>2026-05-08T12:08:21.154Z</time>
      </trkpt>
      <trkpt lat="35.60707996599376" lon="127.52140992321074">
        <ele>805.5999755859375</ele>
        <time>2026-05-08T12:13:04.154Z</time>
      </trkpt>
      <trkpt lat="35.60774993151426" lon="127.52160999923944">
        <ele>828.4000244140625</ele>
        <time>2026-05-08T12:16:22.154Z</time>
      </trkpt>
      <trkpt lat="35.608399948105216" lon="127.52151997759938">
        <ele>854.2000122070312</ele>
        <time>2026-05-08T12:23:29.154Z</time>
      </trkpt>
      <trkpt lat="35.60874997638166" lon="127.52179993316531">
        <ele>865.7999877929688</ele>
        <time>2026-05-08T12:25:51.154Z</time>
      </trkpt>
      <trkpt lat="35.608869921416044" lon="127.52203999087214">
        <ele>869.4000244140625</ele>
        <time>2026-05-08T12:27:45.154Z</time>
      </trkpt>
      <trkpt lat="35.60887997969985" lon="127.52329995855689">
        <ele>851.5999755859375</ele>
        <time>2026-05-08T12:36:20.154Z</time>
      </trkpt>
      <trkpt lat="35.609039990231395" lon="127.52465992234647">
        <ele>854.7999877929688</ele>
        <time>2026-05-08T12:40:38.154Z</time>
      </trkpt>
      <trkpt lat="35.60960995964706" lon="127.52549995668232">
        <ele>857.7999877929688</ele>
        <time>2026-05-08T12:45:55.154Z</time>
      </trkpt>
      <trkpt lat="35.60975999571383" lon="127.52602994441986">
        <ele>848.7999877929688</ele>
        <time>2026-05-08T12:50:15.154Z</time>
      </trkpt>
      <trkpt lat="35.60947995632887" lon="127.5269999820739">
        <ele>855.5999755859375</ele>
        <time>2026-05-08T12:54:07.154Z</time>
      </trkpt>
      <trkpt lat="35.60896991752088" lon="127.52767992205918">
        <ele>878.5999755859375</ele>
        <time>2026-05-08T12:57:01.154Z</time>
      </trkpt>
      <trkpt lat="35.608719969168305" lon="127.52853998914361">
        <ele>898.4000244140625</ele>
        <time>2026-05-08T13:03:20.154Z</time>
      </trkpt>
      <trkpt lat="35.60880999080837" lon="127.52913996577263">
        <ele>899.4000244140625</ele>
        <time>2026-05-08T13:08:12.154Z</time>
      </trkpt>
      <trkpt lat="35.60917996801436" lon="127.52953995019197">
        <ele>901.2000122070312</ele>
        <time>2026-05-08T13:11:07.154Z</time>
      </trkpt>
      <trkpt lat="35.609449949115515" lon="127.53093997947872">
        <ele>920.5999755859375</ele>
        <time>2026-05-08T13:17:28.154Z</time>
      </trkpt>
      <trkpt lat="35.60934995301068" lon="127.53190993331373">
        <ele>942.4000244140625</ele>
        <time>2026-05-08T13:22:23.154Z</time>
      </trkpt>
      <trkpt lat="35.60940996743739" lon="127.53226993605494">
        <ele>956.7999877929688</ele>
        <time>2026-05-08T13:25:49.154Z</time>
      </trkpt>
      <trkpt lat="35.60930997133255" lon="127.53243992105126">
        <ele>956.2000122070312</ele>
        <time>2026-05-08T13:28:17.154Z</time>
      </trkpt>
      <trkpt lat="35.609149960801005" lon="127.5335899181664">
        <ele>970</ele>
        <time>2026-05-08T13:33:12.154Z</time>
      </trkpt>
      <trkpt lat="35.60921994969249" lon="127.53422996029258">
        <ele>978.4000244140625</ele>
        <time>2026-05-08T13:35:41.154Z</time>
      </trkpt>
      <trkpt lat="35.60894996859133" lon="127.53506999462843">
        <ele>997</ele>
        <time>2026-05-08T13:41:38.154Z</time>
      </trkpt>
      <trkpt lat="35.6090899463743" lon="127.53533997572958">
        <ele>1001.2000122070312</ele>
        <time>2026-05-08T13:44:06.154Z</time>
      </trkpt>
      <trkpt lat="35.60934995301068" lon="127.5355599168688">
        <ele>1002</ele>
        <time>2026-05-08T13:47:35.154Z</time>
      </trkpt>
      <trkpt lat="35.60930997133255" lon="127.53573996014893">
        <ele>1000.7999877929688</ele>
        <time>2026-05-08T13:50:34.154Z</time>
      </trkpt>
      <trkpt lat="35.609429916366935" lon="127.5363699439913">
        <ele>994.4000244140625</ele>
        <time>2026-05-08T13:54:03.154Z</time>
      </trkpt>
      <trkpt lat="35.609619934111834" lon="127.53652995452285">
        <ele>993</ele>
        <time>2026-05-08T13:55:33.154Z</time>
      </trkpt>
      <trkpt lat="35.60983995907009" lon="127.53653992898762">
        <ele>992.4000244140625</ele>
        <time>2026-05-08T13:56:33.154Z</time>
      </trkpt>
      <trkpt lat="35.610779989510775" lon="127.53719992004335">
        <ele>981.7999877929688</ele>
        <time>2026-05-08T14:04:33.154Z</time>
      </trkpt>
      <trkpt lat="35.611489936709404" lon="127.53788991831243">
        <ele>974.5999755859375</ele>
        <time>2026-05-08T14:08:34.154Z</time>
      </trkpt>
      <trkpt lat="35.61214992776513" lon="127.53806996159256">
        <ele>957.2000122070312</ele>
        <time>2026-05-08T14:17:07.154Z</time>
      </trkpt>
      <trkpt lat="35.61265996657312" lon="127.53800994716585">
        <ele>945.5999755859375</ele>
        <time>2026-05-08T14:21:09.154Z</time>
      </trkpt>
      <trkpt lat="35.6129199732095" lon="127.53786996938288">
        <ele>939</ele>
        <time>2026-05-08T14:23:40.154Z</time>
      </trkpt>
      <trkpt lat="35.61355993151665" lon="127.53732992336154">
        <ele>924.5999755859375</ele>
        <time>2026-05-08T14:29:45.154Z</time>
      </trkpt>
      <trkpt lat="35.61510999687016" lon="127.53732992336154">
        <ele>924.7999877929688</ele>
        <time>2026-05-08T14:38:23.154Z</time>
      </trkpt>
      <trkpt lat="35.61620995402336" lon="127.53756998106837">
        <ele>924.2000122070312</ele>
        <time>2026-05-08T14:45:32.154Z</time>
      </trkpt>
      <trkpt lat="35.616839937865734" lon="127.53817993216217">
        <ele>920</ele>
        <time>2026-05-08T14:47:04.154Z</time>
      </trkpt>
      <trkpt lat="35.61781994998455" lon="127.53859994933009">
        <ele>931.7999877929688</ele>
        <time>2026-05-08T14:52:43.154Z</time>
      </trkpt>
      <trkpt lat="35.61804994940758" lon="127.53883992321789">
        <ele>934.2000122070312</ele>
        <time>2026-05-08T14:54:16.154Z</time>
      </trkpt>
      <trkpt lat="35.61890993267298" lon="127.53886993043125">
        <ele>937.4000244140625</ele>
        <time>2026-05-08T14:58:24.154Z</time>
      </trkpt>
      <trkpt lat="35.619479985907674" lon="127.53880999982357">
        <ele>954.4000244140625</ele>
        <time>2026-05-08T15:04:05.154Z</time>
      </trkpt>
      <trkpt lat="35.61985993757844" lon="127.53861998207867">
        <ele>943.2000122070312</ele>
        <time>2026-05-08T15:07:43.154Z</time>
      </trkpt>
      <trkpt lat="35.62017995864153" lon="127.53830993548036">
        <ele>934.2000122070312</ele>
        <time>2026-05-08T15:11:20.154Z</time>
      </trkpt>
      <trkpt lat="35.6205699685961" lon="127.53782998770475">
        <ele>930</ele>
        <time>2026-05-08T15:15:30.154Z</time>
      </trkpt>
      <trkpt lat="35.621349988505244" lon="127.53755992278457">
        <ele>901.7999877929688</ele>
        <time>2026-05-08T15:21:14.154Z</time>
      </trkpt>
      <trkpt lat="35.62200997956097" lon="127.5378499366343">
        <ele>884.7999877929688</ele>
        <time>2026-05-08T15:32:12.154Z</time>
      </trkpt>
      <trkpt lat="35.6222899351269" lon="127.53783996216953">
        <ele>877.4000244140625</ele>
        <time>2026-05-08T15:35:20.154Z</time>
      </trkpt>
      <trkpt lat="35.62293995171785" lon="127.53834991715848">
        <ele>888.2000122070312</ele>
        <time>2026-05-08T15:44:16.154Z</time>
      </trkpt>
      <trkpt lat="35.62336994335055" lon="127.538279928267">
        <ele>894.7999877929688</ele>
        <time>2026-05-08T15:48:28.154Z</time>
      </trkpt>
      <trkpt lat="35.623609917238355" lon="127.53789997659624">
        <ele>887.7999877929688</ele>
        <time>2026-05-08T15:52:41.154Z</time>
      </trkpt>
      <trkpt lat="35.623889956623316" lon="127.53770995885134">
        <ele>878.4000244140625</ele>
        <time>2026-05-08T15:56:54.154Z</time>
      </trkpt>
      <trkpt lat="35.62451994046569" lon="127.53753997385502">
        <ele>860</ele>
        <time>2026-05-08T16:07:59.154Z</time>
      </trkpt>
      <trkpt lat="35.624749939888716" lon="127.53759998828173">
        <ele>854.2000122070312</ele>
        <time>2026-05-08T16:10:38.154Z</time>
      </trkpt>
      <trkpt lat="35.62490995042026" lon="127.53742991946638">
        <ele>847.7999877929688</ele>
        <time>2026-05-08T16:11:41.154Z</time>
      </trkpt>
      <trkpt lat="35.625349916517735" lon="127.53716999664903">
        <ele>839.2000122070312</ele>
        <time>2026-05-08T16:18:03.154Z</time>
      </trkpt>
      <trkpt lat="35.62557999975979" lon="127.53711995668709">
        <ele>830.5999755859375</ele>
        <time>2026-05-08T16:21:46.154Z</time>
      </trkpt>
      <trkpt lat="35.62617997638881" lon="127.53719992004335">
        <ele>812.5999755859375</ele>
        <time>2026-05-08T16:30:48.154Z</time>
      </trkpt>
      <trkpt lat="35.626959996297956" lon="127.53794993273914">
        <ele>797.7999877929688</ele>
        <time>2026-05-08T16:50:32.154Z</time>
      </trkpt>
      <trkpt lat="35.62713995575905" lon="127.53795999102294">
        <ele>797.5999755859375</ele>
        <time>2026-05-08T16:54:49.154Z</time>
      </trkpt>
      <trkpt lat="35.627539940178394" lon="127.53781992942095">
        <ele>793.2000122070312</ele>
        <time>2026-05-08T16:56:25.154Z</time>
      </trkpt>
      <trkpt lat="35.62819993123412" lon="127.53799997270107">
        <ele>792.7999877929688</ele>
        <time>2026-05-08T17:06:05.154Z</time>
      </trkpt>
      <trkpt lat="35.62847997061908" lon="127.53790995106101">
        <ele>792.7999877929688</ele>
        <time>2026-05-08T17:07:41.154Z</time>
      </trkpt>
      <trkpt lat="35.629089921712875" lon="127.5372299272567">
        <ele>760.2000122070312</ele>
        <time>2026-05-08T17:18:27.154Z</time>
      </trkpt>
      <trkpt lat="35.63025995157659" lon="127.53665995784104">
        <ele>724.5999755859375</ele>
        <time>2026-05-08T17:31:58.154Z</time>
      </trkpt>
      <trkpt lat="35.630999989807606" lon="127.5367499794811">
        <ele>703.5999755859375</ele>
        <time>2026-05-08T17:37:23.154Z</time>
      </trkpt>
      <trkpt lat="35.631489995867014" lon="127.53640992566943">
        <ele>687</ele>
        <time>2026-05-08T17:46:05.154Z</time>
      </trkpt>
      <trkpt lat="35.63220991753042" lon="127.53632996231318">
        <ele>672.7999877929688</ele>
        <time>2026-05-08T17:53:42.154Z</time>
      </trkpt>
      <trkpt lat="35.63280997797847" lon="127.53559998236597">
        <ele>669</ele>
        <time>2026-05-08T17:57:32.154Z</time>
      </trkpt>
      <trkpt lat="35.63342998735607" lon="127.5354499462992">
        <ele>674.2000122070312</ele>
        <time>2026-05-08T18:00:16.154Z</time>
      </trkpt>
      <trkpt lat="35.63478995114565" lon="127.53465995192528">
        <ele>702.7999877929688</ele>
        <time>2026-05-08T18:15:06.154Z</time>
      </trkpt>
      <trkpt lat="35.634909979999065" lon="127.53450999967754">
        <ele>702</ele>
        <time>2026-05-08T18:16:45.154Z</time>
      </trkpt>
      <trkpt lat="35.63512992113829" lon="127.53406994976103">
        <ele>694.5999755859375</ele>
        <time>2026-05-08T18:20:03.154Z</time>
      </trkpt>
      <trkpt lat="35.635189935564995" lon="127.53384992480278">
        <ele>692</ele>
        <time>2026-05-08T18:22:16.154Z</time>
      </trkpt>
      <trkpt lat="35.63554993830621" lon="127.53399996086955">
        <ele>679.4000244140625</ele>
        <time>2026-05-08T18:27:47.154Z</time>
      </trkpt>
      <trkpt lat="35.636219987645745" lon="127.53390993922949">
        <ele>654.5999755859375</ele>
        <time>2026-05-08T18:36:05.154Z</time>
      </trkpt>
      <trkpt lat="35.636349990963936" lon="127.53360995091498">
        <ele>646.5999755859375</ele>
        <time>2026-05-08T18:39:25.154Z</time>
      </trkpt>
      <trkpt lat="35.6366799864918" lon="127.53331993706524">
        <ele>626.7999877929688</ele>
        <time>2026-05-08T18:48:17.154Z</time>
      </trkpt>
      <trkpt lat="35.637249955907464" lon="127.53327995538712">
        <ele>607.5999755859375</ele>
        <time>2026-05-08T18:54:24.154Z</time>
      </trkpt>
      <trkpt lat="35.6375899259001" lon="127.53302992321551">
        <ele>599</ele>
        <time>2026-05-08T18:56:38.154Z</time>
      </trkpt>
      <trkpt lat="35.6381599791348" lon="127.53302992321551">
        <ele>588.7999877929688</ele>
        <time>2026-05-08T18:58:52.154Z</time>
      </trkpt>
      <trkpt lat="35.63828998245299" lon="127.53287997096777">
        <ele>587.5999755859375</ele>
        <time>2026-05-08T18:59:59.154Z</time>
      </trkpt>
      <trkpt lat="35.63856993801892" lon="127.53280998207629">
        <ele>584</ele>
        <time>2026-05-08T19:01:39.154Z</time>
      </trkpt>
      <trkpt lat="35.63915994018316" lon="127.53296999260783">
        <ele>576</ele>
        <time>2026-05-08T19:05:34.154Z</time>
      </trkpt>
      <trkpt lat="35.639419946819544" lon="127.53274996764958">
        <ele>565.4000244140625</ele>
        <time>2026-05-08T19:10:03.154Z</time>
      </trkpt>
      <trkpt lat="35.6396899279207" lon="127.53271996043622">
        <ele>557.5999755859375</ele>
        <time>2026-05-08T19:13:25.154Z</time>
      </trkpt>
      <trkpt lat="35.63988992013037" lon="127.53235995769501">
        <ele>551.4000244140625</ele>
        <time>2026-05-08T19:18:28.154Z</time>
      </trkpt>
      <trkpt lat="35.640129977837205" lon="127.53232995048165">
        <ele>551.4000244140625</ele>
        <time>2026-05-08T19:20:09.154Z</time>
      </trkpt>
      <trkpt lat="35.64043994061649" lon="127.5325399171561">
        <ele>546.7999877929688</ele>
        <time>2026-05-08T19:22:58.154Z</time>
      </trkpt>
      <trkpt lat="35.64107998274267" lon="127.53215996548533">
        <ele>532</ele>
        <time>2026-05-08T19:26:21.154Z</time>
      </trkpt>
      <trkpt lat="35.641289949417114" lon="127.53213993273675">
        <ele>526.7999877929688</ele>
        <time>2026-05-08T19:27:29.154Z</time>
      </trkpt>
      <trkpt lat="35.64181993715465" lon="127.53180993720889">
        <ele>514.4000244140625</ele>
        <time>2026-05-08T19:31:26.154Z</time>
      </trkpt>
      <trkpt lat="35.642189998179674" lon="127.53093997947872">
        <ele>485.3999938964844</ele>
        <time>2026-05-08T19:38:47.154Z</time>
      </trkpt>
      <trkpt lat="35.64237993210554" lon="127.53097996115685">
        <ele>482.3999938964844</ele>
        <time>2026-05-08T19:41:03.154Z</time>
      </trkpt>
      <trkpt lat="35.642749993130565" lon="127.53069992177188">
        <ele>475.79998779296875</ele>
        <time>2026-05-08T19:43:54.154Z</time>
      </trkpt>
      <trkpt lat="35.643439991399646" lon="127.53047998063266">
        <ele>464</ele>
        <time>2026-05-08T19:46:44.154Z</time>
      </trkpt>
      <trkpt lat="35.643399925902486" lon="127.530139926821">
        <ele>465.6000061035156</ele>
        <time>2026-05-08T19:49:01.154Z</time>
      </trkpt>
      <trkpt lat="35.64312994480133" lon="127.52979995682836">
        <ele>472.20001220703125</ele>
        <time>2026-05-08T19:51:52.154Z</time>
      </trkpt>
      <trkpt lat="35.6428999453783" lon="127.52981998957694">
        <ele>477.20001220703125</ele>
        <time>2026-05-08T19:53:00.154Z</time>
      </trkpt>
      <trkpt lat="35.64256994985044" lon="127.53004998899996">
        <ele>480.6000061035156</ele>
        <time>2026-05-08T19:56:26.154Z</time>
      </trkpt>
      <trkpt lat="35.64237993210554" lon="127.5300099235028">
        <ele>480.3999938964844</ele>
        <time>2026-05-08T19:58:43.154Z</time>
      </trkpt>
      <trkpt lat="35.64250993542373" lon="127.52926996909082">
        <ele>479</ele>
        <time>2026-05-08T20:01:01.154Z</time>
      </trkpt>
      <trkpt lat="35.64280992373824" lon="127.52892999909818">
        <ele>481</ele>
        <time>2026-05-08T20:03:18.154Z</time>
      </trkpt>
      <trkpt lat="35.64316992647946" lon="127.5289599224925">
        <ele>479</ele>
        <time>2026-05-08T20:05:01.154Z</time>
      </trkpt>
      <trkpt lat="35.64331996254623" lon="127.5288499519229">
        <ele>479</ele>
        <time>2026-05-08T20:06:10.154Z</time>
      </trkpt>
      <trkpt lat="35.643469998613" lon="127.52855993807316">
        <ele>480.3999938964844</ele>
        <time>2026-05-08T20:08:28.154Z</time>
      </trkpt>
      <trkpt lat="35.6437099725008" lon="127.52839992754161">
        <ele>484</ele>
        <time>2026-05-08T20:11:21.154Z</time>
      </trkpt>
      <trkpt lat="35.64383997581899" lon="127.52805995754898">
        <ele>481.6000061035156</ele>
        <time>2026-05-08T20:13:39.154Z</time>
      </trkpt>
      <trkpt lat="35.64406997524202" lon="127.52801997587085">
        <ele>480.79998779296875</ele>
        <time>2026-05-08T20:15:23.154Z</time>
      </trkpt>
      <trkpt lat="35.64445998519659" lon="127.52756995148957">
        <ele>475.3999938964844</ele>
        <time>2026-05-08T20:17:41.154Z</time>
      </trkpt>
      <trkpt lat="35.64447155222297" lon="127.52754405140877">
        <ele>475.75206477519123</ele>
        <time>2026-05-09T07:00:07.000Z</time>
        <extensions>
          <gpxtpx:TrackPointExtension>
            <gpxtpx:hr>125</gpxtpx:hr>
            <gpxtpx:cad>42</gpxtpx:cad>
          </gpxtpx:TrackPointExtension>
        </extensions>
      </trkpt>
      <trkpt lat="35.644493931904435" lon="127.5268686376512">
        <ele>482.70070642610335</ele>
        <time>2026-05-09T07:01:29.000Z</time>
        <extensions>
          <gpxtpx:TrackPointExtension>
            <gpxtpx:hr>137</gpxtpx:hr>
            <gpxtpx:cad>44</gpxtpx:cad>
          </gpxtpx:TrackPointExtension>
        </extensions>
      </trkpt>
      <trkpt lat="35.64428103156388" lon="127.52663360908628">
        <ele>486.27607709081644</ele>
        <time>2026-05-09T07:02:01.000Z</time>
        <extensions>
          <gpxtpx:TrackPointExtension>
            <gpxtpx:hr>127</gpxtpx:hr>
          </gpxtpx:TrackPointExtension>
        </extensions>
      </trkpt>
      <trkpt lat="35.644247671589255" lon="127.52611015923321">
        <ele>492.29172031972655</ele>
        <time>2026-05-09T07:02:53.000Z</time>
        <extensions>
          <gpxtpx:TrackPointExtension>
            <gpxtpx:hr>138</gpxtpx:hr>
            <gpxtpx:cad>56</gpxtpx:cad>
          </gpxtpx:TrackPointExtension>
        </extensions>
      </trkpt>
      <trkpt lat="35.644502732902765" lon="127.52590119838715">
        <ele>491.09714317021485</ele>
        <time>2026-05-09T07:03:16.000Z</time>
        <extensions>
          <gpxtpx:TrackPointExtension>
            <gpxtpx:hr>127</gpxtpx:hr>
            <gpxtpx:cad>60</gpxtpx:cad>
          </gpxtpx:TrackPointExtension>
        </extensions>
      </trkpt>
      <trkpt lat="35.644758800044656" lon="127.52539702691138">
        <ele>491.9512799039478</ele>
        <time>2026-05-09T07:03:37.000Z</time>
        <extensions>
          <gpxtpx:TrackPointExtension>
            <gpxtpx:hr>122</gpxtpx:hr>
            <gpxtpx:cad>91</gpxtpx:cad>
          </gpxtpx:TrackPointExtension>
        </extensions>
      </trkpt>
      <trkpt lat="35.64510983414948" lon="127.52520726062357">
        <ele>497.2981762306519</ele>
        <time>2026-05-09T07:04:04.000Z</time>
        <extensions>
          <gpxtpx:TrackPointExtension>
            <gpxtpx:hr>153</gpxtpx:hr>
            <gpxtpx:cad>55</gpxtpx:cad>
          </gpxtpx:TrackPointExtension>
        </extensions>
      </trkpt>
      <trkpt lat="35.64496910199523" lon="127.52476184628904">
        <ele>497.0902292134129</ele>
        <time>2026-05-09T07:04:28.000Z</time>
        <extensions>
          <gpxtpx:TrackPointExtension>
            <gpxtpx:hr>154</gpxtpx:hr>
            <gpxtpx:cad>61</gpxtpx:cad>
          </gpxtpx:TrackPointExtension>
        </extensions>
      </trkpt>
      <trkpt lat="35.64502274617553" lon="127.52463268116117">
        <ele>495.63083478898045</ele>
        <time>2026-05-09T07:04:39.000Z</time>
        <extensions>
          <gpxtpx:TrackPointExtension>
            <gpxtpx:hr>147</gpxtpx:hr>
            <gpxtpx:cad>62</gpxtpx:cad>
          </gpxtpx:TrackPointExtension>
        </extensions>
      </trkpt>
      <trkpt lat="35.644899951294065" lon="127.52439144998789">
        <ele>493.93462498791473</ele>
        <time>2026-05-09T07:04:55.000Z</time>
        <extensions>
          <gpxtpx:TrackPointExtension>
            <gpxtpx:hr>139</gpxtpx:hr>
            <gpxtpx:cad>82</gpxtpx:cad>
          </gpxtpx:TrackPointExtension>
        </extensions>
      </trkpt>
      <trkpt lat="35.64489056356251" lon="127.52395659685135">
        <ele>483.11137789611234</ele>
        <time>2026-05-09T07:05:18.000Z</time>
        <extensions>
          <gpxtpx:TrackPointExtension>
            <gpxtpx:hr>130</gpxtpx:hr>
            <gpxtpx:cad>96</gpxtpx:cad>
          </gpxtpx:TrackPointExtension>
        </extensions>
      </trkpt>
      <trkpt lat="35.644337022677064" lon="127.52392382360995">
        <ele>475.7451191565765</ele>
        <time>2026-05-09T07:05:59.000Z</time>
        <extensions>
          <gpxtpx:TrackPointExtension>
            <gpxtpx:hr>120</gpxtpx:hr>
          </gpxtpx:TrackPointExtension>
        </extensions>
      </trkpt>
      <trkpt lat="35.6439084559679" lon="127.52350414171815">
        <ele>463.5105296556374</ele>
        <time>2026-05-09T07:06:38.000Z</time>
        <extensions>
          <gpxtpx:TrackPointExtension>
            <gpxtpx:hr>110</gpxtpx:hr>
            <gpxtpx:cad>107</gpxtpx:cad>
          </gpxtpx:TrackPointExtension>
        </extensions>
      </trkpt>
      <trkpt lat="35.64367049373686" lon="127.5227883271873">
        <ele>450.04010903981634</ele>
        <time>2026-05-09T07:07:29.000Z</time>
        <extensions>
          <gpxtpx:TrackPointExtension>
            <gpxtpx:hr>100</gpxtpx:hr>
          </gpxtpx:TrackPointExtension>
        </extensions>
      </trkpt>
      <trkpt lat="35.6432971637696" lon="127.522576097399">
        <ele>448.3982558227667</ele>
        <time>2026-05-09T07:08:05.000Z</time>
        <extensions>
          <gpxtpx:TrackPointExtension>
            <gpxtpx:hr>98</gpxtpx:hr>
            <gpxtpx:cad>61</gpxtpx:cad>
          </gpxtpx:TrackPointExtension>
        </extensions>
      </trkpt>
      <trkpt lat="35.643082754686475" lon="127.52208818681538">
        <ele>436.3414073229589</ele>
        <time>2026-05-09T07:08:42.000Z</time>
        <extensions>
          <gpxtpx:TrackPointExtension>
            <gpxtpx:hr>102</gpxtpx:hr>
            <gpxtpx:cad>61</gpxtpx:cad>
          </gpxtpx:TrackPointExtension>
        </extensions>
      </trkpt>
      <trkpt lat="35.643525402992964" lon="127.52179532311857">
        <ele>434.948142402969</ele>
        <time>2026-05-09T07:09:25.471Z</time>
        <extensions>
          <gpxtpx:TrackPointExtension>
            <gpxtpx:hr>107</gpxtpx:hr>
          </gpxtpx:TrackPointExtension>
        </extensions>
      </trkpt>
      <trkpt lat="35.643525402992964" lon="127.52179532311857">
        <ele>434.948142402969</ele>
        <time>2026-05-09T07:09:25.471Z</time>
      </trkpt>
      <trkpt lat="35.64359923404395" lon="127.52200440736908">
        <ele>435.9391819874457</ele>
        <time>2026-05-09T07:09:41.495Z</time>
      </trkpt>
    </trkseg>
  </trk>
</gpx>
