<?xml version="1.0" encoding="UTF-8" standalone="no"?><gpx xmlns="http://www.topografix.com/GPX/1/1" xmlns:xsi="http://www.w3.org/2001/XMLSchema-instance" creator="Sports Tracker" version="1.1" xsi:schemaLocation="http://www.topografix.com/GPX/1/1 http://www.topografix.com/GPX/1/1/gpx.xsd"><metadata><name>26제주오름트레일30k(윤길)</name><author><name>user66001802</name></author></metadata><wpt lat="33.39412" lon="126.73396"><name>Begin</name><desc>Auto-generated</desc><type>Begin</type></wpt><wpt lat="33.394157" lon="126.73394"><name>End</name><desc>Auto-generated</desc><type>End</type></wpt><rte><rtept lat="33.39412" lon="126.73396"><ele>307.2</ele></rtept><rtept lat="33.39415" lon="126.73403"><ele>306.4</ele></rtept><rtept lat="33.39431" lon="126.73419"><ele>306.6</ele></rtept><rtept lat="33.39512" lon="126.73485"><ele>308.2</ele></rtept><rtept lat="33.395905" lon="126.73551"><ele>306.0</ele></rtept><rtept lat="33.396835" lon="126.73626"><ele>297.8</ele></rtept><rtept lat="33.396935" lon="126.73632"><ele>296.2</ele></rtept><rtept lat="33.39696" lon="126.7363"><ele>296.8</ele></rtept><rtept lat="33.396988" lon="126.73635"><ele>297.8</ele></rtept><rtept lat="33.397083" lon="126.73639"><ele>297.4</ele></rtept><rtept lat="33.397617" lon="126.736465"><ele>300.6</ele></rtept><rtept lat="33.398087" lon="126.73652"><ele>307.2</ele></rtept><rtept lat="33.39832" lon="126.73654"><ele>304.6</ele></rtept><rtept lat="33.399124" lon="126.73658"><ele>305.2</ele></rtept><rtept lat="33.399605" lon="126.73661"><ele>310.2</ele></rtept><rtept lat="33.40001" lon="126.7364"><ele>313.2</ele></rtept><rtept lat="33.400288" lon="126.73616"><ele>314.6</ele></rtept><rtept lat="33.40057" lon="126.736115"><ele>315.0</ele></rtept><rtept lat="33.400757" lon="126.73614"><ele>314.4</ele></rtept><rtept lat="33.40117" lon="126.73627"><ele>318.2</ele></rtept><rtept lat="33.40152" lon="126.73642"><ele>321.6</ele></rtept><rtept lat="33.402004" lon="126.73648"><ele>325.2</ele></rtept><rtept lat="33.4025" lon="126.73644"><ele>328.4</ele></rtept><rtept lat="33.402596" lon="126.73641"><ele>328.2</ele></rtept><rtept lat="33.40272" lon="126.73631"><ele>329.6</ele></rtept><rtept lat="33.402752" lon="126.736305"><ele>330.0</ele></rtept><rtept lat="33.40272" lon="126.73635"><ele>329.8</ele></rtept><rtept lat="33.402935" lon="126.73611"><ele>330.0</ele></rtept><rtept lat="33.403374" lon="126.73539"><ele>338.6</ele></rtept><rtept lat="33.404053" lon="126.73419"><ele>340.6</ele></rtept><rtept lat="33.404446" lon="126.73311"><ele>331.4</ele></rtept><rtept lat="33.404755" lon="126.73224"><ele>329.8</ele></rtept><rtept lat="33.404896" lon="126.73184"><ele>332.4</ele></rtept><rtept lat="33.405094" lon="126.731255"><ele>330.0</ele></rtept><rtept lat="33.4054" lon="126.730446"><ele>332.2</ele></rtept><rtept lat="33.405567" lon="126.72991"><ele>335.2</ele></rtept><rtept lat="33.40559" lon="126.728714"><ele>339.2</ele></rtept><rtept lat="33.405624" lon="126.72781"><ele>338.6</ele></rtept><rtept lat="33.40541" lon="126.726616"><ele>337.6</ele></rtept><rtept lat="33.40535" lon="126.726395"><ele>338.6</ele></rtept><rtept lat="33.4054" lon="126.72622"><ele>336.8</ele></rtept><rtept lat="33.40532" lon="126.72602"><ele>336.4</ele></rtept><rtept lat="33.40516" lon="126.72579"><ele>337.0</ele></rtept><rtept lat="33.404972" lon="126.72538"><ele>338.4</ele></rtept><rtept lat="33.40488" lon="126.72553"><ele>339.0</ele></rtept><rtept lat="33.404663" lon="126.725746"><ele>339.2</ele></rtept><rtept lat="33.404133" lon="126.72599"><ele>343.0</ele></rtept><rtept lat="33.403965" lon="126.72602"><ele>344.4</ele></rtept><rtept lat="33.403713" lon="126.72601"><ele>345.6</ele></rtept><rtept lat="33.403454" lon="126.72595"><ele>345.6</ele></rtept><rtept lat="33.403168" lon="126.72583"><ele>346.0</ele></rtept><rtept lat="33.402496" lon="126.725426"><ele>348.8</ele></rtept><rtept lat="33.402405" lon="126.72526"><ele>349.0</ele></rtept><rtept lat="33.402187" lon="126.72453"><ele>352.2</ele></rtept><rtept lat="33.402004" lon="126.72411"><ele>358.2</ele></rtept><rtept lat="33.40201" lon="126.72396"><ele>360.0</ele></rtept><rtept lat="33.402134" lon="126.723694"><ele>362.4</ele></rtept><rtept lat="33.402176" lon="126.72351"><ele>364.4</ele></rtept><rtept lat="33.40209" lon="126.72316"><ele>370.6</ele></rtept><rtept lat="33.401917" lon="126.722725"><ele>379.4</ele></rtept><rtept lat="33.40193" lon="126.72268"><ele>381.6</ele></rtept><rtept lat="33.401936" lon="126.72238"><ele>384.8</ele></rtept><rtept lat="33.40199" lon="126.722244"><ele>386.4</ele></rtept><rtept lat="33.40222" lon="126.72205"><ele>389.4</ele></rtept><rtept lat="33.402504" lon="126.722046"><ele>391.8</ele></rtept><rtept lat="33.402546" lon="126.72201"><ele>392.2</ele></rtept><rtept lat="33.40256" lon="126.72192"><ele>393.4</ele></rtept><rtept lat="33.40254" lon="126.721855"><ele>394.0</ele></rtept><rtept lat="33.402466" lon="126.72181"><ele>394.2</ele></rtept><rtept lat="33.4021" lon="126.72181"><ele>395.6</ele></rtept><rtept lat="33.401936" lon="126.721756"><ele>396.6</ele></rtept><rtept lat="33.401695" lon="126.721535"><ele>402.2</ele></rtept><rtept lat="33.401554" lon="126.72133"><ele>407.2</ele></rtept><rtept lat="33.401466" lon="126.721275"><ele>408.8</ele></rtept><rtept lat="33.401196" lon="126.721344"><ele>409.4</ele></rtept><rtept lat="33.400795" lon="126.72122"><ele>410.6</ele></rtept><rtept lat="33.400692" lon="126.72139"><ele>412.6</ele></rtept><rtept lat="33.400562" lon="126.72205"><ele>430.6</ele></rtept><rtept lat="33.400517" lon="126.722336"><ele>434.2</ele></rtept><rtept lat="33.40058" lon="126.72265"><ele>439.4</ele></rtept><rtept lat="33.400635" lon="126.72271"><ele>440.6</ele></rtept><rtept lat="33.40062" lon="126.722755"><ele>441.4</ele></rtept><rtept lat="33.400517" lon="126.72284"><ele>440.0</ele></rtept><rtept lat="33.400425" lon="126.72289"><ele>436.4</ele></rtept><rtept lat="33.400356" lon="126.72289"><ele>433.6</ele></rtept><rtept lat="33.400326" lon="126.72294"><ele>431.8</ele></rtept><rtept lat="33.40016" lon="126.72296"><ele>424.8</ele></rtept><rtept lat="33.4001" lon="126.72294"><ele>422.4</ele></rtept><rtept lat="33.399963" lon="126.72305"><ele>415.2</ele></rtept><rtept lat="33.399876" lon="126.72326"><ele>410.2</ele></rtept><rtept lat="33.399548" lon="126.723206"><ele>405.6</ele></rtept><rtept lat="33.399323" lon="126.72365"><ele>401.6</ele></rtept><rtept lat="33.399113" lon="126.72384"><ele>401.8</ele></rtept><rtept lat="33.398987" lon="126.7242"><ele>393.2</ele></rtept><rtept lat="33.39904" lon="126.724335"><ele>389.0</ele></rtept><rtept lat="33.399017" lon="126.7245"><ele>384.0</ele></rtept><rtept lat="33.399048" lon="126.72458"><ele>382.2</ele></rtept><rtept lat="33.399033" lon="126.72473"><ele>379.0</ele></rtept><rtept lat="33.39908" lon="126.725006"><ele>373.6</ele></rtept><rtept lat="33.399097" lon="126.72514"><ele>373.0</ele></rtept><rtept lat="33.399075" lon="126.7253"><ele>374.0</ele></rtept><rtept lat="33.397972" lon="126.72519"><ele>360.4</ele></rtept><rtept lat="33.39773" lon="126.725235"><ele>358.8</ele></rtept><rtept lat="33.397213" lon="126.72542"><ele>355.2</ele></rtept><rtept lat="33.397198" lon="126.725464"><ele>355.0</ele></rtept><rtept lat="33.397236" lon="126.72556"><ele>354.6</ele></rtept><rtept lat="33.39738" lon="126.72573"><ele>355.0</ele></rtept><rtept lat="33.397484" lon="126.72579"><ele>355.0</ele></rtept><rtept lat="33.397606" lon="126.72598"><ele>355.6</ele></rtept><rtept lat="33.397987" lon="126.726234"><ele>365.2</ele></rtept><rtept lat="33.39849" lon="126.72604"><ele>378.4</ele></rtept><rtept lat="33.398674" lon="126.72605"><ele>385.0</ele></rtept><rtept lat="33.398617" lon="126.72642"><ele>393.6</ele></rtept><rtept lat="33.39855" lon="126.72664"><ele>397.0</ele></rtept><rtept lat="33.398613" lon="126.726845"><ele>405.8</ele></rtept><rtept lat="33.398716" lon="126.72691"><ele>414.0</ele></rtept><rtept lat="33.398758" lon="126.72698"><ele>416.6</ele></rtept><rtept lat="33.39879" lon="126.726974"><ele>418.6</ele></rtept><rtept lat="33.398895" lon="126.72714"><ele>423.8</ele></rtept><rtept lat="33.398895" lon="126.7276"><ele>431.6</ele></rtept><rtept lat="33.39893" lon="126.727875"><ele>436.8</ele></rtept><rtept lat="33.399216" lon="126.728874"><ele>468.2</ele></rtept><rtept lat="33.39914" lon="126.72924"><ele>469.4</ele></rtept><rtept lat="33.399155" lon="126.729454"><ele>472.6</ele></rtept><rtept lat="33.39919" lon="126.72968"><ele>471.8</ele></rtept><rtept lat="33.39917" lon="126.729904"><ele>464.6</ele></rtept><rtept lat="33.39919" lon="126.73004"><ele>460.6</ele></rtept><rtept lat="33.399296" lon="126.73028"><ele>454.2</ele></rtept><rtept lat="33.399464" lon="126.730515"><ele>449.0</ele></rtept><rtept lat="33.39968" lon="126.7307"><ele>443.8</ele></rtept><rtept lat="33.400017" lon="126.7309"><ele>439.6</ele></rtept><rtept lat="33.40009" lon="126.731064"><ele>438.2</ele></rtept><rtept lat="33.400326" lon="126.73153"><ele>424.8</ele></rtept><rtept lat="33.40048" lon="126.7317"><ele>419.0</ele></rtept><rtept lat="33.400745" lon="126.73183"><ele>413.6</ele></rtept><rtept lat="33.400887" lon="126.732"><ele>407.2</ele></rtept><rtept lat="33.400906" lon="126.73208"><ele>404.2</ele></rtept><rtept lat="33.40099" lon="126.73215"><ele>400.0</ele></rtept><rtept lat="33.400955" lon="126.7322"><ele>399.2</ele></rtept><rtept lat="33.400856" lon="126.73223"><ele>398.0</ele></rtept><rtept lat="33.40073" lon="126.73233"><ele>395.4</ele></rtept><rtept lat="33.4006" lon="126.73236"><ele>393.0</ele></rtept><rtept lat="33.400604" lon="126.73249"><ele>390.2</ele></rtept><rtept lat="33.400555" lon="126.73261"><ele>386.8</ele></rtept><rtept lat="33.40051" lon="126.73263"><ele>386.2</ele></rtept><rtept lat="33.400368" lon="126.732574"><ele>386.2</ele></rtept><rtept lat="33.399994" lon="126.73251"><ele>388.6</ele></rtept><rtept lat="33.399693" lon="126.73244"><ele>383.2</ele></rtept><rtept lat="33.399498" lon="126.73246"><ele>378.2</ele></rtept><rtept lat="33.39909" lon="126.73233"><ele>374.2</ele></rtept><rtept lat="33.39841" lon="126.73225"><ele>363.0</ele></rtept><rtept lat="33.398163" lon="126.73211"><ele>360.0</ele></rtept><rtept lat="33.398056" lon="126.73212"><ele>357.6</ele></rtept><rtept lat="33.397865" lon="126.73199"><ele>354.8</ele></rtept><rtept lat="33.397682" lon="126.73206"><ele>347.6</ele></rtept><rtept lat="33.397472" lon="126.73197"><ele>343.4</ele></rtept><rtept lat="33.39732" lon="126.73186"><ele>341.6</ele></rtept><rtept lat="33.39679" lon="126.73125"><ele>339.2</ele></rtept><rtept lat="33.39672" lon="126.73103"><ele>339.0</ele></rtept><rtept lat="33.39658" lon="126.73079"><ele>337.4</ele></rtept><rtept lat="33.39649" lon="126.73029"><ele>336.6</ele></rtept><rtept lat="33.396366" lon="126.73002"><ele>333.8</ele></rtept><rtept lat="33.396347" lon="126.72967"><ele>334.2</ele></rtept><rtept lat="33.39638" lon="126.72937"><ele>335.0</ele></rtept><rtept lat="33.39634" lon="126.72918"><ele>336.2</ele></rtept><rtept lat="33.396255" lon="126.72912"><ele>335.4</ele></rtept><rtept lat="33.396103" lon="126.72888"><ele>334.2</ele></rtept><rtept lat="33.395893" lon="126.72877"><ele>334.2</ele></rtept><rtept lat="33.3957" lon="126.72849"><ele>334.0</ele></rtept><rtept lat="33.395546" lon="126.72844"><ele>334.0</ele></rtept><rtept lat="33.39537" lon="126.72844"><ele>334.0</ele></rtept><rtept lat="33.39517" lon="126.72836"><ele>333.2</ele></rtept><rtept lat="33.394863" lon="126.72803"><ele>331.4</ele></rtept><rtept lat="33.394753" lon="126.72776"><ele>330.8</ele></rtept><rtept lat="33.394722" lon="126.72722"><ele>330.8</ele></rtept><rtept lat="33.3948" lon="126.72663"><ele>329.4</ele></rtept><rtept lat="33.39492" lon="126.72639"><ele>329.0</ele></rtept><rtept lat="33.39535" lon="126.72602"><ele>329.6</ele></rtept><rtept lat="33.395462" lon="126.7258"><ele>329.8</ele></rtept><rtept lat="33.395462" lon="126.725624"><ele>328.2</ele></rtept><rtept lat="33.39537" lon="126.72526"><ele>325.8</ele></rtept><rtept lat="33.395336" lon="126.72499"><ele>325.4</ele></rtept><rtept lat="33.395344" lon="126.724815"><ele>324.8</ele></rtept><rtept lat="33.3954" lon="126.724495"><ele>326.2</ele></rtept><rtept lat="33.395386" lon="126.72442"><ele>326.0</ele></rtept><rtept lat="33.39517" lon="126.724396"><ele>322.6</ele></rtept><rtept lat="33.39497" lon="126.724464"><ele>321.4</ele></rtept><rtept lat="33.39465" lon="126.72437"><ele>324.8</ele></rtept><rtept lat="33.39431" lon="126.72465"><ele>324.4</ele></rtept><rtept lat="33.393867" lon="126.72472"><ele>324.4</ele></rtept><rtept lat="33.3937" lon="126.72468"><ele>324.8</ele></rtept><rtept lat="33.39343" lon="126.724556"><ele>325.6</ele></rtept><rtept lat="33.39333" lon="126.724464"><ele>326.4</ele></rtept><rtept lat="33.393143" lon="126.72436"><ele>326.4</ele></rtept><rtept lat="33.39303" lon="126.72462"><ele>324.8</ele></rtept><rtept lat="33.39286" lon="126.724724"><ele>323.4</ele></rtept><rtept lat="33.392773" lon="126.72489"><ele>323.8</ele></rtept><rtept lat="33.392635" lon="126.72493"><ele>324.0</ele></rtept><rtept lat="33.39236" lon="126.7249"><ele>322.8</ele></rtept><rtept lat="33.39214" lon="126.72466"><ele>323.2</ele></rtept><rtept lat="33.391987" lon="126.72459"><ele>323.4</ele></rtept><rtept lat="33.39182" lon="126.72462"><ele>323.0</ele></rtept><rtept lat="33.39164" lon="126.72458"><ele>323.0</ele></rtept><rtept lat="33.391567" lon="126.72475"><ele>322.6</ele></rtept><rtept lat="33.39154" lon="126.72494"><ele>322.8</ele></rtept><rtept lat="33.39149" lon="126.72502"><ele>323.6</ele></rtept><rtept lat="33.39141" lon="126.72508"><ele>322.8</ele></rtept><rtept lat="33.39135" lon="126.72508"><ele>322.2</ele></rtept><rtept lat="33.391193" lon="126.72523"><ele>320.0</ele></rtept><rtept lat="33.391052" lon="126.72544"><ele>316.2</ele></rtept><rtept lat="33.39102" lon="126.72563"><ele>312.6</ele></rtept><rtept lat="33.3909" lon="126.72577"><ele>311.8</ele></rtept><rtept lat="33.391113" lon="126.72616"><ele>309.4</ele></rtept><rtept lat="33.39117" lon="126.72643"><ele>308.0</ele></rtept><rtept lat="33.3911" lon="126.72675"><ele>306.4</ele></rtept><rtept lat="33.39099" lon="126.72703"><ele>305.4</ele></rtept><rtept lat="33.390774" lon="126.727196"><ele>304.8</ele></rtept><rtept lat="33.39054" lon="126.72732"><ele>304.0</ele></rtept><rtept lat="33.389965" lon="126.727486"><ele>299.8</ele></rtept><rtept lat="33.38955" lon="126.72766"><ele>297.0</ele></rtept><rtept lat="33.389404" lon="126.72781"><ele>295.8</ele></rtept><rtept lat="33.3892" lon="126.728226"><ele>295.6</ele></rtept><rtept lat="33.389114" lon="126.72821"><ele>294.8</ele></rtept><rtept lat="33.38896" lon="126.728035"><ele>294.4</ele></rtept><rtept lat="33.388916" lon="126.72805"><ele>294.4</ele></rtept><rtept lat="33.38885" lon="126.72799"><ele>294.4</ele></rtept><rtept lat="33.388668" lon="126.72842"><ele>292.8</ele></rtept><rtept lat="33.388588" lon="126.728714"><ele>291.8</ele></rtept><rtept lat="33.388397" lon="126.72909"><ele>290.4</ele></rtept><rtept lat="33.388306" lon="126.729355"><ele>290.0</ele></rtept><rtept lat="33.387924" lon="126.73003"><ele>289.4</ele></rtept><rtept lat="33.3874" lon="126.73076"><ele>282.8</ele></rtept><rtept lat="33.387302" lon="126.73099"><ele>283.2</ele></rtept><rtept lat="33.38619" lon="126.7327"><ele>278.4</ele></rtept><rtept lat="33.386044" lon="126.73284"><ele>278.2</ele></rtept><rtept lat="33.38599" lon="126.73285"><ele>277.4</ele></rtept><rtept lat="33.386036" lon="126.732925"><ele>277.8</ele></rtept><rtept lat="33.386066" lon="126.733116"><ele>277.8</ele></rtept><rtept lat="33.38562" lon="126.73365"><ele>274.6</ele></rtept><rtept lat="33.385334" lon="126.73408"><ele>273.2</ele></rtept><rtept lat="33.385235" lon="126.73431"><ele>273.0</ele></rtept><rtept lat="33.385002" lon="126.73504"><ele>270.0</ele></rtept><rtept lat="33.384483" lon="126.73588"><ele>265.6</ele></rtept><rtept lat="33.384487" lon="126.735954"><ele>265.6</ele></rtept><rtept lat="33.384525" lon="126.736"><ele>265.6</ele></rtept><rtept lat="33.384827" lon="126.7361"><ele>265.6</ele></rtept><rtept lat="33.38489" lon="126.736206"><ele>265.8</ele></rtept><rtept lat="33.38434" lon="126.73755"><ele>262.8</ele></rtept><rtept lat="33.383957" lon="126.73829"><ele>260.4</ele></rtept><rtept lat="33.383087" lon="126.73971"><ele>253.8</ele></rtept><rtept lat="33.38275" lon="126.74023"><ele>251.0</ele></rtept><rtept lat="33.3822" lon="126.74099"><ele>248.0</ele></rtept><rtept lat="33.38213" lon="126.74101"><ele>246.6</ele></rtept><rtept lat="33.382095" lon="126.741005"><ele>246.2</ele></rtept><rtept lat="33.38208" lon="126.74096"><ele>245.8</ele></rtept><rtept lat="33.38204" lon="126.74096"><ele>245.6</ele></rtept><rtept lat="33.381893" lon="126.74075"><ele>245.2</ele></rtept><rtept lat="33.381866" lon="126.74065"><ele>245.6</ele></rtept><rtept lat="33.38166" lon="126.74057"><ele>245.6</ele></rtept><rtept lat="33.38157" lon="126.74061"><ele>245.6</ele></rtept><rtept lat="33.381466" lon="126.74057"><ele>246.0</ele></rtept><rtept lat="33.3809" lon="126.741165"><ele>243.6</ele></rtept><rtept lat="33.380463" lon="126.74108"><ele>243.8</ele></rtept><rtept lat="33.380173" lon="126.741135"><ele>243.0</ele></rtept><rtept lat="33.379898" lon="126.74125"><ele>242.2</ele></rtept><rtept lat="33.37979" lon="126.74125"><ele>241.8</ele></rtept><rtept lat="33.379402" lon="126.74099"><ele>239.6</ele></rtept><rtept lat="33.37935" lon="126.74081"><ele>237.2</ele></rtept><rtept lat="33.379223" lon="126.740486"><ele>237.4</ele></rtept><rtept lat="33.379204" lon="126.740326"><ele>237.2</ele></rtept><rtept lat="33.379025" lon="126.74016"><ele>239.2</ele></rtept><rtept lat="33.378857" lon="126.74007"><ele>238.6</ele></rtept><rtept lat="33.37859" lon="126.73976"><ele>238.2</ele></rtept><rtept lat="33.37818" lon="126.73949"><ele>239.4</ele></rtept><rtept lat="33.378075" lon="126.739456"><ele>239.0</ele></rtept><rtept lat="33.377827" lon="126.73947"><ele>237.0</ele></rtept><rtept lat="33.377686" lon="126.73942"><ele>235.8</ele></rtept><rtept lat="33.37759" lon="126.73935"><ele>235.2</ele></rtept><rtept lat="33.377483" lon="126.7392"><ele>235.2</ele></rtept><rtept lat="33.37733" lon="126.739105"><ele>235.0</ele></rtept><rtept lat="33.376953" lon="126.73904"><ele>234.0</ele></rtept><rtept lat="33.3767" lon="126.739044"><ele>233.6</ele></rtept><rtept lat="33.37654" lon="126.73917"><ele>234.0</ele></rtept><rtept lat="33.376286" lon="126.739204"><ele>234.6</ele></rtept><rtept lat="33.376194" lon="126.73925"><ele>233.8</ele></rtept><rtept lat="33.37606" lon="126.73943"><ele>233.4</ele></rtept><rtept lat="33.37579" lon="126.739716"><ele>232.4</ele></rtept><rtept lat="33.375534" lon="126.74008"><ele>231.0</ele></rtept><rtept lat="33.37531" lon="126.74027"><ele>229.8</ele></rtept><rtept lat="33.37503" lon="126.74066"><ele>228.4</ele></rtept><rtept lat="33.374924" lon="126.74068"><ele>228.0</ele></rtept><rtept lat="33.37465" lon="126.74054"><ele>227.6</ele></rtept><rtept lat="33.374302" lon="126.74065"><ele>226.4</ele></rtept><rtept lat="33.373997" lon="126.74091"><ele>221.4</ele></rtept><rtept lat="33.37364" lon="126.74147"><ele>218.4</ele></rtept><rtept lat="33.37357" lon="126.741646"><ele>217.8</ele></rtept><rtept lat="33.373745" lon="126.74199"><ele>217.0</ele></rtept><rtept lat="33.373848" lon="126.742386"><ele>217.2</ele></rtept><rtept lat="33.37397" lon="126.74306"><ele>219.6</ele></rtept><rtept lat="33.373966" lon="126.74323"><ele>221.6</ele></rtept><rtept lat="33.374016" lon="126.743286"><ele>222.6</ele></rtept><rtept lat="33.37401" lon="126.743324"><ele>224.0</ele></rtept><rtept lat="33.374104" lon="126.74341"><ele>223.8</ele></rtept><rtept lat="33.37441" lon="126.74356"><ele>225.0</ele></rtept><rtept lat="33.374435" lon="126.743614"><ele>225.0</ele></rtept><rtept lat="33.37427" lon="126.74363"><ele>225.8</ele></rtept><rtept lat="33.37423" lon="126.74367"><ele>226.2</ele></rtept><rtept lat="33.374252" lon="126.74383"><ele>226.6</ele></rtept><rtept lat="33.374268" lon="126.74403"><ele>232.6</ele></rtept><rtept lat="33.37419" lon="126.74456"><ele>242.8</ele></rtept><rtept lat="33.374157" lon="126.74466"><ele>244.4</ele></rtept><rtept lat="33.374023" lon="126.74486"><ele>246.2</ele></rtept><rtept lat="33.373997" lon="126.74495"><ele>248.2</ele></rtept><rtept lat="33.373993" lon="126.74504"><ele>249.8</ele></rtept><rtept lat="33.374146" lon="126.74549"><ele>259.6</ele></rtept><rtept lat="33.374146" lon="126.74558"><ele>261.0</ele></rtept><rtept lat="33.374073" lon="126.7458"><ele>263.8</ele></rtept><rtept lat="33.374065" lon="126.746025"><ele>266.8</ele></rtept><rtept lat="33.374134" lon="126.74607"><ele>267.8</ele></rtept><rtept lat="33.374203" lon="126.74604"><ele>269.0</ele></rtept><rtept lat="33.37432" lon="126.745926"><ele>271.6</ele></rtept><rtept lat="33.374413" lon="126.74575"><ele>270.8</ele></rtept><rtept lat="33.374428" lon="126.74556"><ele>266.6</ele></rtept><rtept lat="33.374477" lon="126.745384"><ele>264.4</ele></rtept><rtept lat="33.374477" lon="126.745155"><ele>261.8</ele></rtept><rtept lat="33.374496" lon="126.74511"><ele>261.6</ele></rtept><rtept lat="33.374496" lon="126.74503"><ele>260.4</ele></rtept><rtept lat="33.374424" lon="126.744896"><ele>257.2</ele></rtept><rtept lat="33.374435" lon="126.74451"><ele>247.6</ele></rtept><rtept lat="33.374508" lon="126.74434"><ele>241.6</ele></rtept><rtept lat="33.374516" lon="126.74425"><ele>239.0</ele></rtept><rtept lat="33.37463" lon="126.74402"><ele>230.8</ele></rtept><rtept lat="33.374737" lon="126.743965"><ele>227.8</ele></rtept><rtept lat="33.3748" lon="126.7439"><ele>226.0</ele></rtept><rtept lat="33.374874" lon="126.74392"><ele>224.8</ele></rtept><rtept lat="33.375072" lon="126.744156"><ele>225.4</ele></rtept><rtept lat="33.375416" lon="126.744995"><ele>224.6</ele></rtept><rtept lat="33.3756" lon="126.74563"><ele>221.0</ele></rtept><rtept lat="33.375587" lon="126.74613"><ele>216.8</ele></rtept><rtept lat="33.375626" lon="126.74662"><ele>212.4</ele></rtept><rtept lat="33.37557" lon="126.74693"><ele>210.2</ele></rtept><rtept lat="33.375584" lon="126.74743"><ele>210.2</ele></rtept><rtept lat="33.37557" lon="126.74775"><ele>211.8</ele></rtept><rtept lat="33.37562" lon="126.7483"><ele>212.8</ele></rtept><rtept lat="33.37569" lon="126.74837"><ele>211.8</ele></rtept><rtept lat="33.375698" lon="126.74847"><ele>211.4</ele></rtept><rtept lat="33.375584" lon="126.74864"><ele>211.4</ele></rtept><rtept lat="33.37548" lon="126.74874"><ele>211.2</ele></rtept><rtept lat="33.375397" lon="126.748764"><ele>210.4</ele></rtept><rtept lat="33.375385" lon="126.74881"><ele>210.0</ele></rtept><rtept lat="33.37543" lon="126.74881"><ele>210.6</ele></rtept><rtept lat="33.37472" lon="126.7498"><ele>206.8</ele></rtept><rtept lat="33.374653" lon="126.74981"><ele>206.0</ele></rtept><rtept lat="33.37453" lon="126.74969"><ele>204.4</ele></rtept><rtept lat="33.37438" lon="126.74961"><ele>203.2</ele></rtept><rtept lat="33.374084" lon="126.74955"><ele>201.0</ele></rtept><rtept lat="33.373417" lon="126.749886"><ele>199.8</ele></rtept><rtept lat="33.372654" lon="126.75015"><ele>197.8</ele></rtept><rtept lat="33.372345" lon="126.74993"><ele>198.6</ele></rtept><rtept lat="33.372265" lon="126.749825"><ele>198.6</ele></rtept><rtept lat="33.371933" lon="126.74988"><ele>199.0</ele></rtept><rtept lat="33.371838" lon="126.74985"><ele>198.8</ele></rtept><rtept lat="33.371777" lon="126.74973"><ele>198.8</ele></rtept><rtept lat="33.371746" lon="126.74936"><ele>201.8</ele></rtept><rtept lat="33.371624" lon="126.748825"><ele>200.0</ele></rtept><rtept lat="33.37156" lon="126.74821"><ele>203.2</ele></rtept><rtept lat="33.37146" lon="126.74809"><ele>201.8</ele></rtept><rtept lat="33.371204" lon="126.747635"><ele>202.0</ele></rtept><rtept lat="33.371098" lon="126.74756"><ele>202.0</ele></rtept><rtept lat="33.37094" lon="126.74729"><ele>202.2</ele></rtept><rtept lat="33.370842" lon="126.74721"><ele>202.6</ele></rtept><rtept lat="33.370735" lon="126.746994"><ele>202.6</ele></rtept><rtept lat="33.370476" lon="126.74689"><ele>203.8</ele></rtept><rtept lat="33.370235" lon="126.74705"><ele>204.0</ele></rtept><rtept lat="33.37019" lon="126.74713"><ele>204.6</ele></rtept><rtept lat="33.370056" lon="126.74716"><ele>206.0</ele></rtept><rtept lat="33.36998" lon="126.74708"><ele>206.8</ele></rtept><rtept lat="33.36982" lon="126.746765"><ele>207.0</ele></rtept><rtept lat="33.369682" lon="126.746765"><ele>208.0</ele></rtept><rtept lat="33.369404" lon="126.7465"><ele>208.4</ele></rtept><rtept lat="33.3693" lon="126.7465"><ele>209.2</ele></rtept><rtept lat="33.36925" lon="126.74654"><ele>210.4</ele></rtept><rtept lat="33.36919" lon="126.74651"><ele>211.2</ele></rtept><rtept lat="33.36915" lon="126.7466"><ele>213.4</ele></rtept><rtept lat="33.369076" lon="126.74663"><ele>214.8</ele></rtept><rtept lat="33.36904" lon="126.746735"><ele>216.6</ele></rtept><rtept lat="33.36892" lon="126.74691"><ele>223.2</ele></rtept><rtept lat="33.368946" lon="126.74706"><ele>226.8</ele></rtept><rtept lat="33.36887" lon="126.747215"><ele>233.2</ele></rtept><rtept lat="33.36885" lon="126.7474"><ele>240.6</ele></rtept><rtept lat="33.368813" lon="126.747444"><ele>243.6</ele></rtept><rtept lat="33.3688" lon="126.747536"><ele>246.2</ele></rtept><rtept lat="33.36876" lon="126.74759"><ele>250.2</ele></rtept><rtept lat="33.368725" lon="126.747765"><ele>255.4</ele></rtept><rtept lat="33.368706" lon="126.747765"><ele>255.2</ele></rtept><rtept lat="33.368706" lon="126.747795"><ele>256.4</ele></rtept><rtept lat="33.368702" lon="126.747765"><ele>256.4</ele></rtept><rtept lat="33.36872" lon="126.747826"><ele>255.8</ele></rtept><rtept lat="33.368683" lon="126.74792"><ele>258.6</ele></rtept><rtept lat="33.368652" lon="126.7479"><ele>258.4</ele></rtept><rtept lat="33.36858" lon="126.748"><ele>259.2</ele></rtept><rtept lat="33.36845" lon="126.74804"><ele>259.4</ele></rtept><rtept lat="33.368008" lon="126.747795"><ele>264.6</ele></rtept><rtept lat="33.36772" lon="126.74784"><ele>273.8</ele></rtept><rtept lat="33.367546" lon="126.74781"><ele>279.2</ele></rtept><rtept lat="33.36747" lon="126.74796"><ele>282.2</ele></rtept><rtept lat="33.36721" lon="126.74807"><ele>280.4</ele></rtept><rtept lat="33.367115" lon="126.74814"><ele>281.0</ele></rtept><rtept lat="33.36709" lon="126.7483"><ele>283.8</ele></rtept><rtept lat="33.36698" lon="126.74848"><ele>283.8</ele></rtept><rtept lat="33.36694" lon="126.74865"><ele>283.0</ele></rtept><rtept lat="33.36682" lon="126.74877"><ele>281.4</ele></rtept><rtept lat="33.36678" lon="126.74902"><ele>277.0</ele></rtept><rtept lat="33.366814" lon="126.749214"><ele>275.2</ele></rtept><rtept lat="33.366993" lon="126.74951"><ele>273.8</ele></rtept><rtept lat="33.367123" lon="126.74982"><ele>274.8</ele></rtept><rtept lat="33.36724" lon="126.74985"><ele>275.0</ele></rtept><rtept lat="33.3674" lon="126.75001"><ele>275.2</ele></rtept><rtept lat="33.36755" lon="126.74996"><ele>271.8</ele></rtept><rtept lat="33.36768" lon="126.75001"><ele>267.4</ele></rtept><rtept lat="33.367817" lon="126.750114"><ele>263.2</ele></rtept><rtept lat="33.367992" lon="126.749886"><ele>257.0</ele></rtept><rtept lat="33.368176" lon="126.74981"><ele>251.6</ele></rtept><rtept lat="33.368206" lon="126.74998"><ele>250.4</ele></rtept><rtept lat="33.368305" lon="126.7501"><ele>246.8</ele></rtept><rtept lat="33.368362" lon="126.75028"><ele>242.4</ele></rtept><rtept lat="33.368538" lon="126.750465"><ele>231.8</ele></rtept><rtept lat="33.368572" lon="126.750595"><ele>228.0</ele></rtept><rtept lat="33.36872" lon="126.750725"><ele>220.8</ele></rtept><rtept lat="33.368736" lon="126.75079"><ele>218.8</ele></rtept><rtept lat="33.36878" lon="126.75084"><ele>216.8</ele></rtept><rtept lat="33.368782" lon="126.75108"><ele>210.2</ele></rtept><rtept lat="33.36897" lon="126.7512"><ele>204.2</ele></rtept><rtept lat="33.36902" lon="126.751274"><ele>201.6</ele></rtept><rtept lat="33.369053" lon="126.7514"><ele>197.8</ele></rtept><rtept lat="33.36924" lon="126.75161"><ele>192.2</ele></rtept><rtept lat="33.36938" lon="126.75195"><ele>187.0</ele></rtept><rtept lat="33.369373" lon="126.752"><ele>185.8</ele></rtept><rtept lat="33.36861" lon="126.752304"><ele>181.4</ele></rtept><rtept lat="33.368248" lon="126.75264"><ele>178.0</ele></rtept><rtept lat="33.367897" lon="126.75291"><ele>174.2</ele></rtept><rtept lat="33.367302" lon="126.75322"><ele>170.0</ele></rtept><rtept lat="33.367027" lon="126.75332"><ele>168.2</ele></rtept><rtept lat="33.366497" lon="126.75342"><ele>167.4</ele></rtept><rtept lat="33.365993" lon="126.75357"><ele>166.6</ele></rtept><rtept lat="33.36543" lon="126.75397"><ele>165.4</ele></rtept><rtept lat="33.365196" lon="126.75402"><ele>165.2</ele></rtept><rtept lat="33.364834" lon="126.754036"><ele>165.0</ele></rtept><rtept lat="33.364365" lon="126.7542"><ele>164.2</ele></rtept><rtept lat="33.36378" lon="126.75479"><ele>158.4</ele></rtept><rtept lat="33.363785" lon="126.75495"><ele>156.6</ele></rtept><rtept lat="33.36383" lon="126.755066"><ele>155.8</ele></rtept><rtept lat="33.364754" lon="126.75669"><ele>150.0</ele></rtept><rtept lat="33.36531" lon="126.75769"><ele>151.6</ele></rtept><rtept lat="33.365524" lon="126.75805"><ele>152.6</ele></rtept><rtept lat="33.36585" lon="126.75849"><ele>155.0</ele></rtept><rtept lat="33.366413" lon="126.75899"><ele>158.8</ele></rtept><rtept lat="33.36678" lon="126.75915"><ele>161.2</ele></rtept><rtept lat="33.367542" lon="126.75956"><ele>162.8</ele></rtept><rtept lat="33.367783" lon="126.75949"><ele>163.6</ele></rtept><rtept lat="33.368023" lon="126.75949"><ele>163.6</ele></rtept><rtept lat="33.368095" lon="126.759445"><ele>163.2</ele></rtept><rtept lat="33.368137" lon="126.759514"><ele>164.0</ele></rtept><rtept lat="33.36807" lon="126.759735"><ele>163.4</ele></rtept><rtept lat="33.36811" lon="126.759865"><ele>162.8</ele></rtept><rtept lat="33.36904" lon="126.76056"><ele>164.4</ele></rtept><rtept lat="33.369484" lon="126.76096"><ele>167.0</ele></rtept><rtept lat="33.3698" lon="126.76131"><ele>165.8</ele></rtept><rtept lat="33.370335" lon="126.76199"><ele>164.8</ele></rtept><rtept lat="33.370625" lon="126.762436"><ele>164.0</ele></rtept><rtept lat="33.370865" lon="126.7629"><ele>161.8</ele></rtept><rtept lat="33.370975" lon="126.76303"><ele>161.0</ele></rtept><rtept lat="33.37113" lon="126.763084"><ele>160.6</ele></rtept><rtept lat="33.371426" lon="126.76303"><ele>160.8</ele></rtept><rtept lat="33.371433" lon="126.763054"><ele>161.0</ele></rtept><rtept lat="33.371426" lon="126.76303"><ele>161.0</ele></rtept><rtept lat="33.371635" lon="126.76289"><ele>161.2</ele></rtept><rtept lat="33.37191" lon="126.76264"><ele>161.4</ele></rtept><rtept lat="33.372196" lon="126.762474"><ele>161.8</ele></rtept><rtept lat="33.37243" lon="126.762375"><ele>162.4</ele></rtept><rtept lat="33.372894" lon="126.76231"><ele>164.2</ele></rtept><rtept lat="33.373634" lon="126.76228"><ele>165.4</ele></rtept><rtept lat="33.373962" lon="126.76239"><ele>168.0</ele></rtept><rtept lat="33.374363" lon="126.762596"><ele>167.0</ele></rtept><rtept lat="33.37448" lon="126.762596"><ele>167.0</ele></rtept><rtept lat="33.37536" lon="126.76218"><ele>171.0</ele></rtept><rtept lat="33.37585" lon="126.76212"><ele>171.8</ele></rtept><rtept lat="33.3761" lon="126.762"><ele>172.2</ele></rtept><rtept lat="33.376854" lon="126.76133"><ele>173.6</ele></rtept><rtept lat="33.377453" lon="126.76062"><ele>177.6</ele></rtept><rtept lat="33.377995" lon="126.760376"><ele>182.0</ele></rtept><rtept lat="33.37835" lon="126.760124"><ele>184.8</ele></rtept><rtept lat="33.378464" lon="126.75996"><ele>185.2</ele></rtept><rtept lat="33.378532" lon="126.75966"><ele>185.6</ele></rtept><rtept lat="33.378593" lon="126.75954"><ele>185.8</ele></rtept><rtept lat="33.37909" lon="126.75926"><ele>187.0</ele></rtept><rtept lat="33.379368" lon="126.75923"><ele>187.0</ele></rtept><rtept lat="33.37957" lon="126.75933"><ele>185.8</ele></rtept><rtept lat="33.37982" lon="126.75954"><ele>186.2</ele></rtept><rtept lat="33.380676" lon="126.75969"><ele>191.2</ele></rtept><rtept lat="33.380863" lon="126.75968"><ele>193.6</ele></rtept><rtept lat="33.381264" lon="126.75955"><ele>197.4</ele></rtept><rtept lat="33.381485" lon="126.75954"><ele>199.0</ele></rtept><rtept lat="33.382107" lon="126.75956"><ele>202.4</ele></rtept><rtept lat="33.382557" lon="126.7597"><ele>204.6</ele></rtept><rtept lat="33.382816" lon="126.75971"><ele>206.6</ele></rtept><rtept lat="33.383003" lon="126.75963"><ele>206.8</ele></rtept><rtept lat="33.38329" lon="126.759285"><ele>207.6</ele></rtept><rtept lat="33.383446" lon="126.759155"><ele>208.6</ele></rtept><rtept lat="33.383877" lon="126.758995"><ele>210.4</ele></rtept><rtept lat="33.384098" lon="126.75885"><ele>211.4</ele></rtept><rtept lat="33.38446" lon="126.75843"><ele>212.4</ele></rtept><rtept lat="33.384487" lon="126.75836"><ele>212.6</ele></rtept><rtept lat="33.384453" lon="126.7582"><ele>212.6</ele></rtept><rtept lat="33.384487" lon="126.758156"><ele>212.8</ele></rtept><rtept lat="33.38459" lon="126.75814"><ele>213.0</ele></rtept><rtept lat="33.384632" lon="126.7582"><ele>213.2</ele></rtept><rtept lat="33.38462" lon="126.75818"><ele>213.6</ele></rtept><rtept lat="33.38479" lon="126.7581"><ele>215.4</ele></rtept><rtept lat="33.384846" lon="126.75802"><ele>216.0</ele></rtept><rtept lat="33.384876" lon="126.75803"><ele>216.2</ele></rtept><rtept lat="33.384865" lon="126.75801"><ele>216.0</ele></rtept><rtept lat="33.384964" lon="126.757904"><ele>216.8</ele></rtept><rtept lat="33.38514" lon="126.757355"><ele>225.6</ele></rtept><rtept lat="33.385456" lon="126.75677"><ele>226.2</ele></rtept><rtept lat="33.385567" lon="126.756386"><ele>229.4</ele></rtept><rtept lat="33.385616" lon="126.75564"><ele>234.4</ele></rtept><rtept lat="33.385674" lon="126.75558"><ele>236.6</ele></rtept><rtept lat="33.38554" lon="126.75506"><ele>236.4</ele></rtept><rtept lat="33.385452" lon="126.754364"><ele>240.0</ele></rtept><rtept lat="33.385353" lon="126.75388"><ele>240.0</ele></rtept><rtept lat="33.38536" lon="126.7537"><ele>240.4</ele></rtept><rtept lat="33.385468" lon="126.75354"><ele>241.4</ele></rtept><rtept lat="33.385437" lon="126.753494"><ele>241.8</ele></rtept><rtept lat="33.38549" lon="126.753395"><ele>246.0</ele></rtept><rtept lat="33.385437" lon="126.75336"><ele>248.8</ele></rtept><rtept lat="33.385468" lon="126.75329"><ele>250.6</ele></rtept><rtept lat="33.385468" lon="126.75319"><ele>255.4</ele></rtept><rtept lat="33.385677" lon="126.75285"><ele>267.2</ele></rtept><rtept lat="33.385628" lon="126.752754"><ele>271.4</ele></rtept><rtept lat="33.38587" lon="126.75238"><ele>282.6</ele></rtept><rtept lat="33.386036" lon="126.75219"><ele>289.0</ele></rtept><rtept lat="33.38625" lon="126.75217"><ele>290.6</ele></rtept><rtept lat="33.386356" lon="126.751976"><ele>296.4</ele></rtept><rtept lat="33.386528" lon="126.75178"><ele>305.2</ele></rtept><rtept lat="33.386627" lon="126.7517"><ele>308.6</ele></rtept><rtept lat="33.386787" lon="126.75168"><ele>312.2</ele></rtept><rtept lat="33.386932" lon="126.75173"><ele>317.0</ele></rtept><rtept lat="33.386986" lon="126.75172"><ele>318.8</ele></rtept><rtept lat="33.387108" lon="126.75178"><ele>323.4</ele></rtept><rtept lat="33.387157" lon="126.75186"><ele>325.6</ele></rtept><rtept lat="33.387157" lon="126.75234"><ele>327.4</ele></rtept><rtept lat="33.387142" lon="126.752464"><ele>327.0</ele></rtept><rtept lat="33.38709" lon="126.752556"><ele>327.4</ele></rtept><rtept lat="33.387074" lon="126.75278"><ele>328.0</ele></rtept><rtept lat="33.387093" lon="126.75288"><ele>328.0</ele></rtept><rtept lat="33.38706" lon="126.753006"><ele>327.6</ele></rtept><rtept lat="33.387062" lon="126.75313"><ele>327.0</ele></rtept><rtept lat="33.38711" lon="126.753426"><ele>330.0</ele></rtept><rtept lat="33.387337" lon="126.75391"><ele>334.8</ele></rtept><rtept lat="33.387432" lon="126.7539"><ele>336.0</ele></rtept><rtept lat="33.38749" lon="126.753716"><ele>332.8</ele></rtept><rtept lat="33.387627" lon="126.75348"><ele>327.0</ele></rtept><rtept lat="33.387745" lon="126.75336"><ele>322.6</ele></rtept><rtept lat="33.38778" lon="126.75324"><ele>320.4</ele></rtept><rtept lat="33.38796" lon="126.75304"><ele>318.6</ele></rtept><rtept lat="33.388054" lon="126.75287"><ele>318.0</ele></rtept><rtept lat="33.388115" lon="126.75265"><ele>316.4</ele></rtept><rtept lat="33.388203" lon="126.75234"><ele>320.8</ele></rtept><rtept lat="33.388264" lon="126.75207"><ele>328.8</ele></rtept><rtept lat="33.38835" lon="126.75191"><ele>334.6</ele></rtept><rtept lat="33.388393" lon="126.751724"><ele>339.8</ele></rtept><rtept lat="33.38858" lon="126.75185"><ele>336.2</ele></rtept><rtept lat="33.388714" lon="126.751884"><ele>330.6</ele></rtept><rtept lat="33.38877" lon="126.75196"><ele>327.8</ele></rtept><rtept lat="33.388893" lon="126.75204"><ele>320.4</ele></rtept><rtept lat="33.389122" lon="126.7523"><ele>313.6</ele></rtept><rtept lat="33.389187" lon="126.75274"><ele>308.4</ele></rtept><rtept lat="33.389202" lon="126.75308"><ele>313.0</ele></rtept><rtept lat="33.389347" lon="126.75312"><ele>308.8</ele></rtept><rtept lat="33.389614" lon="126.75311"><ele>301.2</ele></rtept><rtept lat="33.389965" lon="126.75319"><ele>285.8</ele></rtept><rtept lat="33.390347" lon="126.75321"><ele>280.4</ele></rtept><rtept lat="33.390488" lon="126.75323"><ele>273.6</ele></rtept><rtept lat="33.39068" lon="126.7532"><ele>270.8</ele></rtept><rtept lat="33.391014" lon="126.75345"><ele>278.6</ele></rtept><rtept lat="33.391098" lon="126.75347"><ele>280.8</ele></rtept><rtept lat="33.391235" lon="126.753586"><ele>280.2</ele></rtept><rtept lat="33.391388" lon="126.753586"><ele>275.2</ele></rtept><rtept lat="33.39169" lon="126.753494"><ele>261.6</ele></rtept><rtept lat="33.39183" lon="126.75361"><ele>253.8</ele></rtept><rtept lat="33.39195" lon="126.75364"><ele>250.2</ele></rtept><rtept lat="33.39202" lon="126.7537"><ele>247.8</ele></rtept><rtept lat="33.392235" lon="126.75325"><ele>247.2</ele></rtept><rtept lat="33.39227" lon="126.75286"><ele>247.4</ele></rtept><rtept lat="33.39233" lon="126.75269"><ele>246.6</ele></rtept><rtept lat="33.392418" lon="126.752014"><ele>243.2</ele></rtept><rtept lat="33.39245" lon="126.751945"><ele>242.8</ele></rtept><rtept lat="33.39247" lon="126.751595"><ele>243.4</ele></rtept><rtept lat="33.39252" lon="126.75137"><ele>243.8</ele></rtept><rtept lat="33.392513" lon="126.75114"><ele>244.6</ele></rtept><rtept lat="33.392597" lon="126.75057"><ele>245.6</ele></rtept><rtept lat="33.392624" lon="126.74991"><ele>246.6</ele></rtept><rtept lat="33.39268" lon="126.74991"><ele>246.0</ele></rtept><rtept lat="33.39271" lon="126.74984"><ele>246.6</ele></rtept><rtept lat="33.3927" lon="126.749596"><ele>246.6</ele></rtept><rtept lat="33.39275" lon="126.749214"><ele>247.6</ele></rtept><rtept lat="33.392696" lon="126.74901"><ele>248.6</ele></rtept><rtept lat="33.39276" lon="126.74837"><ele>249.0</ele></rtept><rtept lat="33.392754" lon="126.748116"><ele>249.0</ele></rtept><rtept lat="33.392838" lon="126.74777"><ele>250.4</ele></rtept><rtept lat="33.392895" lon="126.747665"><ele>250.4</ele></rtept><rtept lat="33.392925" lon="126.74765"><ele>250.8</ele></rtept><rtept lat="33.393097" lon="126.74778"><ele>250.2</ele></rtept><rtept lat="33.39309" lon="126.74792"><ele>249.4</ele></rtept><rtept lat="33.393147" lon="126.74802"><ele>248.8</ele></rtept><rtept lat="33.393375" lon="126.748184"><ele>249.0</ele></rtept><rtept lat="33.39348" lon="126.74831"><ele>248.4</ele></rtept><rtept lat="33.39361" lon="126.74828"><ele>249.4</ele></rtept><rtept lat="33.393692" lon="126.748184"><ele>250.6</ele></rtept><rtept lat="33.393776" lon="126.74817"><ele>251.0</ele></rtept><rtept lat="33.393776" lon="126.74814"><ele>251.2</ele></rtept><rtept lat="33.39379" lon="126.74816"><ele>249.8</ele></rtept><rtept lat="33.39378" lon="126.74814"><ele>250.4</ele></rtept><rtept lat="33.393852" lon="126.74816"><ele>250.8</ele></rtept><rtept lat="33.39392" lon="126.748116"><ele>250.8</ele></rtept><rtept lat="33.39396" lon="126.74817"><ele>250.6</ele></rtept><rtept lat="33.39406" lon="126.74812"><ele>251.2</ele></rtept><rtept lat="33.39417" lon="126.74818"><ele>252.8</ele></rtept><rtept lat="33.394173" lon="126.748375"><ele>251.8</ele></rtept><rtept lat="33.394337" lon="126.748566"><ele>251.4</ele></rtept><rtept lat="33.394363" lon="126.7487"><ele>251.2</ele></rtept><rtept lat="33.394405" lon="126.74878"><ele>251.0</ele></rtept><rtept lat="33.394608" lon="126.74898"><ele>249.2</ele></rtept><rtept lat="33.39474" lon="126.749016"><ele>249.0</ele></rtept><rtept lat="33.39479" lon="126.74907"><ele>249.6</ele></rtept><rtept lat="33.39482" lon="126.74933"><ele>249.0</ele></rtept><rtept lat="33.394905" lon="126.7495"><ele>248.8</ele></rtept><rtept lat="33.394867" lon="126.74987"><ele>251.8</ele></rtept><rtept lat="33.394768" lon="126.750114"><ele>254.0</ele></rtept><rtept lat="33.39482" lon="126.750465"><ele>251.4</ele></rtept><rtept lat="33.39489" lon="126.750694"><ele>250.6</ele></rtept><rtept lat="33.394867" lon="126.750755"><ele>250.0</ele></rtept><rtept lat="33.395126" lon="126.751434"><ele>248.4</ele></rtept><rtept lat="33.395226" lon="126.75187"><ele>248.0</ele></rtept><rtept lat="33.395653" lon="126.752495"><ele>245.2</ele></rtept><rtept lat="33.395813" lon="126.75266"><ele>243.0</ele></rtept><rtept lat="33.395966" lon="126.752914"><ele>239.8</ele></rtept><rtept lat="33.39676" lon="126.754036"><ele>237.8</ele></rtept><rtept lat="33.39696" lon="126.754425"><ele>236.4</ele></rtept><rtept lat="33.397102" lon="126.75459"><ele>235.6</ele></rtept><rtept lat="33.39805" lon="126.75633"><ele>232.0</ele></rtept><rtept lat="33.398144" lon="126.75645"><ele>232.2</ele></rtept><rtept lat="33.398632" lon="126.7563"><ele>228.2</ele></rtept><rtept lat="33.39926" lon="126.7561"><ele>231.2</ele></rtept><rtept lat="33.399937" lon="126.75584"><ele>232.4</ele></rtept><rtept lat="33.40037" lon="126.75572"><ele>232.8</ele></rtept><rtept lat="33.401833" lon="126.7552"><ele>239.8</ele></rtept><rtept lat="33.40246" lon="126.755005"><ele>240.2</ele></rtept><rtept lat="33.40282" lon="126.75484"><ele>241.4</ele></rtept><rtept lat="33.403442" lon="126.75461"><ele>244.2</ele></rtept><rtept lat="33.404636" lon="126.75426"><ele>242.4</ele></rtept><rtept lat="33.405968" lon="126.753845"><ele>247.4</ele></rtept><rtept lat="33.406406" lon="126.75375"><ele>248.4</ele></rtept><rtept lat="33.407543" lon="126.753426"><ele>254.6</ele></rtept><rtept lat="33.407623" lon="126.75341"><ele>254.6</ele></rtept><rtept lat="33.407665" lon="126.75345"><ele>254.8</ele></rtept><rtept lat="33.407673" lon="126.753586"><ele>254.6</ele></rtept><rtept lat="33.40751" lon="126.75446"><ele>251.0</ele></rtept><rtept lat="33.407448" lon="126.75508"><ele>247.6</ele></rtept><rtept lat="33.40726" lon="126.75596"><ele>242.6</ele></rtept><rtept lat="33.407166" lon="126.75675"><ele>239.2</ele></rtept><rtept lat="33.407074" lon="126.75715"><ele>237.4</ele></rtept><rtept lat="33.407024" lon="126.75757"><ele>236.6</ele></rtept><rtept lat="33.406933" lon="126.75795"><ele>234.0</ele></rtept><rtept lat="33.40688" lon="126.7585"><ele>230.6</ele></rtept><rtept lat="33.406765" lon="126.75906"><ele>228.4</ele></rtept><rtept lat="33.406475" lon="126.7611"><ele>223.8</ele></rtept><rtept lat="33.406353" lon="126.76161"><ele>222.2</ele></rtept><rtept lat="33.406166" lon="126.76289"><ele>218.0</ele></rtept><rtept lat="33.406055" lon="126.76331"><ele>217.6</ele></rtept><rtept lat="33.405937" lon="126.76416"><ele>217.0</ele></rtept><rtept lat="33.405678" lon="126.76555"><ele>212.4</ele></rtept><rtept lat="33.40554" lon="126.766"><ele>211.0</ele></rtept><rtept lat="33.405518" lon="126.76613"><ele>210.2</ele></rtept><rtept lat="33.405563" lon="126.76644"><ele>209.8</ele></rtept><rtept lat="33.405724" lon="126.76716"><ele>205.6</ele></rtept><rtept lat="33.405823" lon="126.76737"><ele>204.0</ele></rtept><rtept lat="33.406136" lon="126.76736"><ele>203.4</ele></rtept><rtept lat="33.407104" lon="126.76743"><ele>200.8</ele></rtept><rtept lat="33.408558" lon="126.76815"><ele>200.8</ele></rtept><rtept lat="33.40888" lon="126.76828"><ele>203.8</ele></rtept><rtept lat="33.409138" lon="126.76838"><ele>203.2</ele></rtept><rtept lat="33.4096" lon="126.76845"><ele>202.4</ele></rtept><rtept lat="33.410194" lon="126.768616"><ele>202.0</ele></rtept><rtept lat="33.410557" lon="126.768875"><ele>201.6</ele></rtept><rtept lat="33.41061" lon="126.76875"><ele>199.8</ele></rtept><rtept lat="33.41123" lon="126.767395"><ele>204.0</ele></rtept><rtept lat="33.411423" lon="126.767044"><ele>205.6</ele></rtept><rtept lat="33.41164" lon="126.76674"><ele>205.8</ele></rtept><rtept lat="33.411674" lon="126.76661"><ele>206.6</ele></rtept><rtept lat="33.411724" lon="126.76654"><ele>206.4</ele></rtept><rtept lat="33.41165" lon="126.76648"><ele>206.4</ele></rtept><rtept lat="33.411617" lon="126.76635"><ele>206.8</ele></rtept><rtept lat="33.411552" lon="126.76547"><ele>208.0</ele></rtept><rtept lat="33.411484" lon="126.76502"><ele>212.2</ele></rtept><rtept lat="33.411453" lon="126.763756"><ele>218.0</ele></rtept><rtept lat="33.411396" lon="126.76316"><ele>220.0</ele></rtept><rtept lat="33.41134" lon="126.762924"><ele>220.8</ele></rtept><rtept lat="33.4112" lon="126.76178"><ele>222.6</ele></rtept><rtept lat="33.411427" lon="126.760445"><ele>224.2</ele></rtept><rtept lat="33.411423" lon="126.76021"><ele>224.6</ele></rtept><rtept lat="33.41147" lon="126.759735"><ele>225.2</ele></rtept><rtept lat="33.41178" lon="126.75787"><ele>230.2</ele></rtept><rtept lat="33.4118" lon="126.75736"><ele>232.2</ele></rtept><rtept lat="33.411922" lon="126.75642"><ele>236.2</ele></rtept><rtept lat="33.411922" lon="126.756065"><ele>237.0</ele></rtept><rtept lat="33.41204" lon="126.75511"><ele>239.2</ele></rtept><rtept lat="33.412167" lon="126.7545"><ele>243.2</ele></rtept><rtept lat="33.41223" lon="126.753944"><ele>243.4</ele></rtept><rtept lat="33.41237" lon="126.753334"><ele>244.2</ele></rtept><rtept lat="33.412384" lon="126.75319"><ele>244.6</ele></rtept><rtept lat="33.41235" lon="126.75315"><ele>244.6</ele></rtept><rtept lat="33.412403" lon="126.75303"><ele>244.2</ele></rtept><rtept lat="33.412464" lon="126.75264"><ele>246.2</ele></rtept><rtept lat="33.41184" lon="126.75268"><ele>246.6</ele></rtept><rtept lat="33.411617" lon="126.752625"><ele>247.0</ele></rtept><rtept lat="33.41117" lon="126.75263"><ele>244.8</ele></rtept><rtept lat="33.410305" lon="126.75278"><ele>248.0</ele></rtept><rtept lat="33.409817" lon="126.75273"><ele>249.4</ele></rtept><rtept lat="33.409748" lon="126.75277"><ele>249.6</ele></rtept><rtept lat="33.409344" lon="126.75284"><ele>250.4</ele></rtept><rtept lat="33.40922" lon="126.752815"><ele>250.8</ele></rtept><rtept lat="33.408005" lon="126.75292"><ele>254.6</ele></rtept><rtept lat="33.407875" lon="126.752975"><ele>255.0</ele></rtept><rtept lat="33.407505" lon="126.752975"><ele>255.6</ele></rtept><rtept lat="33.40653" lon="126.75307"><ele>252.4</ele></rtept><rtept lat="33.406292" lon="126.75311"><ele>253.2</ele></rtept><rtept lat="33.406204" lon="126.75309"><ele>252.8</ele></rtept><rtept lat="33.406086" lon="126.753"><ele>252.8</ele></rtept><rtept lat="33.40602" lon="126.75287"><ele>253.8</ele></rtept><rtept lat="33.406013" lon="126.752464"><ele>256.2</ele></rtept><rtept lat="33.40598" lon="126.752426"><ele>256.4</ele></rtept><rtept lat="33.405952" lon="126.75212"><ele>258.0</ele></rtept><rtept lat="33.40596" lon="126.75178"><ele>259.2</ele></rtept><rtept lat="33.406013" lon="126.75167"><ele>260.0</ele></rtept><rtept lat="33.405994" lon="126.75144"><ele>261.6</ele></rtept><rtept lat="33.40601" lon="126.751"><ele>265.2</ele></rtept><rtept lat="33.405983" lon="126.750206"><ele>267.2</ele></rtept><rtept lat="33.406" lon="126.74943"><ele>270.2</ele></rtept><rtept lat="33.405964" lon="126.748985"><ele>272.0</ele></rtept><rtept lat="33.405895" lon="126.748924"><ele>272.6</ele></rtept><rtept lat="33.405712" lon="126.74888"><ele>272.2</ele></rtept><rtept lat="33.404663" lon="126.74885"><ele>269.0</ele></rtept><rtept lat="33.404507" lon="126.74888"><ele>268.6</ele></rtept><rtept lat="33.404076" lon="126.74886"><ele>268.8</ele></rtept><rtept lat="33.403572" lon="126.74893"><ele>270.0</ele></rtept><rtept lat="33.403008" lon="126.748886"><ele>273.8</ele></rtept><rtept lat="33.40289" lon="126.74885"><ele>275.4</ele></rtept><rtept lat="33.402733" lon="126.74852"><ele>276.8</ele></rtept><rtept lat="33.402588" lon="126.7484"><ele>277.0</ele></rtept><rtept lat="33.40234" lon="126.748085"><ele>277.8</ele></rtept><rtept lat="33.402298" lon="126.74753"><ele>281.2</ele></rtept><rtept lat="33.402306" lon="126.74661"><ele>282.6</ele></rtept><rtept lat="33.40238" lon="126.74606"><ele>283.6</ele></rtept><rtept lat="33.402275" lon="126.74565"><ele>284.0</ele></rtept><rtept lat="33.402264" lon="126.74552"><ele>284.4</ele></rtept><rtept lat="33.402298" lon="126.74524"><ele>286.2</ele></rtept><rtept lat="33.402287" lon="126.744514"><ele>288.0</ele></rtept><rtept lat="33.402313" lon="126.74438"><ele>289.2</ele></rtept><rtept lat="33.402298" lon="126.7441"><ele>291.0</ele></rtept><rtept lat="33.402325" lon="126.74329"><ele>292.2</ele></rtept><rtept lat="33.40234" lon="126.74321"><ele>291.2</ele></rtept><rtept lat="33.40243" lon="126.74299"><ele>293.4</ele></rtept><rtept lat="33.402397" lon="126.742714"><ele>294.6</ele></rtept><rtept lat="33.40242" lon="126.74249"><ele>295.6</ele></rtept><rtept lat="33.4024" lon="126.742004"><ele>298.2</ele></rtept><rtept lat="33.402363" lon="126.74167"><ele>297.2</ele></rtept><rtept lat="33.402378" lon="126.740616"><ele>297.0</ele></rtept><rtept lat="33.402412" lon="126.74019"><ele>298.6</ele></rtept><rtept lat="33.40254" lon="126.73965"><ele>299.4</ele></rtept><rtept lat="33.40256" lon="126.73941"><ele>301.0</ele></rtept><rtept lat="33.402546" lon="126.73916"><ele>302.2</ele></rtept><rtept lat="33.40264" lon="126.738594"><ele>305.0</ele></rtept><rtept lat="33.402622" lon="126.737625"><ele>309.2</ele></rtept><rtept lat="33.402596" lon="126.73719"><ele>311.4</ele></rtept><rtept lat="33.402557" lon="126.7371"><ele>312.2</ele></rtept><rtept lat="33.402603" lon="126.73694"><ele>313.4</ele></rtept><rtept lat="33.4027" lon="126.73687"><ele>315.2</ele></rtept><rtept lat="33.402706" lon="126.736824"><ele>316.0</ele></rtept><rtept lat="33.402756" lon="126.73678"><ele>317.6</ele></rtept><rtept lat="33.40275" lon="126.73666"><ele>318.8</ele></rtept><rtept lat="33.40266" lon="126.73651"><ele>324.0</ele></rtept><rtept lat="33.402695" lon="126.73651"><ele>325.6</ele></rtept><rtept lat="33.402664" lon="126.73643"><ele>325.0</ele></rtept><rtept lat="33.402725" lon="126.7363"><ele>326.2</ele></rtept><rtept lat="33.40271" lon="126.73614"><ele>328.2</ele></rtept><rtept lat="33.402626" lon="126.735916"><ele>332.4</ele></rtept><rtept lat="33.402527" lon="126.73579"><ele>334.8</ele></rtept><rtept lat="33.4025" lon="126.735596"><ele>338.0</ele></rtept><rtept lat="33.40241" lon="126.73537"><ele>341.6</ele></rtept><rtept lat="33.40226" lon="126.7352"><ele>344.0</ele></rtept><rtept lat="33.40221" lon="126.73509"><ele>345.6</ele></rtept><rtept lat="33.402084" lon="126.73498"><ele>346.8</ele></rtept><rtept lat="33.401966" lon="126.73468"><ele>350.8</ele></rtept><rtept lat="33.4018" lon="126.73457"><ele>355.8</ele></rtept><rtept lat="33.401554" lon="126.73432"><ele>364.6</ele></rtept><rtept lat="33.40138" lon="126.73405"><ele>373.2</ele></rtept><rtept lat="33.401333" lon="126.733665"><ele>380.4</ele></rtept><rtept lat="33.401424" lon="126.73339"><ele>384.8</ele></rtept><rtept lat="33.401394" lon="126.73291"><ele>388.8</ele></rtept><rtept lat="33.401104" lon="126.73234"><ele>393.0</ele></rtept><rtept lat="33.40108" lon="126.73222"><ele>395.6</ele></rtept><rtept lat="33.40093" lon="126.73209"><ele>401.4</ele></rtept><rtept lat="33.400887" lon="126.73199"><ele>406.0</ele></rtept><rtept lat="33.4008" lon="126.73186"><ele>410.8</ele></rtept><rtept lat="33.400517" lon="126.73174"><ele>417.0</ele></rtept><rtept lat="33.400394" lon="126.731575"><ele>421.8</ele></rtept><rtept lat="33.40037" lon="126.731575"><ele>422.2</ele></rtept><rtept lat="33.400234" lon="126.731346"><ele>429.4</ele></rtept><rtept lat="33.400055" lon="126.730934"><ele>438.6</ele></rtept><rtept lat="33.39986" lon="126.730835"><ele>440.2</ele></rtept><rtept lat="33.39953" lon="126.73056"><ele>445.2</ele></rtept><rtept lat="33.399387" lon="126.730385"><ele>449.6</ele></rtept><rtept lat="33.399204" lon="126.72999"><ele>459.6</ele></rtept><rtept lat="33.399223" lon="126.72968"><ele>468.0</ele></rtept><rtept lat="33.39919" lon="126.729546"><ele>470.2</ele></rtept><rtept lat="33.399166" lon="126.729294"><ele>470.0</ele></rtept><rtept lat="33.399242" lon="126.72887"><ele>466.0</ele></rtept><rtept lat="33.399147" lon="126.7285"><ele>455.8</ele></rtept><rtept lat="33.3991" lon="126.72844"><ele>453.0</ele></rtept><rtept lat="33.398956" lon="126.72785"><ele>435.2</ele></rtept><rtept lat="33.398926" lon="126.727135"><ele>421.8</ele></rtept><rtept lat="33.39885" lon="126.727005"><ele>417.8</ele></rtept><rtept lat="33.39864" lon="126.726875"><ele>405.0</ele></rtept><rtept lat="33.398567" lon="126.726685"><ele>396.6</ele></rtept><rtept lat="33.39857" lon="126.72657"><ele>393.4</ele></rtept><rtept lat="33.3987" lon="126.72612"><ele>383.8</ele></rtept><rtept lat="33.398693" lon="126.72607"><ele>382.8</ele></rtept><rtept lat="33.398552" lon="126.72605"><ele>377.4</ele></rtept><rtept lat="33.39826" lon="126.72615"><ele>369.4</ele></rtept><rtept lat="33.398205" lon="126.7262"><ele>368.8</ele></rtept><rtept lat="33.398018" lon="126.726234"><ele>364.6</ele></rtept><rtept lat="33.397633" lon="126.725975"><ele>354.6</ele></rtept><rtept lat="33.39757" lon="126.72586"><ele>354.2</ele></rtept><rtept lat="33.397217" lon="126.72548"><ele>353.6</ele></rtept><rtept lat="33.39717" lon="126.725464"><ele>353.4</ele></rtept><rtept lat="33.39709" lon="126.7255"><ele>352.8</ele></rtept><rtept lat="33.39693" lon="126.72563"><ele>351.8</ele></rtept><rtept lat="33.39625" lon="126.7264"><ele>347.6</ele></rtept><rtept lat="33.39616" lon="126.72672"><ele>345.6</ele></rtept><rtept lat="33.395798" lon="126.727486"><ele>340.2</ele></rtept><rtept lat="33.395596" lon="126.727554"><ele>339.0</ele></rtept><rtept lat="33.395416" lon="126.72767"><ele>338.6</ele></rtept><rtept lat="33.395153" lon="126.72799"><ele>334.4</ele></rtept><rtept lat="33.394936" lon="126.728134"><ele>330.6</ele></rtept><rtept lat="33.394825" lon="126.728546"><ele>329.6</ele></rtept><rtept lat="33.394627" lon="126.72898"><ele>328.8</ele></rtept><rtept lat="33.39453" lon="126.7294"><ele>327.2</ele></rtept><rtept lat="33.394424" lon="126.73004"><ele>319.6</ele></rtept><rtept lat="33.39442" lon="126.730194"><ele>316.6</ele></rtept><rtept lat="33.394463" lon="126.73031"><ele>315.2</ele></rtept><rtept lat="33.394615" lon="126.730515"><ele>314.6</ele></rtept><rtept lat="33.394653" lon="126.73063"><ele>314.4</ele></rtept><rtept lat="33.39448" lon="126.73091"><ele>314.2</ele></rtept><rtept lat="33.39441" lon="126.73125"><ele>314.0</ele></rtept><rtept lat="33.394325" lon="126.73145"><ele>313.6</ele></rtept><rtept lat="33.394073" lon="126.731804"><ele>311.8</ele></rtept><rtept lat="33.394024" lon="126.73196"><ele>311.2</ele></rtept><rtept lat="33.394035" lon="126.73252"><ele>311.2</ele></rtept><rtept lat="33.394123" lon="126.73293"><ele>308.0</ele></rtept><rtept lat="33.394024" lon="126.73333"><ele>307.4</ele></rtept><rtept lat="33.39402" lon="126.73356"><ele>306.6</ele></rtept><rtept lat="33.394157" lon="126.73394"><ele>306.0</ele></rtept></rte></gpx>