<?xml version="1.0" encoding="UTF-8"?>
<gpx version="1.1" creator="HTML GPX Creator" xmlns="http://www.topografix.com/GPX/1/1">
  <trk>
    <name>kimje_summer_20k</name>
    <trkseg>
      <trkpt lat="35.7546273534018" lon="127.03066349029542">
        <ele>207.6</ele>
      </trkpt>
      <trkpt lat="35.75285115904175" lon="127.02808856964113">
        <ele>207.9</ele>
      </trkpt>
      <trkpt lat="35.752811" lon="127.028024">
        <ele>208.2</ele>
      </trkpt>
      <trkpt lat="35.752737" lon="127.028093">
        <ele>208.5</ele>
      </trkpt>
      <trkpt lat="35.752633" lon="127.02822">
        <ele>208.9</ele>
      </trkpt>
      <trkpt lat="35.752551" lon="127.028286">
        <ele>209.2</ele>
      </trkpt>
      <trkpt lat="35.752399" lon="127.028337">
        <ele>209.5</ele>
      </trkpt>
      <trkpt lat="35.752293" lon="127.028349">
        <ele>209.9</ele>
      </trkpt>
      <trkpt lat="35.752205" lon="127.02837">
        <ele>210.2</ele>
      </trkpt>
      <trkpt lat="35.752121" lon="127.028361">
        <ele>210.5</ele>
      </trkpt>
      <trkpt lat="35.751967" lon="127.028277">
        <ele>210.8</ele>
      </trkpt>
      <trkpt lat="35.751849" lon="127.02825">
        <ele>211.0</ele>
      </trkpt>
      <trkpt lat="35.751787" lon="127.028279">
        <ele>211.3</ele>
      </trkpt>
      <trkpt lat="35.751735" lon="127.028372">
        <ele>211.5</ele>
      </trkpt>
      <trkpt lat="35.751693" lon="127.028509">
        <ele>211.7</ele>
      </trkpt>
      <trkpt lat="35.751571" lon="127.028687">
        <ele>211.8</ele>
      </trkpt>
      <trkpt lat="35.751491" lon="127.028852">
        <ele>212.3</ele>
      </trkpt>
      <trkpt lat="35.751426" lon="127.02896">
        <ele>212.7</ele>
      </trkpt>
      <trkpt lat="35.751295" lon="127.02908">
        <ele>213.0</ele>
      </trkpt>
      <trkpt lat="35.751167" lon="127.029183">
        <ele>213.4</ele>
      </trkpt>
      <trkpt lat="35.750926" lon="127.029291">
        <ele>213.8</ele>
      </trkpt>
      <trkpt lat="35.750693" lon="127.02934">
        <ele>214.1</ele>
      </trkpt>
      <trkpt lat="35.750642" lon="127.029369">
        <ele>214.4</ele>
      </trkpt>
      <trkpt lat="35.750624" lon="127.029432">
        <ele>214.7</ele>
      </trkpt>
      <trkpt lat="35.750628" lon="127.029515">
        <ele>215.0</ele>
      </trkpt>
      <trkpt lat="35.750659" lon="127.02965">
        <ele>215.2</ele>
      </trkpt>
      <trkpt lat="35.75069" lon="127.029744">
        <ele>215.4</ele>
      </trkpt>
      <trkpt lat="35.750699" lon="127.029868">
        <ele>215.6</ele>
      </trkpt>
      <trkpt lat="35.750666" lon="127.029967">
        <ele>215.8</ele>
      </trkpt>
      <trkpt lat="35.750617" lon="127.030071">
        <ele>216.0</ele>
      </trkpt>
      <trkpt lat="35.750549" lon="127.030361">
        <ele>216.2</ele>
      </trkpt>
      <trkpt lat="35.750403" lon="127.030608">
        <ele>216.3</ele>
      </trkpt>
      <trkpt lat="35.750323" lon="127.030698">
        <ele>216.4</ele>
      </trkpt>
      <trkpt lat="35.750149" lon="127.030808">
        <ele>216.4</ele>
      </trkpt>
      <trkpt lat="35.75004" lon="127.030842">
        <ele>216.4</ele>
      </trkpt>
      <trkpt lat="35.749916" lon="127.030921">
        <ele>216.3</ele>
      </trkpt>
      <trkpt lat="35.749867" lon="127.031041">
        <ele>216.2</ele>
      </trkpt>
      <trkpt lat="35.749903" lon="127.031143">
        <ele>216.0</ele>
      </trkpt>
      <trkpt lat="35.750017" lon="127.03123">
        <ele>215.8</ele>
      </trkpt>
      <trkpt lat="35.750076" lon="127.031296">
        <ele>215.6</ele>
      </trkpt>
      <trkpt lat="35.749979" lon="127.031532">
        <ele>215.3</ele>
      </trkpt>
      <trkpt lat="35.75001" lon="127.031666">
        <ele>215.0</ele>
      </trkpt>
      <trkpt lat="35.750144" lon="127.031869">
        <ele>214.6</ele>
      </trkpt>
      <trkpt lat="35.750315" lon="127.032054">
        <ele>214.3</ele>
      </trkpt>
      <trkpt lat="35.750426" lon="127.032206">
        <ele>213.9</ele>
      </trkpt>
      <trkpt lat="35.750308694207675" lon="127.03233718872072">
        <ele>213.6</ele>
      </trkpt>
      <trkpt lat="35.750426" lon="127.032206">
        <ele>213.2</ele>
      </trkpt>
      <trkpt lat="35.75048" lon="127.032279">
        <ele>212.8</ele>
      </trkpt>
      <trkpt lat="35.750554" lon="127.032435">
        <ele>212.3</ele>
      </trkpt>
      <trkpt lat="35.750588" lon="127.032841">
        <ele>211.9</ele>
      </trkpt>
      <trkpt lat="35.750567" lon="127.03293">
        <ele>211.4</ele>
      </trkpt>
      <trkpt lat="35.750479" lon="127.033184">
        <ele>211.0</ele>
      </trkpt>
      <trkpt lat="35.750452" lon="127.033303">
        <ele>210.5</ele>
      </trkpt>
      <trkpt lat="35.750471" lon="127.033516">
        <ele>210.1</ele>
      </trkpt>
      <trkpt lat="35.750445" lon="127.033612">
        <ele>209.7</ele>
      </trkpt>
      <trkpt lat="35.750381" lon="127.03371">
        <ele>209.3</ele>
      </trkpt>
      <trkpt lat="35.750293" lon="127.03387">
        <ele>209.0</ele>
      </trkpt>
      <trkpt lat="35.750264" lon="127.033993">
        <ele>208.7</ele>
      </trkpt>
      <trkpt lat="35.750269" lon="127.034108">
        <ele>208.4</ele>
      </trkpt>
      <trkpt lat="35.75031" lon="127.034207">
        <ele>208.1</ele>
      </trkpt>
      <trkpt lat="35.750501" lon="127.034457">
        <ele>207.9</ele>
      </trkpt>
      <trkpt lat="35.750604" lon="127.034527">
        <ele>207.7</ele>
      </trkpt>
      <trkpt lat="35.75081" lon="127.034635">
        <ele>207.5</ele>
      </trkpt>
      <trkpt lat="35.750888" lon="127.034795">
        <ele>207.4</ele>
      </trkpt>
      <trkpt lat="35.750928" lon="127.035164">
        <ele>207.4</ele>
      </trkpt>
      <trkpt lat="35.750898" lon="127.035443">
        <ele>207.4</ele>
      </trkpt>
      <trkpt lat="35.750896" lon="127.035652">
        <ele>207.5</ele>
      </trkpt>
      <trkpt lat="35.750953" lon="127.035793">
        <ele>207.7</ele>
      </trkpt>
      <trkpt lat="35.750992" lon="127.035907">
        <ele>208.0</ele>
      </trkpt>
      <trkpt lat="35.751015" lon="127.036002">
        <ele>208.4</ele>
      </trkpt>
      <trkpt lat="35.75102" lon="127.03614">
        <ele>208.9</ele>
      </trkpt>
      <trkpt lat="35.750966" lon="127.036283">
        <ele>209.4</ele>
      </trkpt>
      <trkpt lat="35.750843" lon="127.036471">
        <ele>210.2</ele>
      </trkpt>
      <trkpt lat="35.7508" lon="127.036644">
        <ele>211.0</ele>
      </trkpt>
      <trkpt lat="35.750891" lon="127.036772">
        <ele>211.9</ele>
      </trkpt>
      <trkpt lat="35.751002" lon="127.036849">
        <ele>212.9</ele>
      </trkpt>
      <trkpt lat="35.751024" lon="127.036954">
        <ele>214.1</ele>
      </trkpt>
      <trkpt lat="35.750961" lon="127.037335">
        <ele>215.4</ele>
      </trkpt>
      <trkpt lat="35.750884" lon="127.037395">
        <ele>216.8</ele>
      </trkpt>
      <trkpt lat="35.750796" lon="127.03743">
        <ele>218.3</ele>
      </trkpt>
      <trkpt lat="35.750314" lon="127.037554">
        <ele>220.0</ele>
      </trkpt>
      <trkpt lat="35.750211" lon="127.037671">
        <ele>221.7</ele>
      </trkpt>
      <trkpt lat="35.750189" lon="127.037764">
        <ele>223.4</ele>
      </trkpt>
      <trkpt lat="35.750247" lon="127.038568">
        <ele>225.3</ele>
      </trkpt>
      <trkpt lat="35.75017" lon="127.039134">
        <ele>227.1</ele>
      </trkpt>
      <trkpt lat="35.75013" lon="127.039471">
        <ele>229.1</ele>
      </trkpt>
      <trkpt lat="35.750129" lon="127.039507">
        <ele>231.0</ele>
      </trkpt>
      <trkpt lat="35.749995234014875" lon="127.03950405120851">
        <ele>233.0</ele>
      </trkpt>
      <trkpt lat="35.749767" lon="127.039892">
        <ele>235.0</ele>
      </trkpt>
      <trkpt lat="35.749847" lon="127.039963">
        <ele>237.1</ele>
      </trkpt>
      <trkpt lat="35.74982108892988" lon="127.04010486602785">
        <ele>239.1</ele>
      </trkpt>
      <trkpt lat="35.749847" lon="127.039963">
        <ele>241.2</ele>
      </trkpt>
      <trkpt lat="35.749642" lon="127.039783">
        <ele>243.4</ele>
      </trkpt>
      <trkpt lat="35.749543" lon="127.039596">
        <ele>245.5</ele>
      </trkpt>
      <trkpt lat="35.749447" lon="127.039072">
        <ele>247.7</ele>
      </trkpt>
      <trkpt lat="35.749459" lon="127.038936">
        <ele>249.9</ele>
      </trkpt>
      <trkpt lat="35.749455" lon="127.038716">
        <ele>252.1</ele>
      </trkpt>
      <trkpt lat="35.749407" lon="127.038539">
        <ele>254.4</ele>
      </trkpt>
      <trkpt lat="35.749359" lon="127.038464">
        <ele>256.6</ele>
      </trkpt>
      <trkpt lat="35.749111" lon="127.038206">
        <ele>258.9</ele>
      </trkpt>
      <trkpt lat="35.748772" lon="127.037831">
        <ele>261.2</ele>
      </trkpt>
      <trkpt lat="35.748563" lon="127.037627">
        <ele>263.5</ele>
      </trkpt>
      <trkpt lat="35.74848" lon="127.037477">
        <ele>265.7</ele>
      </trkpt>
      <trkpt lat="35.748428" lon="127.036999">
        <ele>267.9</ele>
      </trkpt>
      <trkpt lat="35.748437" lon="127.036919">
        <ele>270.0</ele>
      </trkpt>
      <trkpt lat="35.748452" lon="127.036851">
        <ele>272.1</ele>
      </trkpt>
      <trkpt lat="35.74851" lon="127.036775">
        <ele>274.1</ele>
      </trkpt>
      <trkpt lat="35.748579" lon="127.03673">
        <ele>276.1</ele>
      </trkpt>
      <trkpt lat="35.748751" lon="127.036733">
        <ele>278.0</ele>
      </trkpt>
      <trkpt lat="35.748853" lon="127.036769">
        <ele>279.9</ele>
      </trkpt>
      <trkpt lat="35.748945" lon="127.036778">
        <ele>281.8</ele>
      </trkpt>
      <trkpt lat="35.74895035778931" lon="127.03675746917726">
        <ele>283.6</ele>
      </trkpt>
      <trkpt lat="35.74895" lon="127.036777">
        <ele>285.5</ele>
      </trkpt>
      <trkpt lat="35.749034" lon="127.036773">
        <ele>287.4</ele>
      </trkpt>
      <trkpt lat="35.749128" lon="127.036703">
        <ele>289.3</ele>
      </trkpt>
      <trkpt lat="35.749153" lon="127.03663">
        <ele>291.3</ele>
      </trkpt>
      <trkpt lat="35.74912" lon="127.036488">
        <ele>293.2</ele>
      </trkpt>
      <trkpt lat="35.748963" lon="127.036023">
        <ele>295.2</ele>
      </trkpt>
      <trkpt lat="35.748889" lon="127.035878">
        <ele>297.3</ele>
      </trkpt>
      <trkpt lat="35.748785" lon="127.035814">
        <ele>299.3</ele>
      </trkpt>
      <trkpt lat="35.748663" lon="127.035664">
        <ele>301.4</ele>
      </trkpt>
      <trkpt lat="35.748638" lon="127.035497">
        <ele>303.4</ele>
      </trkpt>
      <trkpt lat="35.748689" lon="127.034757">
        <ele>305.5</ele>
      </trkpt>
      <trkpt lat="35.748689" lon="127.034082">
        <ele>307.6</ele>
      </trkpt>
      <trkpt lat="35.748657" lon="127.033881">
        <ele>309.6</ele>
      </trkpt>
      <trkpt lat="35.748548" lon="127.033717">
        <ele>311.7</ele>
      </trkpt>
      <trkpt lat="35.748041" lon="127.033285">
        <ele>313.7</ele>
      </trkpt>
      <trkpt lat="35.747982" lon="127.033211">
        <ele>315.7</ele>
      </trkpt>
      <trkpt lat="35.74792" lon="127.033052">
        <ele>317.7</ele>
      </trkpt>
      <trkpt lat="35.747911" lon="127.03299">
        <ele>319.6</ele>
      </trkpt>
      <trkpt lat="35.747976" lon="127.032842">
        <ele>321.5</ele>
      </trkpt>
      <trkpt lat="35.748147" lon="127.032609">
        <ele>323.4</ele>
      </trkpt>
      <trkpt lat="35.748187" lon="127.032494">
        <ele>325.4</ele>
      </trkpt>
      <trkpt lat="35.748195" lon="127.032451">
        <ele>327.3</ele>
      </trkpt>
      <trkpt lat="35.748174" lon="127.032381">
        <ele>329.4</ele>
      </trkpt>
      <trkpt lat="35.748119" lon="127.032279">
        <ele>331.5</ele>
      </trkpt>
      <trkpt lat="35.747771" lon="127.031786">
        <ele>333.6</ele>
      </trkpt>
      <trkpt lat="35.747597" lon="127.031389">
        <ele>335.8</ele>
      </trkpt>
      <trkpt lat="35.747532" lon="127.031121">
        <ele>338.1</ele>
      </trkpt>
      <trkpt lat="35.747375" lon="127.030633">
        <ele>340.3</ele>
      </trkpt>
      <trkpt lat="35.747262" lon="127.030118">
        <ele>342.6</ele>
      </trkpt>
      <trkpt lat="35.74724" lon="127.029965">
        <ele>344.8</ele>
      </trkpt>
      <trkpt lat="35.747251" lon="127.029777">
        <ele>347.1</ele>
      </trkpt>
      <trkpt lat="35.747234" lon="127.029678">
        <ele>349.3</ele>
      </trkpt>
      <trkpt lat="35.747129" lon="127.029608">
        <ele>351.6</ele>
      </trkpt>
      <trkpt lat="35.747039" lon="127.029589">
        <ele>353.9</ele>
      </trkpt>
      <trkpt lat="35.747034715749216" lon="127.0296335220337">
        <ele>356.2</ele>
      </trkpt>
      <trkpt lat="35.747039" lon="127.029589">
        <ele>358.5</ele>
      </trkpt>
      <trkpt lat="35.747129" lon="127.029608">
        <ele>360.8</ele>
      </trkpt>
      <trkpt lat="35.747301" lon="127.029274">
        <ele>363.1</ele>
      </trkpt>
      <trkpt lat="35.747461" lon="127.02881">
        <ele>365.5</ele>
      </trkpt>
      <trkpt lat="35.747553" lon="127.028408">
        <ele>367.9</ele>
      </trkpt>
      <trkpt lat="35.7477" lon="127.028097">
        <ele>370.3</ele>
      </trkpt>
      <trkpt lat="35.747767" lon="127.027708">
        <ele>372.8</ele>
      </trkpt>
      <trkpt lat="35.747767" lon="127.027613">
        <ele>375.3</ele>
      </trkpt>
      <trkpt lat="35.747737" lon="127.027463">
        <ele>377.9</ele>
      </trkpt>
      <trkpt lat="35.747719" lon="127.027249">
        <ele>380.5</ele>
      </trkpt>
      <trkpt lat="35.747681" lon="127.027069">
        <ele>383.1</ele>
      </trkpt>
      <trkpt lat="35.74771" lon="127.026986">
        <ele>385.8</ele>
      </trkpt>
      <trkpt lat="35.747706" lon="127.026896">
        <ele>388.6</ele>
      </trkpt>
      <trkpt lat="35.747611" lon="127.026695">
        <ele>391.4</ele>
      </trkpt>
      <trkpt lat="35.747677" lon="127.026646">
        <ele>394.2</ele>
      </trkpt>
      <trkpt lat="35.747764" lon="127.026497">
        <ele>397.0</ele>
      </trkpt>
      <trkpt lat="35.747693" lon="127.026273">
        <ele>399.8</ele>
      </trkpt>
      <trkpt lat="35.747742" lon="127.026199">
        <ele>402.6</ele>
      </trkpt>
      <trkpt lat="35.74773" lon="127.026106">
        <ele>405.4</ele>
      </trkpt>
      <trkpt lat="35.747752" lon="127.026023">
        <ele>408.1</ele>
      </trkpt>
      <trkpt lat="35.747733" lon="127.025953">
        <ele>410.7</ele>
      </trkpt>
      <trkpt lat="35.747738" lon="127.025785">
        <ele>413.4</ele>
      </trkpt>
      <trkpt lat="35.747754" lon="127.025712">
        <ele>416.0</ele>
      </trkpt>
      <trkpt lat="35.747821" lon="127.025691">
        <ele>418.5</ele>
      </trkpt>
      <trkpt lat="35.747801" lon="127.02563">
        <ele>421.0</ele>
      </trkpt>
      <trkpt lat="35.74785" lon="127.025502">
        <ele>423.4</ele>
      </trkpt>
      <trkpt lat="35.747845" lon="127.025417">
        <ele>425.8</ele>
      </trkpt>
      <trkpt lat="35.747867" lon="127.025323">
        <ele>428.1</ele>
      </trkpt>
      <trkpt lat="35.74786" lon="127.025214">
        <ele>430.4</ele>
      </trkpt>
      <trkpt lat="35.74783" lon="127.025128">
        <ele>432.5</ele>
      </trkpt>
      <trkpt lat="35.747833" lon="127.025033">
        <ele>434.6</ele>
      </trkpt>
      <trkpt lat="35.747798" lon="127.024709">
        <ele>436.6</ele>
      </trkpt>
      <trkpt lat="35.747802" lon="127.024607">
        <ele>438.5</ele>
      </trkpt>
      <trkpt lat="35.747773" lon="127.024407">
        <ele>440.2</ele>
      </trkpt>
      <trkpt lat="35.747815" lon="127.024297">
        <ele>441.9</ele>
      </trkpt>
      <trkpt lat="35.747819" lon="127.024194">
        <ele>443.4</ele>
      </trkpt>
      <trkpt lat="35.747843" lon="127.024107">
        <ele>444.8</ele>
      </trkpt>
      <trkpt lat="35.747881" lon="127.024018">
        <ele>446.0</ele>
      </trkpt>
      <trkpt lat="35.747881" lon="127.023929">
        <ele>447.1</ele>
      </trkpt>
      <trkpt lat="35.747818" lon="127.023742">
        <ele>448.0</ele>
      </trkpt>
      <trkpt lat="35.747854" lon="127.023621">
        <ele>448.7</ele>
      </trkpt>
      <trkpt lat="35.747837" lon="127.023501">
        <ele>449.3</ele>
      </trkpt>
      <trkpt lat="35.747741" lon="127.023331">
        <ele>449.7</ele>
      </trkpt>
      <trkpt lat="35.747724" lon="127.023228">
        <ele>449.9</ele>
      </trkpt>
      <trkpt lat="35.747628" lon="127.023108">
        <ele>450.0</ele>
      </trkpt>
      <trkpt lat="35.747522338097276" lon="127.0232391357422">
        <ele>449.9</ele>
      </trkpt>
      <trkpt lat="35.747628" lon="127.023108">
        <ele>449.6</ele>
      </trkpt>
      <trkpt lat="35.747469" lon="127.022911">
        <ele>449.1</ele>
      </trkpt>
      <trkpt lat="35.747449" lon="127.022826">
        <ele>448.4</ele>
      </trkpt>
      <trkpt lat="35.747394" lon="127.022713">
        <ele>447.6</ele>
      </trkpt>
      <trkpt lat="35.747317" lon="127.022684">
        <ele>446.5</ele>
      </trkpt>
      <trkpt lat="35.747198" lon="127.022538">
        <ele>445.3</ele>
      </trkpt>
      <trkpt lat="35.747155" lon="127.022436">
        <ele>443.9</ele>
      </trkpt>
      <trkpt lat="35.746371" lon="127.022575">
        <ele>442.4</ele>
      </trkpt>
      <trkpt lat="35.746155" lon="127.022553">
        <ele>440.6</ele>
      </trkpt>
      <trkpt lat="35.74607" lon="127.022594">
        <ele>438.7</ele>
      </trkpt>
      <trkpt lat="35.746008" lon="127.02266">
        <ele>436.7</ele>
      </trkpt>
      <trkpt lat="35.745936" lon="127.022682">
        <ele>434.5</ele>
      </trkpt>
      <trkpt lat="35.745828" lon="127.022634">
        <ele>432.2</ele>
      </trkpt>
      <trkpt lat="35.745724" lon="127.022428">
        <ele>429.7</ele>
      </trkpt>
      <trkpt lat="35.745627" lon="127.02236">
        <ele>427.1</ele>
      </trkpt>
      <trkpt lat="35.745562" lon="127.022289">
        <ele>424.4</ele>
      </trkpt>
      <trkpt lat="35.745545" lon="127.022058">
        <ele>421.6</ele>
      </trkpt>
      <trkpt lat="35.745476" lon="127.02199">
        <ele>418.6</ele>
      </trkpt>
      <trkpt lat="35.745463" lon="127.021879">
        <ele>415.6</ele>
      </trkpt>
      <trkpt lat="35.745394" lon="127.021835">
        <ele>412.5</ele>
      </trkpt>
      <trkpt lat="35.745298" lon="127.021812">
        <ele>409.3</ele>
      </trkpt>
      <trkpt lat="35.745297" lon="127.021727">
        <ele>406.0</ele>
      </trkpt>
      <trkpt lat="35.745159" lon="127.021465">
        <ele>402.7</ele>
      </trkpt>
      <trkpt lat="35.745161" lon="127.021317">
        <ele>399.3</ele>
      </trkpt>
      <trkpt lat="35.744941" lon="127.021062">
        <ele>395.9</ele>
      </trkpt>
      <trkpt lat="35.744838" lon="127.021049">
        <ele>392.6</ele>
      </trkpt>
      <trkpt lat="35.744761" lon="127.020993">
        <ele>389.1</ele>
      </trkpt>
      <trkpt lat="35.744524" lon="127.021019">
        <ele>385.8</ele>
      </trkpt>
      <trkpt lat="35.74445" lon="127.020992">
        <ele>382.4</ele>
      </trkpt>
      <trkpt lat="35.744393" lon="127.020936">
        <ele>379.0</ele>
      </trkpt>
      <trkpt lat="35.744304" lon="127.020891">
        <ele>375.6</ele>
      </trkpt>
      <trkpt lat="35.744113" lon="127.020717">
        <ele>372.2</ele>
      </trkpt>
      <trkpt lat="35.743883" lon="127.020606">
        <ele>368.8</ele>
      </trkpt>
      <trkpt lat="35.743631" lon="127.020527">
        <ele>365.5</ele>
      </trkpt>
      <trkpt lat="35.743528" lon="127.020521">
        <ele>362.2</ele>
      </trkpt>
      <trkpt lat="35.743339" lon="127.020619">
        <ele>359.0</ele>
      </trkpt>
      <trkpt lat="35.74318" lon="127.020621">
        <ele>355.8</ele>
      </trkpt>
      <trkpt lat="35.743076" lon="127.0207">
        <ele>352.7</ele>
      </trkpt>
      <trkpt lat="35.742881" lon="127.020775">
        <ele>349.7</ele>
      </trkpt>
      <trkpt lat="35.743007" lon="127.020841">
        <ele>346.7</ele>
      </trkpt>
      <trkpt lat="35.743069" lon="127.02082">
        <ele>343.7</ele>
      </trkpt>
      <trkpt lat="35.74306396543233" lon="127.02079296112062">
        <ele>340.8</ele>
      </trkpt>
      <trkpt lat="35.743069" lon="127.02082">
        <ele>337.9</ele>
      </trkpt>
      <trkpt lat="35.743007" lon="127.020841">
        <ele>335.0</ele>
      </trkpt>
      <trkpt lat="35.742881" lon="127.020775">
        <ele>332.2</ele>
      </trkpt>
      <trkpt lat="35.742761" lon="127.020692">
        <ele>329.4</ele>
      </trkpt>
      <trkpt lat="35.742673" lon="127.020599">
        <ele>326.6</ele>
      </trkpt>
      <trkpt lat="35.742536" lon="127.020436">
        <ele>323.8</ele>
      </trkpt>
      <trkpt lat="35.742417" lon="127.02032">
        <ele>321.1</ele>
      </trkpt>
      <trkpt lat="35.742232" lon="127.020037">
        <ele>318.4</ele>
      </trkpt>
      <trkpt lat="35.742169" lon="127.019926">
        <ele>315.7</ele>
      </trkpt>
      <trkpt lat="35.742072" lon="127.019804">
        <ele>313.0</ele>
      </trkpt>
      <trkpt lat="35.741946" lon="127.019689">
        <ele>310.4</ele>
      </trkpt>
      <trkpt lat="35.741559" lon="127.019529">
        <ele>307.7</ele>
      </trkpt>
      <trkpt lat="35.741411" lon="127.019456">
        <ele>305.1</ele>
      </trkpt>
      <trkpt lat="35.741292" lon="127.019433">
        <ele>302.4</ele>
      </trkpt>
      <trkpt lat="35.741201" lon="127.01943">
        <ele>299.8</ele>
      </trkpt>
      <trkpt lat="35.741029" lon="127.019452">
        <ele>297.1</ele>
      </trkpt>
      <trkpt lat="35.740711" lon="127.019471">
        <ele>294.4</ele>
      </trkpt>
      <trkpt lat="35.740483" lon="127.019416">
        <ele>291.8</ele>
      </trkpt>
      <trkpt lat="35.740415" lon="127.019364">
        <ele>289.1</ele>
      </trkpt>
      <trkpt lat="35.740317" lon="127.019248">
        <ele>286.5</ele>
      </trkpt>
      <trkpt lat="35.740147" lon="127.019215">
        <ele>283.9</ele>
      </trkpt>
      <trkpt lat="35.74005" lon="127.019034">
        <ele>281.3</ele>
      </trkpt>
      <trkpt lat="35.740043" lon="127.018937">
        <ele>278.8</ele>
      </trkpt>
      <trkpt lat="35.740014" lon="127.018848">
        <ele>276.3</ele>
      </trkpt>
      <trkpt lat="35.739946" lon="127.018732">
        <ele>273.8</ele>
      </trkpt>
      <trkpt lat="35.739797" lon="127.018623">
        <ele>271.3</ele>
      </trkpt>
      <trkpt lat="35.739681" lon="127.018473">
        <ele>268.9</ele>
      </trkpt>
      <trkpt lat="35.739585" lon="127.018462">
        <ele>266.5</ele>
      </trkpt>
      <trkpt lat="35.739487" lon="127.018481">
        <ele>264.1</ele>
      </trkpt>
      <trkpt lat="35.739409" lon="127.018438">
        <ele>261.8</ele>
      </trkpt>
      <trkpt lat="35.739315" lon="127.018352">
        <ele>259.6</ele>
      </trkpt>
      <trkpt lat="35.739208" lon="127.018301">
        <ele>257.4</ele>
      </trkpt>
      <trkpt lat="35.739057" lon="127.018303">
        <ele>255.3</ele>
      </trkpt>
      <trkpt lat="35.73905818329545" lon="127.01834678649904">
        <ele>253.3</ele>
      </trkpt>
      <trkpt lat="35.739057" lon="127.018303">
        <ele>251.3</ele>
      </trkpt>
      <trkpt lat="35.739041" lon="127.018304">
        <ele>249.5</ele>
      </trkpt>
      <trkpt lat="35.738969" lon="127.018355">
        <ele>247.7</ele>
      </trkpt>
      <trkpt lat="35.738907" lon="127.018371">
        <ele>245.9</ele>
      </trkpt>
      <trkpt lat="35.73877" lon="127.01841">
        <ele>244.3</ele>
      </trkpt>
      <trkpt lat="35.738495" lon="127.018363">
        <ele>242.8</ele>
      </trkpt>
      <trkpt lat="35.738292" lon="127.018349">
        <ele>241.3</ele>
      </trkpt>
      <trkpt lat="35.738197" lon="127.018282">
        <ele>239.9</ele>
      </trkpt>
      <trkpt lat="35.738114" lon="127.018268">
        <ele>238.6</ele>
      </trkpt>
      <trkpt lat="35.737925" lon="127.01838">
        <ele>237.4</ele>
      </trkpt>
      <trkpt lat="35.737794" lon="127.018417">
        <ele>236.4</ele>
      </trkpt>
      <trkpt lat="35.737589" lon="127.018396">
        <ele>235.4</ele>
      </trkpt>
      <trkpt lat="35.737203" lon="127.018324">
        <ele>234.5</ele>
      </trkpt>
      <trkpt lat="35.736983" lon="127.018312">
        <ele>233.7</ele>
      </trkpt>
      <trkpt lat="35.736785" lon="127.018351">
        <ele>233.0</ele>
      </trkpt>
      <trkpt lat="35.736217" lon="127.018387">
        <ele>232.4</ele>
      </trkpt>
      <trkpt lat="35.736008" lon="127.018421">
        <ele>231.9</ele>
      </trkpt>
      <trkpt lat="35.735446" lon="127.018341">
        <ele>231.4</ele>
      </trkpt>
      <trkpt lat="35.735364" lon="127.018342">
        <ele>231.0</ele>
      </trkpt>
      <trkpt lat="35.735289" lon="127.018368">
        <ele>230.7</ele>
      </trkpt>
      <trkpt lat="35.735141" lon="127.018332">
        <ele>230.4</ele>
      </trkpt>
      <trkpt lat="35.735057" lon="127.01834">
        <ele>230.2</ele>
      </trkpt>
      <trkpt lat="35.734975" lon="127.018312">
        <ele>230.0</ele>
      </trkpt>
      <trkpt lat="35.734799" lon="127.018313">
        <ele>229.9</ele>
      </trkpt>
      <trkpt lat="35.734682" lon="127.018268">
        <ele>229.8</ele>
      </trkpt>
      <trkpt lat="35.734554" lon="127.018165">
        <ele>229.7</ele>
      </trkpt>
      <trkpt lat="35.734162" lon="127.017962">
        <ele>229.7</ele>
      </trkpt>
      <trkpt lat="35.734092" lon="127.017908">
        <ele>229.7</ele>
      </trkpt>
      <trkpt lat="35.734012" lon="127.017809">
        <ele>229.7</ele>
      </trkpt>
      <trkpt lat="35.733572" lon="127.017695">
        <ele>229.7</ele>
      </trkpt>
      <trkpt lat="35.733503" lon="127.017669">
        <ele>229.7</ele>
      </trkpt>
      <trkpt lat="35.733424" lon="127.017604">
        <ele>229.7</ele>
      </trkpt>
      <trkpt lat="35.733264" lon="127.017564">
        <ele>229.7</ele>
      </trkpt>
      <trkpt lat="35.733092" lon="127.017594">
        <ele>229.6</ele>
      </trkpt>
      <trkpt lat="35.732915" lon="127.017528">
        <ele>229.5</ele>
      </trkpt>
      <trkpt lat="35.732827" lon="127.017543">
        <ele>229.4</ele>
      </trkpt>
      <trkpt lat="35.732729" lon="127.017507">
        <ele>229.3</ele>
      </trkpt>
      <trkpt lat="35.732653" lon="127.017509">
        <ele>229.0</ele>
      </trkpt>
      <trkpt lat="35.732471" lon="127.017428">
        <ele>228.8</ele>
      </trkpt>
      <trkpt lat="35.732398" lon="127.017429">
        <ele>228.4</ele>
      </trkpt>
      <trkpt lat="35.732305" lon="127.017395">
        <ele>228.0</ele>
      </trkpt>
      <trkpt lat="35.732128" lon="127.017377">
        <ele>227.6</ele>
      </trkpt>
      <trkpt lat="35.732006" lon="127.017297">
        <ele>227.1</ele>
      </trkpt>
      <trkpt lat="35.731627" lon="127.017133">
        <ele>226.6</ele>
      </trkpt>
      <trkpt lat="35.731453" lon="127.01703">
        <ele>226.0</ele>
      </trkpt>
      <trkpt lat="35.731376" lon="127.017004">
        <ele>225.4</ele>
      </trkpt>
      <trkpt lat="35.731193" lon="127.016884">
        <ele>224.7</ele>
      </trkpt>
      <trkpt lat="35.731034" lon="127.016729">
        <ele>224.1</ele>
      </trkpt>
      <trkpt lat="35.73096" lon="127.016679">
        <ele>223.3</ele>
      </trkpt>
      <trkpt lat="35.730788" lon="127.016599">
        <ele>222.6</ele>
      </trkpt>
      <trkpt lat="35.730564" lon="127.016525">
        <ele>221.7</ele>
      </trkpt>
      <trkpt lat="35.730285" lon="127.016351">
        <ele>220.9</ele>
      </trkpt>
      <trkpt lat="35.730171" lon="127.016307">
        <ele>220.0</ele>
      </trkpt>
      <trkpt lat="35.730026" lon="127.016199">
        <ele>219.1</ele>
      </trkpt>
      <trkpt lat="35.72997" lon="127.016137">
        <ele>218.1</ele>
      </trkpt>
      <trkpt lat="35.729952" lon="127.016045">
        <ele>217.1</ele>
      </trkpt>
      <trkpt lat="35.729873" lon="127.015836">
        <ele>216.1</ele>
      </trkpt>
      <trkpt lat="35.729776" lon="127.015679">
        <ele>215.0</ele>
      </trkpt>
      <trkpt lat="35.729623" lon="127.015476">
        <ele>213.9</ele>
      </trkpt>
      <trkpt lat="35.729286" lon="127.015263">
        <ele>212.8</ele>
      </trkpt>
      <trkpt lat="35.729202" lon="127.015184">
        <ele>211.7</ele>
      </trkpt>
      <trkpt lat="35.729105" lon="127.01514">
        <ele>210.5</ele>
      </trkpt>
      <trkpt lat="35.728938" lon="127.015027">
        <ele>209.4</ele>
      </trkpt>
      <trkpt lat="35.728827" lon="127.015023">
        <ele>208.3</ele>
      </trkpt>
      <trkpt lat="35.728723" lon="127.014985">
        <ele>207.1</ele>
      </trkpt>
      <trkpt lat="35.728612" lon="127.014924">
        <ele>206.0</ele>
      </trkpt>
      <trkpt lat="35.728412" lon="127.014767">
        <ele>204.9</ele>
      </trkpt>
      <trkpt lat="35.728305" lon="127.01473">
        <ele>203.8</ele>
      </trkpt>
      <trkpt lat="35.728011" lon="127.014569">
        <ele>202.7</ele>
      </trkpt>
      <trkpt lat="35.727844" lon="127.014528">
        <ele>201.7</ele>
      </trkpt>
      <trkpt lat="35.727758" lon="127.014544">
        <ele>200.7</ele>
      </trkpt>
      <trkpt lat="35.727691" lon="127.014576">
        <ele>199.7</ele>
      </trkpt>
      <trkpt lat="35.727374" lon="127.014827">
        <ele>198.8</ele>
      </trkpt>
      <trkpt lat="35.727302" lon="127.014853">
        <ele>197.8</ele>
      </trkpt>
      <trkpt lat="35.727224" lon="127.014898">
        <ele>196.8</ele>
      </trkpt>
      <trkpt lat="35.72721382257843" lon="127.01487064361574">
        <ele>195.8</ele>
      </trkpt>
      <trkpt lat="35.727224" lon="127.014898">
        <ele>194.8</ele>
      </trkpt>
      <trkpt lat="35.726968" lon="127.015048">
        <ele>193.7</ele>
      </trkpt>
      <trkpt lat="35.726842" lon="127.014911">
        <ele>192.6</ele>
      </trkpt>
      <trkpt lat="35.726561" lon="127.014746">
        <ele>191.5</ele>
      </trkpt>
      <trkpt lat="35.726433" lon="127.014699">
        <ele>190.4</ele>
      </trkpt>
      <trkpt lat="35.726333" lon="127.014694">
        <ele>189.3</ele>
      </trkpt>
      <trkpt lat="35.726261" lon="127.01463">
        <ele>188.1</ele>
      </trkpt>
      <trkpt lat="35.726173" lon="127.014585">
        <ele>186.9</ele>
      </trkpt>
      <trkpt lat="35.725962" lon="127.014496">
        <ele>185.7</ele>
      </trkpt>
      <trkpt lat="35.725781" lon="127.014453">
        <ele>184.4</ele>
      </trkpt>
      <trkpt lat="35.725617" lon="127.014331">
        <ele>183.1</ele>
      </trkpt>
      <trkpt lat="35.725452" lon="127.014162">
        <ele>181.8</ele>
      </trkpt>
      <trkpt lat="35.725333" lon="127.014109">
        <ele>180.5</ele>
      </trkpt>
      <trkpt lat="35.72529" lon="127.014028">
        <ele>179.1</ele>
      </trkpt>
      <trkpt lat="35.72526" lon="127.013909">
        <ele>177.7</ele>
      </trkpt>
      <trkpt lat="35.725207" lon="127.013824">
        <ele>176.2</ele>
      </trkpt>
      <trkpt lat="35.725145" lon="127.013775">
        <ele>174.7</ele>
      </trkpt>
      <trkpt lat="35.725097" lon="127.01371">
        <ele>173.2</ele>
      </trkpt>
      <trkpt lat="35.724961" lon="127.013495">
        <ele>171.5</ele>
      </trkpt>
      <trkpt lat="35.724629" lon="127.01323">
        <ele>169.8</ele>
      </trkpt>
      <trkpt lat="35.724566" lon="127.013186">
        <ele>168.1</ele>
      </trkpt>
      <trkpt lat="35.724467" lon="127.013154">
        <ele>166.3</ele>
      </trkpt>
      <trkpt lat="35.724407" lon="127.013093">
        <ele>164.4</ele>
      </trkpt>
      <trkpt lat="35.724396" lon="127.01293">
        <ele>162.4</ele>
      </trkpt>
      <trkpt lat="35.724408" lon="127.012823">
        <ele>160.3</ele>
      </trkpt>
      <trkpt lat="35.724394" lon="127.012711">
        <ele>158.2</ele>
      </trkpt>
      <trkpt lat="35.724219" lon="127.012532">
        <ele>155.9</ele>
      </trkpt>
      <trkpt lat="35.724139" lon="127.012471">
        <ele>153.6</ele>
      </trkpt>
      <trkpt lat="35.723967" lon="127.012238">
        <ele>151.1</ele>
      </trkpt>
      <trkpt lat="35.723918" lon="127.01212">
        <ele>148.6</ele>
      </trkpt>
      <trkpt lat="35.723873" lon="127.011954">
        <ele>146.0</ele>
      </trkpt>
      <trkpt lat="35.723848" lon="127.011733">
        <ele>143.3</ele>
      </trkpt>
      <trkpt lat="35.723789" lon="127.011488">
        <ele>140.6</ele>
      </trkpt>
      <trkpt lat="35.723758" lon="127.011267">
        <ele>137.8</ele>
      </trkpt>
      <trkpt lat="35.723597" lon="127.011077">
        <ele>135.0</ele>
      </trkpt>
      <trkpt lat="35.723511" lon="127.011018">
        <ele>132.2</ele>
      </trkpt>
      <trkpt lat="35.723244" lon="127.01075">
        <ele>129.3</ele>
      </trkpt>
      <trkpt lat="35.723015" lon="127.01062">
        <ele>126.4</ele>
      </trkpt>
      <trkpt lat="35.722938" lon="127.010532">
        <ele>123.5</ele>
      </trkpt>
      <trkpt lat="35.722788" lon="127.010403">
        <ele>120.6</ele>
      </trkpt>
      <trkpt lat="35.722555" lon="127.01024">
        <ele>117.7</ele>
      </trkpt>
      <trkpt lat="35.722365" lon="127.009864">
        <ele>114.8</ele>
      </trkpt>
      <trkpt lat="35.722299" lon="127.009914">
        <ele>111.9</ele>
      </trkpt>
      <trkpt lat="35.722258" lon="127.010088">
        <ele>109.0</ele>
      </trkpt>
      <trkpt lat="35.72224" lon="127.010115">
        <ele>106.2</ele>
      </trkpt>
      <trkpt lat="35.7222316975731" lon="127.01010704040529">
        <ele>103.4</ele>
      </trkpt>
      <trkpt lat="35.72224" lon="127.010115">
        <ele>100.6</ele>
      </trkpt>
      <trkpt lat="35.72206" lon="127.010395">
        <ele>97.9</ele>
      </trkpt>
      <trkpt lat="35.721904" lon="127.010459">
        <ele>95.2</ele>
      </trkpt>
      <trkpt lat="35.721725" lon="127.01065">
        <ele>92.6</ele>
      </trkpt>
      <trkpt lat="35.721727" lon="127.010706">
        <ele>90.0</ele>
      </trkpt>
      <trkpt lat="35.72172649966697" lon="127.01070785522462">
        <ele>87.5</ele>
      </trkpt>
      <trkpt lat="35.72139550619839" lon="127.01081514358522">
        <ele>85.2</ele>
      </trkpt>
      <trkpt lat="35.721081932170264" lon="127.01062202453615">
        <ele>82.8</ele>
      </trkpt>
      <trkpt lat="35.720644" lon="127.010719">
        <ele>80.6</ele>
      </trkpt>
      <trkpt lat="35.720239" lon="127.011046">
        <ele>78.5</ele>
      </trkpt>
      <trkpt lat="35.720094" lon="127.011154">
        <ele>76.6</ele>
      </trkpt>
      <trkpt lat="35.720054097536824" lon="127.01107263565065">
        <ele>74.8</ele>
      </trkpt>
      <trkpt lat="35.720094" lon="127.011154">
        <ele>73.1</ele>
      </trkpt>
      <trkpt lat="35.719083" lon="127.011909">
        <ele>71.6</ele>
      </trkpt>
      <trkpt lat="35.718882" lon="127.011922">
        <ele>70.2</ele>
      </trkpt>
      <trkpt lat="35.718817" lon="127.012045">
        <ele>68.9</ele>
      </trkpt>
      <trkpt lat="35.717697" lon="127.013276">
        <ele>67.8</ele>
      </trkpt>
      <trkpt lat="35.717692" lon="127.013305">
        <ele>66.7</ele>
      </trkpt>
      <trkpt lat="35.717684801094364" lon="127.01330423355104">
        <ele>65.8</ele>
      </trkpt>
      <trkpt lat="35.717692" lon="127.013305">
        <ele>64.9</ele>
      </trkpt>
      <trkpt lat="35.717668" lon="127.013449">
        <ele>64.2</ele>
      </trkpt>
      <trkpt lat="35.717728" lon="127.013607">
        <ele>63.5</ele>
      </trkpt>
      <trkpt lat="35.717982" lon="127.014199">
        <ele>63.0</ele>
      </trkpt>
      <trkpt lat="35.718178" lon="127.014859">
        <ele>62.4</ele>
      </trkpt>
      <trkpt lat="35.718331" lon="127.015589">
        <ele>62.0</ele>
      </trkpt>
      <trkpt lat="35.718456" lon="127.015995">
        <ele>61.6</ele>
      </trkpt>
      <trkpt lat="35.718905" lon="127.016813">
        <ele>61.2</ele>
      </trkpt>
      <trkpt lat="35.719138" lon="127.017186">
        <ele>60.8</ele>
      </trkpt>
      <trkpt lat="35.71924" lon="127.017375">
        <ele>60.5</ele>
      </trkpt>
      <trkpt lat="35.719259" lon="127.017665">
        <ele>60.2</ele>
      </trkpt>
      <trkpt lat="35.71924" lon="127.017789">
        <ele>60.0</ele>
      </trkpt>
      <trkpt lat="35.718993" lon="127.018722">
        <ele>59.8</ele>
      </trkpt>
      <trkpt lat="35.718753" lon="127.019241">
        <ele>59.6</ele>
      </trkpt>
      <trkpt lat="35.718719" lon="127.019569">
        <ele>59.5</ele>
      </trkpt>
      <trkpt lat="35.718818" lon="127.019824">
        <ele>59.4</ele>
      </trkpt>
      <trkpt lat="35.718817194212754" lon="127.01982736587526">
        <ele>59.4</ele>
      </trkpt>
      <trkpt lat="35.718719" lon="127.019569">
        <ele>59.3</ele>
      </trkpt>
      <trkpt lat="35.719336" lon="127.021156">
        <ele>59.3</ele>
      </trkpt>
      <trkpt lat="35.71964" lon="127.021751">
        <ele>59.3</ele>
      </trkpt>
      <trkpt lat="35.720401" lon="127.022937">
        <ele>59.2</ele>
      </trkpt>
      <trkpt lat="35.720506" lon="127.023177">
        <ele>59.2</ele>
      </trkpt>
      <trkpt lat="35.72053" lon="127.023257">
        <ele>59.1</ele>
      </trkpt>
      <trkpt lat="35.720748" lon="127.023338">
        <ele>59.1</ele>
      </trkpt>
      <trkpt lat="35.721075" lon="127.023515">
        <ele>59.0</ele>
      </trkpt>
      <trkpt lat="35.721135" lon="127.023633">
        <ele>59.0</ele>
      </trkpt>
      <trkpt lat="35.721444" lon="127.023928">
        <ele>58.9</ele>
      </trkpt>
      <trkpt lat="35.721557" lon="127.024">
        <ele>58.8</ele>
      </trkpt>
      <trkpt lat="35.721534872036976" lon="127.02405452728273">
        <ele>58.7</ele>
      </trkpt>
      <trkpt lat="35.721557" lon="127.024">
        <ele>58.6</ele>
      </trkpt>
      <trkpt lat="35.721444" lon="127.023928">
        <ele>58.5</ele>
      </trkpt>
      <trkpt lat="35.721135" lon="127.023633">
        <ele>58.4</ele>
      </trkpt>
      <trkpt lat="35.721075" lon="127.023515">
        <ele>58.3</ele>
      </trkpt>
      <trkpt lat="35.720748" lon="127.023338">
        <ele>58.2</ele>
      </trkpt>
      <trkpt lat="35.72053" lon="127.023257">
        <ele>58.1</ele>
      </trkpt>
      <trkpt lat="35.72066" lon="127.023723">
        <ele>58.1</ele>
      </trkpt>
      <trkpt lat="35.720788" lon="127.024126">
        <ele>58.0</ele>
      </trkpt>
      <trkpt lat="35.720849" lon="127.024258">
        <ele>58.0</ele>
      </trkpt>
      <trkpt lat="35.721659" lon="127.02428">
        <ele>58.0</ele>
      </trkpt>
      <trkpt lat="35.722679" lon="127.024033">
        <ele>58.0</ele>
      </trkpt>
      <trkpt lat="35.723232" lon="127.023931">
        <ele>58.0</ele>
      </trkpt>
      <trkpt lat="35.723388" lon="127.023856">
        <ele>58.0</ele>
      </trkpt>
      <trkpt lat="35.72358" lon="127.023695">
        <ele>58.0</ele>
      </trkpt>
      <trkpt lat="35.723785" lon="127.023556">
        <ele>58.0</ele>
      </trkpt>
      <trkpt lat="35.723968" lon="127.023459">
        <ele>58.0</ele>
      </trkpt>
      <trkpt lat="35.724076" lon="127.023421">
        <ele>58.0</ele>
      </trkpt>
      <trkpt lat="35.724172" lon="127.023357">
        <ele>57.8</ele>
      </trkpt>
      <trkpt lat="35.724451" lon="127.0231">
        <ele>57.6</ele>
      </trkpt>
      <trkpt lat="35.724534" lon="127.023041">
        <ele>57.4</ele>
      </trkpt>
      <trkpt lat="35.724808" lon="127.022998">
        <ele>57.1</ele>
      </trkpt>
      <trkpt lat="35.725827" lon="127.022939">
        <ele>56.8</ele>
      </trkpt>
      <trkpt lat="35.726132" lon="127.022949">
        <ele>56.5</ele>
      </trkpt>
      <trkpt lat="35.72631" lon="127.022982">
        <ele>56.3</ele>
      </trkpt>
      <trkpt lat="35.72658" lon="127.023014">
        <ele>56.1</ele>
      </trkpt>
      <trkpt lat="35.726968" lon="127.022613">
        <ele>55.9</ele>
      </trkpt>
      <trkpt lat="35.727055" lon="127.022597">
        <ele>55.7</ele>
      </trkpt>
      <trkpt lat="35.727119" lon="127.022615">
        <ele>55.5</ele>
      </trkpt>
      <trkpt lat="35.727202" lon="127.022235">
        <ele>55.3</ele>
      </trkpt>
      <trkpt lat="35.727115" lon="127.022206">
        <ele>55.2</ele>
      </trkpt>
      <trkpt lat="35.727146" lon="127.022142">
        <ele>55.1</ele>
      </trkpt>
      <trkpt lat="35.7270918861757" lon="127.02210187911989">
        <ele>55.0</ele>
      </trkpt>
      <trkpt lat="35.727146" lon="127.022142">
        <ele>54.9</ele>
      </trkpt>
      <trkpt lat="35.727241" lon="127.021949">
        <ele>54.9</ele>
      </trkpt>
      <trkpt lat="35.727325" lon="127.022007">
        <ele>54.9</ele>
      </trkpt>
      <trkpt lat="35.72753" lon="127.022168">
        <ele>54.9</ele>
      </trkpt>
      <trkpt lat="35.727896" lon="127.022404">
        <ele>54.9</ele>
      </trkpt>
      <trkpt lat="35.728013" lon="127.022162">
        <ele>55.0</ele>
      </trkpt>
      <trkpt lat="35.728218" lon="127.022366">
        <ele>55.1</ele>
      </trkpt>
      <trkpt lat="35.728462" lon="127.022741">
        <ele>55.3</ele>
      </trkpt>
      <trkpt lat="35.728662" lon="127.022892">
        <ele>55.5</ele>
      </trkpt>
      <trkpt lat="35.729025" lon="127.02309">
        <ele>55.7</ele>
      </trkpt>
      <trkpt lat="35.72904284622013" lon="127.02304601669313">
        <ele>56.0</ele>
      </trkpt>
      <trkpt lat="35.73069764094426" lon="127.02437639236452">
        <ele>56.2</ele>
      </trkpt>
      <trkpt lat="35.730704" lon="127.024458">
        <ele>56.5</ele>
      </trkpt>
      <trkpt lat="35.730726" lon="127.024456">
        <ele>57.0</ele>
      </trkpt>
      <trkpt lat="35.730674" lon="127.02472">
        <ele>57.5</ele>
      </trkpt>
      <trkpt lat="35.730504" lon="127.025245">
        <ele>58.3</ele>
      </trkpt>
      <trkpt lat="35.730358" lon="127.025613">
        <ele>59.2</ele>
      </trkpt>
      <trkpt lat="35.73036" lon="127.025749">
        <ele>60.3</ele>
      </trkpt>
      <trkpt lat="35.730366684749875" lon="127.02574968338014">
        <ele>61.6</ele>
      </trkpt>
      <trkpt lat="35.73036" lon="127.025749">
        <ele>63.0</ele>
      </trkpt>
      <trkpt lat="35.730373" lon="127.026313">
        <ele>64.4</ele>
      </trkpt>
      <trkpt lat="35.730343" lon="127.026474">
        <ele>65.9</ele>
      </trkpt>
      <trkpt lat="35.730232" lon="127.026841">
        <ele>67.4</ele>
      </trkpt>
      <trkpt lat="35.730238" lon="127.02701">
        <ele>68.9</ele>
      </trkpt>
      <trkpt lat="35.730356" lon="127.027225">
        <ele>70.4</ele>
      </trkpt>
      <trkpt lat="35.730471" lon="127.027512">
        <ele>72.0</ele>
      </trkpt>
      <trkpt lat="35.730556" lon="127.027761">
        <ele>73.6</ele>
      </trkpt>
      <trkpt lat="35.730628" lon="127.027815">
        <ele>75.2</ele>
      </trkpt>
      <trkpt lat="35.730822" lon="127.02782">
        <ele>76.8</ele>
      </trkpt>
      <trkpt lat="35.730928" lon="127.027984">
        <ele>78.4</ele>
      </trkpt>
      <trkpt lat="35.730889246533465" lon="127.02802419662477">
        <ele>80.0</ele>
      </trkpt>
      <trkpt lat="35.7309589211789" lon="127.02961206436159">
        <ele>81.6</ele>
      </trkpt>
      <trkpt lat="35.731620827270476" lon="127.03004121780397">
        <ele>83.2</ele>
      </trkpt>
      <trkpt lat="35.731673" lon="127.030091">
        <ele>84.9</ele>
      </trkpt>
      <trkpt lat="35.731328" lon="127.030625">
        <ele>86.5</ele>
      </trkpt>
      <trkpt lat="35.731319" lon="127.030683">
        <ele>88.1</ele>
      </trkpt>
      <trkpt lat="35.731321" lon="127.030691">
        <ele>89.7</ele>
      </trkpt>
      <trkpt lat="35.731342130639256" lon="127.03068494796754">
        <ele>91.2</ele>
      </trkpt>
      <trkpt lat="35.731321" lon="127.030691">
        <ele>92.8</ele>
      </trkpt>
      <trkpt lat="35.731319" lon="127.030683">
        <ele>94.3</ele>
      </trkpt>
      <trkpt lat="35.731226" lon="127.030716">
        <ele>95.8</ele>
      </trkpt>
      <trkpt lat="35.731154" lon="127.030745">
        <ele>97.3</ele>
      </trkpt>
      <trkpt lat="35.731136" lon="127.030754">
        <ele>98.7</ele>
      </trkpt>
      <trkpt lat="35.731275" lon="127.031228">
        <ele>100.1</ele>
      </trkpt>
      <trkpt lat="35.731335" lon="127.031522">
        <ele>101.5</ele>
      </trkpt>
      <trkpt lat="35.731342130639256" lon="127.03152179718019">
        <ele>102.7</ele>
      </trkpt>
      <trkpt lat="35.731335" lon="127.031522">
        <ele>103.9</ele>
      </trkpt>
      <trkpt lat="35.731339" lon="127.031541">
        <ele>104.9</ele>
      </trkpt>
      <trkpt lat="35.731524" lon="127.031492">
        <ele>105.8</ele>
      </trkpt>
      <trkpt lat="35.731598" lon="127.031509">
        <ele>106.5</ele>
      </trkpt>
      <trkpt lat="35.731669" lon="127.031581">
        <ele>107.2</ele>
      </trkpt>
      <trkpt lat="35.731859" lon="127.031735">
        <ele>107.9</ele>
      </trkpt>
      <trkpt lat="35.732274" lon="127.031831">
        <ele>108.5</ele>
      </trkpt>
      <trkpt lat="35.732414" lon="127.031887">
        <ele>109.0</ele>
      </trkpt>
      <trkpt lat="35.732506" lon="127.031958">
        <ele>109.5</ele>
      </trkpt>
      <trkpt lat="35.732603" lon="127.031992">
        <ele>110.0</ele>
      </trkpt>
      <trkpt lat="35.733201" lon="127.032244">
        <ele>110.4</ele>
      </trkpt>
      <trkpt lat="35.733353" lon="127.032369">
        <ele>110.8</ele>
      </trkpt>
      <trkpt lat="35.733511" lon="127.032367">
        <ele>111.1</ele>
      </trkpt>
      <trkpt lat="35.733749" lon="127.032274">
        <ele>111.4</ele>
      </trkpt>
      <trkpt lat="35.733874" lon="127.032261">
        <ele>111.7</ele>
      </trkpt>
      <trkpt lat="35.734094" lon="127.032311">
        <ele>112.0</ele>
      </trkpt>
      <trkpt lat="35.734256" lon="127.032423">
        <ele>112.2</ele>
      </trkpt>
      <trkpt lat="35.734337" lon="127.03274">
        <ele>112.5</ele>
      </trkpt>
      <trkpt lat="35.734374" lon="127.032803">
        <ele>112.7</ele>
      </trkpt>
      <trkpt lat="35.734508" lon="127.032854">
        <ele>112.8</ele>
      </trkpt>
      <trkpt lat="35.734578" lon="127.032928">
        <ele>113.0</ele>
      </trkpt>
      <trkpt lat="35.734583" lon="127.03302">
        <ele>113.1</ele>
      </trkpt>
      <trkpt lat="35.734519" lon="127.03321">
        <ele>113.2</ele>
      </trkpt>
      <trkpt lat="35.734513" lon="127.033335">
        <ele>113.3</ele>
      </trkpt>
      <trkpt lat="35.734539" lon="127.033381">
        <ele>113.4</ele>
      </trkpt>
      <trkpt lat="35.73458191874738" lon="127.03334569931032">
        <ele>113.5</ele>
      </trkpt>
      <trkpt lat="35.734539" lon="127.033381">
        <ele>113.5</ele>
      </trkpt>
      <trkpt lat="35.734562" lon="127.033422">
        <ele>113.5</ele>
      </trkpt>
      <trkpt lat="35.734675" lon="127.033474">
        <ele>113.5</ele>
      </trkpt>
      <trkpt lat="35.734744" lon="127.033571">
        <ele>113.6</ele>
      </trkpt>
      <trkpt lat="35.734787" lon="127.033771">
        <ele>113.6</ele>
      </trkpt>
      <trkpt lat="35.734821" lon="127.033813">
        <ele>113.6</ele>
      </trkpt>
      <trkpt lat="35.734932" lon="127.033806">
        <ele>113.7</ele>
      </trkpt>
      <trkpt lat="35.73504" lon="127.033831">
        <ele>113.7</ele>
      </trkpt>
      <trkpt lat="35.735084" lon="127.033905">
        <ele>113.7</ele>
      </trkpt>
      <trkpt lat="35.73512" lon="127.034051">
        <ele>113.8</ele>
      </trkpt>
      <trkpt lat="35.735144" lon="127.034094">
        <ele>113.8</ele>
      </trkpt>
      <trkpt lat="35.735297" lon="127.034148">
        <ele>113.9</ele>
      </trkpt>
      <trkpt lat="35.735581" lon="127.034572">
        <ele>113.9</ele>
      </trkpt>
      <trkpt lat="35.735613" lon="127.034652">
        <ele>114.0</ele>
      </trkpt>
      <trkpt lat="35.735598" lon="127.034716">
        <ele>114.1</ele>
      </trkpt>
      <trkpt lat="35.735407" lon="127.034922">
        <ele>114.3</ele>
      </trkpt>
      <trkpt lat="35.735387" lon="127.035006">
        <ele>114.4</ele>
      </trkpt>
      <trkpt lat="35.735439" lon="127.03521">
        <ele>114.6</ele>
      </trkpt>
      <trkpt lat="35.735569" lon="127.035453">
        <ele>114.7</ele>
      </trkpt>
      <trkpt lat="35.735883" lon="127.035782">
        <ele>114.9</ele>
      </trkpt>
      <trkpt lat="35.736175" lon="127.035918">
        <ele>115.0</ele>
      </trkpt>
      <trkpt lat="35.736295" lon="127.035995">
        <ele>115.1</ele>
      </trkpt>
      <trkpt lat="35.736407" lon="127.036115">
        <ele>115.2</ele>
      </trkpt>
      <trkpt lat="35.736456" lon="127.036225">
        <ele>115.3</ele>
      </trkpt>
      <trkpt lat="35.736464" lon="127.036384">
        <ele>115.5</ele>
      </trkpt>
      <trkpt lat="35.736429" lon="127.036583">
        <ele>115.6</ele>
      </trkpt>
      <trkpt lat="35.7363" lon="127.036732">
        <ele>115.7</ele>
      </trkpt>
      <trkpt lat="35.736197" lon="127.036828">
        <ele>115.8</ele>
      </trkpt>
      <trkpt lat="35.735996" lon="127.037205">
        <ele>115.9</ele>
      </trkpt>
      <trkpt lat="35.735844" lon="127.037783">
        <ele>116.0</ele>
      </trkpt>
      <trkpt lat="35.735867" lon="127.03786">
        <ele>116.1</ele>
      </trkpt>
      <trkpt lat="35.735888247632865" lon="127.03785181045534">
        <ele>116.2</ele>
      </trkpt>
      <trkpt lat="35.735867" lon="127.03786">
        <ele>116.2</ele>
      </trkpt>
      <trkpt lat="35.73594" lon="127.0381">
        <ele>116.3</ele>
      </trkpt>
      <trkpt lat="35.736114" lon="127.038402">
        <ele>116.3</ele>
      </trkpt>
      <trkpt lat="35.736717" lon="127.03882">
        <ele>116.3</ele>
      </trkpt>
      <trkpt lat="35.73677" lon="127.038942">
        <ele>116.3</ele>
      </trkpt>
      <trkpt lat="35.736826" lon="127.039199">
        <ele>116.3</ele>
      </trkpt>
      <trkpt lat="35.736912" lon="127.039362">
        <ele>116.4</ele>
      </trkpt>
      <trkpt lat="35.736957" lon="127.039433">
        <ele>116.4</ele>
      </trkpt>
      <trkpt lat="35.736978" lon="127.039467">
        <ele>116.3</ele>
      </trkpt>
      <trkpt lat="35.73698554733565" lon="127.03946113586427">
        <ele>116.3</ele>
      </trkpt>
      <trkpt lat="35.736978" lon="127.039467">
        <ele>116.3</ele>
      </trkpt>
      <trkpt lat="35.73702" lon="127.039537">
        <ele>116.2</ele>
      </trkpt>
      <trkpt lat="35.737138" lon="127.039318">
        <ele>116.2</ele>
      </trkpt>
      <trkpt lat="35.737184" lon="127.039113">
        <ele>116.0</ele>
      </trkpt>
      <trkpt lat="35.737162" lon="127.038921">
        <ele>115.9</ele>
      </trkpt>
      <trkpt lat="35.737112" lon="127.038704">
        <ele>115.7</ele>
      </trkpt>
      <trkpt lat="35.736862" lon="127.038304">
        <ele>115.6</ele>
      </trkpt>
      <trkpt lat="35.736645" lon="127.03802">
        <ele>115.4</ele>
      </trkpt>
      <trkpt lat="35.736638" lon="127.037963">
        <ele>115.2</ele>
      </trkpt>
      <trkpt lat="35.7366720346778" lon="127.03795909881593">
        <ele>115.0</ele>
      </trkpt>
      <trkpt lat="35.736638" lon="127.037963">
        <ele>114.9</ele>
      </trkpt>
      <trkpt lat="35.736631" lon="127.037895">
        <ele>114.7</ele>
      </trkpt>
      <trkpt lat="35.736664" lon="127.037771">
        <ele>114.6</ele>
      </trkpt>
      <trkpt lat="35.737167" lon="127.037282">
        <ele>114.4</ele>
      </trkpt>
      <trkpt lat="35.73735" lon="127.036959">
        <ele>114.2</ele>
      </trkpt>
      <trkpt lat="35.737473" lon="127.036837">
        <ele>114.1</ele>
      </trkpt>
      <trkpt lat="35.737545" lon="127.036736">
        <ele>113.9</ele>
      </trkpt>
      <trkpt lat="35.737586" lon="127.036603">
        <ele>113.8</ele>
      </trkpt>
      <trkpt lat="35.737595" lon="127.036485">
        <ele>113.6</ele>
      </trkpt>
      <trkpt lat="35.737492" lon="127.036173">
        <ele>113.5</ele>
      </trkpt>
      <trkpt lat="35.737478" lon="127.036034">
        <ele>113.4</ele>
      </trkpt>
      <trkpt lat="35.737529" lon="127.035799">
        <ele>113.3</ele>
      </trkpt>
      <trkpt lat="35.73750806568897" lon="127.0357918739319">
        <ele>113.3</ele>
      </trkpt>
      <trkpt lat="35.737529" lon="127.035799">
        <ele>113.2</ele>
      </trkpt>
      <trkpt lat="35.737559" lon="127.035667">
        <ele>113.1</ele>
      </trkpt>
      <trkpt lat="35.737557" lon="127.035515">
        <ele>113.0</ele>
      </trkpt>
      <trkpt lat="35.737473" lon="127.035293">
        <ele>113.0</ele>
      </trkpt>
      <trkpt lat="35.73741" lon="127.035065">
        <ele>112.9</ele>
      </trkpt>
      <trkpt lat="35.737129" lon="127.034676">
        <ele>112.8</ele>
      </trkpt>
      <trkpt lat="35.737024" lon="127.034556">
        <ele>112.8</ele>
      </trkpt>
      <trkpt lat="35.736862" lon="127.034197">
        <ele>112.7</ele>
      </trkpt>
      <trkpt lat="35.736758" lon="127.033838">
        <ele>112.6</ele>
      </trkpt>
      <trkpt lat="35.736575" lon="127.033339">
        <ele>112.6</ele>
      </trkpt>
      <trkpt lat="35.736444" lon="127.033151">
        <ele>112.5</ele>
      </trkpt>
      <trkpt lat="35.7364" lon="127.033049">
        <ele>112.5</ele>
      </trkpt>
      <trkpt lat="35.736392" lon="127.03298">
        <ele>112.4</ele>
      </trkpt>
      <trkpt lat="35.736488" lon="127.03261">
        <ele>112.4</ele>
      </trkpt>
      <trkpt lat="35.736483" lon="127.032502">
        <ele>112.3</ele>
      </trkpt>
      <trkpt lat="35.73644" lon="127.032363">
        <ele>112.3</ele>
      </trkpt>
      <trkpt lat="35.73637" lon="127.032293">
        <ele>112.2</ele>
      </trkpt>
      <trkpt lat="35.736296" lon="127.03225">
        <ele>112.0</ele>
      </trkpt>
      <trkpt lat="35.736069" lon="127.032218">
        <ele>111.9</ele>
      </trkpt>
      <trkpt lat="35.736013" lon="127.032197">
        <ele>111.6</ele>
      </trkpt>
      <trkpt lat="35.735961" lon="127.032154">
        <ele>111.4</ele>
      </trkpt>
      <trkpt lat="35.735856" lon="127.031977">
        <ele>111.1</ele>
      </trkpt>
      <trkpt lat="35.735686" lon="127.031558">
        <ele>110.8</ele>
      </trkpt>
      <trkpt lat="35.735538" lon="127.031328">
        <ele>110.5</ele>
      </trkpt>
      <trkpt lat="35.735464" lon="127.03122">
        <ele>110.1</ele>
      </trkpt>
      <trkpt lat="35.734654" lon="127.03048">
        <ele>109.6</ele>
      </trkpt>
      <trkpt lat="35.734423" lon="127.030319">
        <ele>109.2</ele>
      </trkpt>
      <trkpt lat="35.734018" lon="127.030067">
        <ele>108.7</ele>
      </trkpt>
      <trkpt lat="35.733866" lon="127.030008">
        <ele>108.1</ele>
      </trkpt>
      <trkpt lat="35.733753" lon="127.029997">
        <ele>107.5</ele>
      </trkpt>
      <trkpt lat="35.733687" lon="127.029965">
        <ele>107.0</ele>
      </trkpt>
      <trkpt lat="35.733365" lon="127.029659">
        <ele>106.4</ele>
      </trkpt>
      <trkpt lat="35.733243" lon="127.029574">
        <ele>105.7</ele>
      </trkpt>
      <trkpt lat="35.733113" lon="127.02952">
        <ele>105.1</ele>
      </trkpt>
      <trkpt lat="35.732821" lon="127.029461">
        <ele>104.5</ele>
      </trkpt>
      <trkpt lat="35.73273" lon="127.029391">
        <ele>103.8</ele>
      </trkpt>
      <trkpt lat="35.732718185775795" lon="127.02941894531251">
        <ele>103.2</ele>
      </trkpt>
      <trkpt lat="35.73273" lon="127.029391">
        <ele>102.5</ele>
      </trkpt>
      <trkpt lat="35.732599" lon="127.029289">
        <ele>101.9</ele>
      </trkpt>
      <trkpt lat="35.732311" lon="127.028876">
        <ele>101.3</ele>
      </trkpt>
      <trkpt lat="35.731967" lon="127.028517">
        <ele>100.6</ele>
      </trkpt>
      <trkpt lat="35.731754" lon="127.028201">
        <ele>99.9</ele>
      </trkpt>
      <trkpt lat="35.731558" lon="127.027777">
        <ele>99.3</ele>
      </trkpt>
      <trkpt lat="35.731497" lon="127.027519">
        <ele>98.6</ele>
      </trkpt>
      <trkpt lat="35.73148" lon="127.027251">
        <ele>98.0</ele>
      </trkpt>
      <trkpt lat="35.731523" lon="127.026248">
        <ele>97.4</ele>
      </trkpt>
      <trkpt lat="35.731549" lon="127.02606">
        <ele>96.9</ele>
      </trkpt>
      <trkpt lat="35.731606" lon="127.025857">
        <ele>96.4</ele>
      </trkpt>
      <trkpt lat="35.731815" lon="127.025417">
        <ele>96.0</ele>
      </trkpt>
      <trkpt lat="35.731871" lon="127.025245">
        <ele>95.7</ele>
      </trkpt>
      <trkpt lat="35.731823" lon="127.025009">
        <ele>95.5</ele>
      </trkpt>
      <trkpt lat="35.731556" lon="127.024891">
        <ele>95.3</ele>
      </trkpt>
      <trkpt lat="35.731572" lon="127.024875">
        <ele>95.3</ele>
      </trkpt>
      <trkpt lat="35.73156857172639" lon="127.02486991882326">
        <ele>95.3</ele>
      </trkpt>
      <trkpt lat="35.731572" lon="127.024875">
        <ele>95.4</ele>
      </trkpt>
      <trkpt lat="35.731715" lon="127.024741">
        <ele>95.6</ele>
      </trkpt>
      <trkpt lat="35.731893" lon="127.024693">
        <ele>95.9</ele>
      </trkpt>
      <trkpt lat="35.731989" lon="127.024634">
        <ele>96.3</ele>
      </trkpt>
      <trkpt lat="35.732146" lon="127.024631">
        <ele>96.7</ele>
      </trkpt>
      <trkpt lat="35.732263" lon="127.024618">
        <ele>97.2</ele>
      </trkpt>
      <trkpt lat="35.732431" lon="127.024511">
        <ele>97.8</ele>
      </trkpt>
      <trkpt lat="35.732607" lon="127.024301">
        <ele>98.5</ele>
      </trkpt>
      <trkpt lat="35.732821" lon="127.023926">
        <ele>99.3</ele>
      </trkpt>
      <trkpt lat="35.733422" lon="127.023003">
        <ele>100.2</ele>
      </trkpt>
      <trkpt lat="35.733552" lon="127.022864">
        <ele>101.2</ele>
      </trkpt>
      <trkpt lat="35.733761" lon="127.022706">
        <ele>102.2</ele>
      </trkpt>
      <trkpt lat="35.733780693095206" lon="127.02274560928346">
        <ele>103.3</ele>
      </trkpt>
      <trkpt lat="35.733761" lon="127.022706">
        <ele>104.6</ele>
      </trkpt>
      <trkpt lat="35.733831" lon="127.022654">
        <ele>105.9</ele>
      </trkpt>
      <trkpt lat="35.733944" lon="127.022703">
        <ele>107.4</ele>
      </trkpt>
      <trkpt lat="35.734214" lon="127.022987">
        <ele>109.0</ele>
      </trkpt>
      <trkpt lat="35.734406" lon="127.02311">
        <ele>110.7</ele>
      </trkpt>
      <trkpt lat="35.734828" lon="127.02325">
        <ele>112.5</ele>
      </trkpt>
      <trkpt lat="35.735125" lon="127.023368">
        <ele>114.4</ele>
      </trkpt>
      <trkpt lat="35.735861" lon="127.02377">
        <ele>116.5</ele>
      </trkpt>
      <trkpt lat="35.736496" lon="127.024049">
        <ele>118.7</ele>
      </trkpt>
      <trkpt lat="35.736866" lon="127.024307">
        <ele>120.9</ele>
      </trkpt>
      <trkpt lat="35.737001" lon="127.024344">
        <ele>123.2</ele>
      </trkpt>
      <trkpt lat="35.73721" lon="127.02435">
        <ele>125.6</ele>
      </trkpt>
      <trkpt lat="35.737293" lon="127.024371">
        <ele>128.0</ele>
      </trkpt>
      <trkpt lat="35.737576" lon="127.024494">
        <ele>130.6</ele>
      </trkpt>
      <trkpt lat="35.73762" lon="127.024559">
        <ele>133.1</ele>
      </trkpt>
      <trkpt lat="35.737624" lon="127.024612">
        <ele>135.8</ele>
      </trkpt>
      <trkpt lat="35.737598" lon="127.024688">
        <ele>138.5</ele>
      </trkpt>
      <trkpt lat="35.73755" lon="127.024736">
        <ele>141.3</ele>
      </trkpt>
      <trkpt lat="35.737332" lon="127.024822">
        <ele>144.1</ele>
      </trkpt>
      <trkpt lat="35.737267" lon="127.024897">
        <ele>147.1</ele>
      </trkpt>
      <trkpt lat="35.737332" lon="127.024957">
        <ele>150.1</ele>
      </trkpt>
      <trkpt lat="35.7373338932855" lon="127.02495574951173">
        <ele>153.2</ele>
      </trkpt>
      <trkpt lat="35.737332" lon="127.024957">
        <ele>156.3</ele>
      </trkpt>
      <trkpt lat="35.737359" lon="127.024983">
        <ele>159.5</ele>
      </trkpt>
      <trkpt lat="35.737842" lon="127.025245">
        <ele>162.8</ele>
      </trkpt>
      <trkpt lat="35.738717" lon="127.025482">
        <ele>166.2</ele>
      </trkpt>
      <trkpt lat="35.739545" lon="127.02583">
        <ele>169.5</ele>
      </trkpt>
      <trkpt lat="35.739971" lon="127.025943">
        <ele>172.9</ele>
      </trkpt>
      <trkpt lat="35.740405" lon="127.025938">
        <ele>176.3</ele>
      </trkpt>
      <trkpt lat="35.741065" lon="127.026058">
        <ele>179.7</ele>
      </trkpt>
      <trkpt lat="35.741437" lon="127.026206">
        <ele>183.1</ele>
      </trkpt>
      <trkpt lat="35.742027" lon="127.026423">
        <ele>186.5</ele>
      </trkpt>
      <trkpt lat="35.742214" lon="127.026514">
        <ele>189.8</ele>
      </trkpt>
      <trkpt lat="35.742587" lon="127.026511">
        <ele>193.1</ele>
      </trkpt>
      <trkpt lat="35.742806" lon="127.026616">
        <ele>196.4</ele>
      </trkpt>
      <trkpt lat="35.742867" lon="127.026691">
        <ele>199.6</ele>
      </trkpt>
      <trkpt lat="35.742878" lon="127.026764">
        <ele>202.8</ele>
      </trkpt>
      <trkpt lat="35.742802" lon="127.026812">
        <ele>206.0</ele>
      </trkpt>
      <trkpt lat="35.742512" lon="127.026772">
        <ele>209.1</ele>
      </trkpt>
      <trkpt lat="35.742397" lon="127.026798">
        <ele>212.1</ele>
      </trkpt>
      <trkpt lat="35.742345" lon="127.026844">
        <ele>215.1</ele>
      </trkpt>
      <trkpt lat="35.742384" lon="127.026895">
        <ele>218.1</ele>
      </trkpt>
      <trkpt lat="35.74283" lon="127.027115">
        <ele>221.1</ele>
      </trkpt>
      <trkpt lat="35.743131" lon="127.027228">
        <ele>224.0</ele>
      </trkpt>
      <trkpt lat="35.743366" lon="127.027276">
        <ele>226.9</ele>
      </trkpt>
      <trkpt lat="35.743553" lon="127.027254">
        <ele>229.7</ele>
      </trkpt>
      <trkpt lat="35.743867" lon="127.027201">
        <ele>232.4</ele>
      </trkpt>
      <trkpt lat="35.744083" lon="127.027102">
        <ele>235.2</ele>
      </trkpt>
      <trkpt lat="35.7443" lon="127.026976">
        <ele>237.8</ele>
      </trkpt>
      <trkpt lat="35.744337" lon="127.026906">
        <ele>240.5</ele>
      </trkpt>
      <trkpt lat="35.744337" lon="127.026836">
        <ele>243.1</ele>
      </trkpt>
      <trkpt lat="35.744324" lon="127.026756">
        <ele>245.6</ele>
      </trkpt>
      <trkpt lat="35.744202" lon="127.026635">
        <ele>248.0</ele>
      </trkpt>
      <trkpt lat="35.744115" lon="127.026536">
        <ele>250.4</ele>
      </trkpt>
      <trkpt lat="35.744052" lon="127.026436">
        <ele>252.8</ele>
      </trkpt>
      <trkpt lat="35.744051" lon="127.026355">
        <ele>255.1</ele>
      </trkpt>
      <trkpt lat="35.744131" lon="127.026295">
        <ele>257.4</ele>
      </trkpt>
      <trkpt lat="35.744222" lon="127.026345">
        <ele>259.6</ele>
      </trkpt>
      <trkpt lat="35.7443" lon="127.02645">
        <ele>261.8</ele>
      </trkpt>
      <trkpt lat="35.744396" lon="127.026557">
        <ele>264.1</ele>
      </trkpt>
      <trkpt lat="35.74457" lon="127.026627">
        <ele>266.3</ele>
      </trkpt>
      <trkpt lat="35.744875" lon="127.026772">
        <ele>268.5</ele>
      </trkpt>
      <trkpt lat="35.745123" lon="127.02686">
        <ele>270.8</ele>
      </trkpt>
      <trkpt lat="35.745574" lon="127.027305">
        <ele>273.0</ele>
      </trkpt>
      <trkpt lat="35.745604" lon="127.027276">
        <ele>275.2</ele>
      </trkpt>
      <trkpt lat="35.745602" lon="127.02722">
        <ele>277.3</ele>
      </trkpt>
      <trkpt lat="35.745476" lon="127.026908">
        <ele>279.5</ele>
      </trkpt>
      <trkpt lat="35.745347" lon="127.026613">
        <ele>281.6</ele>
      </trkpt>
      <trkpt lat="35.745268" lon="127.026513">
        <ele>283.7</ele>
      </trkpt>
      <trkpt lat="35.745206" lon="127.026428">
        <ele>285.8</ele>
      </trkpt>
      <trkpt lat="35.745184" lon="127.02636">
        <ele>287.9</ele>
      </trkpt>
      <trkpt lat="35.745215" lon="127.02632">
        <ele>290.0</ele>
      </trkpt>
      <trkpt lat="35.745315" lon="127.026352">
        <ele>292.1</ele>
      </trkpt>
      <trkpt lat="35.745425" lon="127.026448">
        <ele>294.2</ele>
      </trkpt>
      <trkpt lat="35.745583" lon="127.026656">
        <ele>296.3</ele>
      </trkpt>
      <trkpt lat="35.745866" lon="127.027045">
        <ele>298.4</ele>
      </trkpt>
      <trkpt lat="35.746046" lon="127.02726">
        <ele>300.5</ele>
      </trkpt>
      <trkpt lat="35.746547" lon="127.027651">
        <ele>302.7</ele>
      </trkpt>
      <trkpt lat="35.746597" lon="127.027717">
        <ele>304.8</ele>
      </trkpt>
      <trkpt lat="35.746623" lon="127.027793">
        <ele>306.9</ele>
      </trkpt>
      <trkpt lat="35.746593" lon="127.02788">
        <ele>309.1</ele>
      </trkpt>
      <trkpt lat="35.746407" lon="127.027973">
        <ele>311.2</ele>
      </trkpt>
      <trkpt lat="35.74636" lon="127.028073">
        <ele>313.4</ele>
      </trkpt>
      <trkpt lat="35.746381" lon="127.028165">
        <ele>315.6</ele>
      </trkpt>
      <trkpt lat="35.746516" lon="127.028334">
        <ele>317.9</ele>
      </trkpt>
      <trkpt lat="35.746686" lon="127.028572">
        <ele>320.2</ele>
      </trkpt>
      <trkpt lat="35.746671" lon="127.028654">
        <ele>322.5</ele>
      </trkpt>
      <trkpt lat="35.746642" lon="127.028734">
        <ele>324.8</ele>
      </trkpt>
      <trkpt lat="35.746599336128426" lon="127.02871084213258">
        <ele>327.1</ele>
      </trkpt>
      <trkpt lat="35.746642" lon="127.028734">
        <ele>329.5</ele>
      </trkpt>
      <trkpt lat="35.746627" lon="127.028776">
        <ele>331.9</ele>
      </trkpt>
      <trkpt lat="35.746563" lon="127.028832">
        <ele>334.3</ele>
      </trkpt>
      <trkpt lat="35.746436" lon="127.028856">
        <ele>336.8</ele>
      </trkpt>
      <trkpt lat="35.746245" lon="127.02885">
        <ele>339.3</ele>
      </trkpt>
      <trkpt lat="35.745851" lon="127.029059">
        <ele>341.9</ele>
      </trkpt>
      <trkpt lat="35.745591" lon="127.029104">
        <ele>344.6</ele>
      </trkpt>
      <trkpt lat="35.745581" lon="127.029152">
        <ele>347.3</ele>
      </trkpt>
      <trkpt lat="35.745644" lon="127.02918">
        <ele>350.1</ele>
      </trkpt>
      <trkpt lat="35.745762" lon="127.029253">
        <ele>353.1</ele>
      </trkpt>
      <trkpt lat="35.746175" lon="127.029309">
        <ele>356.0</ele>
      </trkpt>
      <trkpt lat="35.746462" lon="127.029443">
        <ele>359.0</ele>
      </trkpt>
      <trkpt lat="35.746639" lon="127.029613">
        <ele>362.1</ele>
      </trkpt>
      <trkpt lat="35.746963" lon="127.029574">
        <ele>365.1</ele>
      </trkpt>
      <trkpt lat="35.747129" lon="127.029608">
        <ele>368.2</ele>
      </trkpt>
      <trkpt lat="35.747099" lon="127.029804">
        <ele>371.4</ele>
      </trkpt>
      <trkpt lat="35.747037" lon="127.029864">
        <ele>374.5</ele>
      </trkpt>
      <trkpt lat="35.746993" lon="127.029965">
        <ele>377.6</ele>
      </trkpt>
      <trkpt lat="35.74692" lon="127.030016">
        <ele>380.8</ele>
      </trkpt>
      <trkpt lat="35.74673" lon="127.030297">
        <ele>383.9</ele>
      </trkpt>
      <trkpt lat="35.746699" lon="127.030443">
        <ele>387.0</ele>
      </trkpt>
      <trkpt lat="35.746307" lon="127.030416">
        <ele>390.1</ele>
      </trkpt>
      <trkpt lat="35.746236" lon="127.03049">
        <ele>393.2</ele>
      </trkpt>
      <trkpt lat="35.74625103071721" lon="127.03051328659059">
        <ele>396.2</ele>
      </trkpt>
      <trkpt lat="35.746231" lon="127.030499">
        <ele>399.1</ele>
      </trkpt>
      <trkpt lat="35.746189" lon="127.03059">
        <ele>402.0</ele>
      </trkpt>
      <trkpt lat="35.74612" lon="127.030843">
        <ele>404.8</ele>
      </trkpt>
      <trkpt lat="35.746277" lon="127.030944">
        <ele>407.4</ele>
      </trkpt>
      <trkpt lat="35.746346" lon="127.031017">
        <ele>410.0</ele>
      </trkpt>
      <trkpt lat="35.746361" lon="127.031137">
        <ele>412.4</ele>
      </trkpt>
      <trkpt lat="35.746289" lon="127.031156">
        <ele>414.8</ele>
      </trkpt>
      <trkpt lat="35.746233" lon="127.031259">
        <ele>416.9</ele>
      </trkpt>
      <trkpt lat="35.746185" lon="127.031476">
        <ele>418.9</ele>
      </trkpt>
      <trkpt lat="35.746128" lon="127.031579">
        <ele>420.8</ele>
      </trkpt>
      <trkpt lat="35.746103" lon="127.031705">
        <ele>422.4</ele>
      </trkpt>
      <trkpt lat="35.746104" lon="127.031819">
        <ele>423.9</ele>
      </trkpt>
      <trkpt lat="35.746035" lon="127.031904">
        <ele>425.1</ele>
      </trkpt>
      <trkpt lat="35.746005" lon="127.032007">
        <ele>426.1</ele>
      </trkpt>
      <trkpt lat="35.745999" lon="127.032449">
        <ele>426.9</ele>
      </trkpt>
      <trkpt lat="35.745951" lon="127.032628">
        <ele>427.5</ele>
      </trkpt>
      <trkpt lat="35.745902" lon="127.032694">
        <ele>427.8</ele>
      </trkpt>
      <trkpt lat="35.745882" lon="127.032876">
        <ele>427.9</ele>
      </trkpt>
      <trkpt lat="35.745882" lon="127.033078">
        <ele>427.7</ele>
      </trkpt>
      <trkpt lat="35.745851" lon="127.033186">
        <ele>427.4</ele>
      </trkpt>
      <trkpt lat="35.745799" lon="127.033259">
        <ele>426.8</ele>
      </trkpt>
      <trkpt lat="35.745809" lon="127.033407">
        <ele>426.0</ele>
      </trkpt>
      <trkpt lat="35.745747" lon="127.03359">
        <ele>424.9</ele>
      </trkpt>
      <trkpt lat="35.745672" lon="127.033664">
        <ele>423.7</ele>
      </trkpt>
      <trkpt lat="35.745697" lon="127.033676">
        <ele>422.2</ele>
      </trkpt>
      <trkpt lat="35.745693738889145" lon="127.03368902206422">
        <ele>420.5</ele>
      </trkpt>
      <trkpt lat="35.745697" lon="127.033676">
        <ele>418.7</ele>
      </trkpt>
      <trkpt lat="35.745748" lon="127.033703">
        <ele>416.6</ele>
      </trkpt>
      <trkpt lat="35.745888" lon="127.03374">
        <ele>414.3</ele>
      </trkpt>
      <trkpt lat="35.74606" lon="127.033708">
        <ele>411.8</ele>
      </trkpt>
      <trkpt lat="35.746125" lon="127.033786">
        <ele>409.1</ele>
      </trkpt>
      <trkpt lat="35.746229" lon="127.033803">
        <ele>406.2</ele>
      </trkpt>
      <trkpt lat="35.74645" lon="127.033957">
        <ele>403.2</ele>
      </trkpt>
      <trkpt lat="35.746556" lon="127.034065">
        <ele>400.0</ele>
      </trkpt>
      <trkpt lat="35.746637" lon="127.034068">
        <ele>396.6</ele>
      </trkpt>
      <trkpt lat="35.746706" lon="127.034127">
        <ele>393.1</ele>
      </trkpt>
      <trkpt lat="35.74704" lon="127.034327">
        <ele>389.5</ele>
      </trkpt>
      <trkpt lat="35.74722" lon="127.034552">
        <ele>385.9</ele>
      </trkpt>
      <trkpt lat="35.747218" lon="127.034657">
        <ele>382.1</ele>
      </trkpt>
      <trkpt lat="35.747253" lon="127.034729">
        <ele>378.3</ele>
      </trkpt>
      <trkpt lat="35.747265" lon="127.034817">
        <ele>374.4</ele>
      </trkpt>
      <trkpt lat="35.747258" lon="127.034911">
        <ele>370.5</ele>
      </trkpt>
      <trkpt lat="35.747198" lon="127.035068">
        <ele>366.5</ele>
      </trkpt>
      <trkpt lat="35.747299" lon="127.035242">
        <ele>362.5</ele>
      </trkpt>
      <trkpt lat="35.74733" lon="127.035456">
        <ele>358.5</ele>
      </trkpt>
      <trkpt lat="35.747363" lon="127.035558">
        <ele>354.5</ele>
      </trkpt>
      <trkpt lat="35.747375" lon="127.035657">
        <ele>350.4</ele>
      </trkpt>
      <trkpt lat="35.747362" lon="127.035746">
        <ele>346.4</ele>
      </trkpt>
      <trkpt lat="35.747405" lon="127.035853">
        <ele>342.3</ele>
      </trkpt>
      <trkpt lat="35.747453" lon="127.036056">
        <ele>338.3</ele>
      </trkpt>
      <trkpt lat="35.747443" lon="127.036253">
        <ele>334.3</ele>
      </trkpt>
      <trkpt lat="35.747521" lon="127.036428">
        <ele>330.3</ele>
      </trkpt>
      <trkpt lat="35.747543" lon="127.036514">
        <ele>326.4</ele>
      </trkpt>
      <trkpt lat="35.747518" lon="127.0366">
        <ele>322.5</ele>
      </trkpt>
      <trkpt lat="35.747526" lon="127.036707">
        <ele>318.6</ele>
      </trkpt>
      <trkpt lat="35.74751" lon="127.036793">
        <ele>314.8</ele>
      </trkpt>
      <trkpt lat="35.747514" lon="127.036913">
        <ele>310.9</ele>
      </trkpt>
      <trkpt lat="35.747569" lon="127.037212">
        <ele>307.2</ele>
      </trkpt>
      <trkpt lat="35.747805" lon="127.037616">
        <ele>303.5</ele>
      </trkpt>
      <trkpt lat="35.747928" lon="127.037764">
        <ele>299.9</ele>
      </trkpt>
      <trkpt lat="35.747956" lon="127.037847">
        <ele>296.4</ele>
      </trkpt>
      <trkpt lat="35.748003" lon="127.037923">
        <ele>292.9</ele>
      </trkpt>
      <trkpt lat="35.748097" lon="127.037966">
        <ele>289.6</ele>
      </trkpt>
      <trkpt lat="35.748224" lon="127.038125">
        <ele>286.3</ele>
      </trkpt>
      <trkpt lat="35.748291" lon="127.038168">
        <ele>283.0</ele>
      </trkpt>
      <trkpt lat="35.748359" lon="127.038241">
        <ele>279.8</ele>
      </trkpt>
      <trkpt lat="35.74852" lon="127.03832">
        <ele>276.7</ele>
      </trkpt>
      <trkpt lat="35.748565" lon="127.038398">
        <ele>273.6</ele>
      </trkpt>
      <trkpt lat="35.748657" lon="127.038444">
        <ele>270.5</ele>
      </trkpt>
      <trkpt lat="35.748836" lon="127.038665">
        <ele>267.5</ele>
      </trkpt>
      <trkpt lat="35.748931" lon="127.03882">
        <ele>264.5</ele>
      </trkpt>
      <trkpt lat="35.749054" lon="127.038977">
        <ele>261.6</ele>
      </trkpt>
      <trkpt lat="35.749092" lon="127.039072">
        <ele>258.7</ele>
      </trkpt>
      <trkpt lat="35.749257" lon="127.03935">
        <ele>255.8</ele>
      </trkpt>
      <trkpt lat="35.749429" lon="127.039456">
        <ele>253.1</ele>
      </trkpt>
      <trkpt lat="35.749492" lon="127.039527">
        <ele>250.4</ele>
      </trkpt>
      <trkpt lat="35.749517" lon="127.039572">
        <ele>247.8</ele>
      </trkpt>
      <trkpt lat="35.749543" lon="127.039596">
        <ele>245.2</ele>
      </trkpt>
      <trkpt lat="35.749642" lon="127.039783">
        <ele>242.7</ele>
      </trkpt>
      <trkpt lat="35.749779" lon="127.039904">
        <ele>240.2</ele>
      </trkpt>
      <trkpt lat="35.74979496713426" lon="127.0398795604706">
        <ele>237.8</ele>
      </trkpt>
      <trkpt lat="35.74998870358105" lon="127.03949868679048">
        <ele>235.5</ele>
      </trkpt>
      <trkpt lat="35.75013019619368" lon="127.03950941562654">
        <ele>233.3</ele>
      </trkpt>
      <trkpt lat="35.750129" lon="127.039508">
        <ele>231.1</ele>
      </trkpt>
      <trkpt lat="35.75013" lon="127.039471">
        <ele>229.0</ele>
      </trkpt>
      <trkpt lat="35.75017" lon="127.039134">
        <ele>226.9</ele>
      </trkpt>
      <trkpt lat="35.750247" lon="127.038568">
        <ele>224.9</ele>
      </trkpt>
      <trkpt lat="35.750189" lon="127.037776">
        <ele>223.0</ele>
      </trkpt>
      <trkpt lat="35.75019332358583" lon="127.03777670860292">
        <ele>221.2</ele>
      </trkpt>
      <trkpt lat="35.750189" lon="127.037776">
        <ele>219.4</ele>
      </trkpt>
      <trkpt lat="35.750189" lon="127.037764">
        <ele>217.7</ele>
      </trkpt>
      <trkpt lat="35.750211" lon="127.037671">
        <ele>216.1</ele>
      </trkpt>
      <trkpt lat="35.750314" lon="127.037554">
        <ele>214.6</ele>
      </trkpt>
      <trkpt lat="35.750796" lon="127.03743">
        <ele>213.1</ele>
      </trkpt>
      <trkpt lat="35.750884" lon="127.037395">
        <ele>211.8</ele>
      </trkpt>
      <trkpt lat="35.750961" lon="127.037335">
        <ele>210.6</ele>
      </trkpt>
      <trkpt lat="35.75096390909548" lon="127.03733682632448">
        <ele>209.4</ele>
      </trkpt>
      <trkpt lat="35.750961" lon="127.037335">
        <ele>208.5</ele>
      </trkpt>
      <trkpt lat="35.751024" lon="127.036954">
        <ele>207.6</ele>
      </trkpt>
      <trkpt lat="35.751002" lon="127.036849">
        <ele>206.8</ele>
      </trkpt>
      <trkpt lat="35.750891" lon="127.036772">
        <ele>206.1</ele>
      </trkpt>
      <trkpt lat="35.750804" lon="127.036649">
        <ele>205.6</ele>
      </trkpt>
      <trkpt lat="35.75081153402154" lon="127.03664213418962">
        <ele>205.1</ele>
      </trkpt>
      <trkpt lat="35.750804" lon="127.036649">
        <ele>204.6</ele>
      </trkpt>
      <trkpt lat="35.7508" lon="127.036644">
        <ele>204.3</ele>
      </trkpt>
      <trkpt lat="35.750843" lon="127.036471">
        <ele>204.0</ele>
      </trkpt>
      <trkpt lat="35.750966" lon="127.036283">
        <ele>203.8</ele>
      </trkpt>
      <trkpt lat="35.75102" lon="127.03614">
        <ele>203.6</ele>
      </trkpt>
      <trkpt lat="35.751015" lon="127.036002">
        <ele>203.6</ele>
      </trkpt>
      <trkpt lat="35.750992" lon="127.035907">
        <ele>203.5</ele>
      </trkpt>
      <trkpt lat="35.750953" lon="127.035793">
        <ele>203.6</ele>
      </trkpt>
      <trkpt lat="35.750896" lon="127.035652">
        <ele>203.7</ele>
      </trkpt>
      <trkpt lat="35.7508986055281" lon="127.03565239906312">
        <ele>203.9</ele>
      </trkpt>
      <trkpt lat="35.750896" lon="127.035652">
        <ele>204.1</ele>
      </trkpt>
      <trkpt lat="35.750898" lon="127.035443">
        <ele>204.4</ele>
      </trkpt>
      <trkpt lat="35.750928" lon="127.035164">
        <ele>204.7</ele>
      </trkpt>
      <trkpt lat="35.750888" lon="127.034795">
        <ele>205.1</ele>
      </trkpt>
      <trkpt lat="35.75081" lon="127.034635">
        <ele>205.5</ele>
      </trkpt>
      <trkpt lat="35.750604" lon="127.034527">
        <ele>206.0</ele>
      </trkpt>
      <trkpt lat="35.750501" lon="127.034457">
        <ele>206.5</ele>
      </trkpt>
      <trkpt lat="35.75031" lon="127.034207">
        <ele>207.1</ele>
      </trkpt>
      <trkpt lat="35.750269" lon="127.034108">
        <ele>207.6</ele>
      </trkpt>
      <trkpt lat="35.750265" lon="127.034019">
        <ele>208.2</ele>
      </trkpt>
      <trkpt lat="35.75023903649373" lon="127.03402161598207">
        <ele>208.7</ele>
      </trkpt>
      <trkpt lat="35.750265" lon="127.034019">
        <ele>209.3</ele>
      </trkpt>
      <trkpt lat="35.750264" lon="127.033993">
        <ele>209.8</ele>
      </trkpt>
      <trkpt lat="35.750293" lon="127.03387">
        <ele>210.3</ele>
      </trkpt>
      <trkpt lat="35.750381" lon="127.03371">
        <ele>210.8</ele>
      </trkpt>
      <trkpt lat="35.750445" lon="127.033612">
        <ele>211.2</ele>
      </trkpt>
      <trkpt lat="35.750471" lon="127.033516">
        <ele>211.7</ele>
      </trkpt>
      <trkpt lat="35.750452" lon="127.033303">
        <ele>212.1</ele>
      </trkpt>
      <trkpt lat="35.750479" lon="127.033184">
        <ele>212.5</ele>
      </trkpt>
      <trkpt lat="35.750567" lon="127.03293">
        <ele>212.9</ele>
      </trkpt>
      <trkpt lat="35.750588" lon="127.032841">
        <ele>213.3</ele>
      </trkpt>
      <trkpt lat="35.750569" lon="127.032623">
        <ele>213.8</ele>
      </trkpt>
      <trkpt lat="35.7505524957263" lon="127.03262686729433">
        <ele>214.2</ele>
      </trkpt>
      <trkpt lat="35.750569" lon="127.032623">
        <ele>214.6</ele>
      </trkpt>
      <trkpt lat="35.750554" lon="127.032435">
        <ele>215.0</ele>
      </trkpt>
      <trkpt lat="35.75048" lon="127.032279">
        <ele>215.4</ele>
      </trkpt>
      <trkpt lat="35.750315" lon="127.032054">
        <ele>215.7</ele>
      </trkpt>
      <trkpt lat="35.750144" lon="127.031869">
        <ele>216.1</ele>
      </trkpt>
      <trkpt lat="35.75001" lon="127.031666">
        <ele>216.4</ele>
      </trkpt>
      <trkpt lat="35.749979" lon="127.031532">
        <ele>216.7</ele>
      </trkpt>
      <trkpt lat="35.750076" lon="127.031296">
        <ele>217.0</ele>
      </trkpt>
      <trkpt lat="35.750017" lon="127.03123">
        <ele>217.2</ele>
      </trkpt>
      <trkpt lat="35.749903" lon="127.031143">
        <ele>217.4</ele>
      </trkpt>
      <trkpt lat="35.749871" lon="127.031055">
        <ele>217.6</ele>
      </trkpt>
      <trkpt lat="35.74988203975297" lon="127.03104972839357">
        <ele>217.8</ele>
      </trkpt>
      <trkpt lat="35.749871" lon="127.031055">
        <ele>217.9</ele>
      </trkpt>
      <trkpt lat="35.749867" lon="127.031041">
        <ele>218.0</ele>
      </trkpt>
      <trkpt lat="35.749916" lon="127.030921">
        <ele>218.1</ele>
      </trkpt>
      <trkpt lat="35.75004" lon="127.030842">
        <ele>218.2</ele>
      </trkpt>
      <trkpt lat="35.750149" lon="127.030808">
        <ele>218.2</ele>
      </trkpt>
      <trkpt lat="35.750323" lon="127.030698">
        <ele>218.2</ele>
      </trkpt>
      <trkpt lat="35.750403" lon="127.030608">
        <ele>218.3</ele>
      </trkpt>
      <trkpt lat="35.750549" lon="127.030361">
        <ele>218.3</ele>
      </trkpt>
      <trkpt lat="35.750617" lon="127.030071">
        <ele>218.3</ele>
      </trkpt>
      <trkpt lat="35.750666" lon="127.029967">
        <ele>218.3</ele>
      </trkpt>
      <trkpt lat="35.750699" lon="127.029868">
        <ele>218.3</ele>
      </trkpt>
      <trkpt lat="35.75069" lon="127.029744">
        <ele>218.2</ele>
      </trkpt>
      <trkpt lat="35.750659" lon="127.02965">
        <ele>218.2</ele>
      </trkpt>
      <trkpt lat="35.750628" lon="127.029515">
        <ele>218.1</ele>
      </trkpt>
      <trkpt lat="35.750624" lon="127.029432">
        <ele>218.0</ele>
      </trkpt>
      <trkpt lat="35.750638" lon="127.02938">
        <ele>217.9</ele>
      </trkpt>
      <trkpt lat="35.75065262827651" lon="127.02938675880434">
        <ele>217.8</ele>
      </trkpt>
      <trkpt lat="35.750638" lon="127.02938">
        <ele>217.7</ele>
      </trkpt>
      <trkpt lat="35.750642" lon="127.029369">
        <ele>217.5</ele>
      </trkpt>
      <trkpt lat="35.750693" lon="127.02934">
        <ele>217.3</ele>
      </trkpt>
      <trkpt lat="35.750926" lon="127.029291">
        <ele>217.1</ele>
      </trkpt>
      <trkpt lat="35.751167" lon="127.029183">
        <ele>216.8</ele>
      </trkpt>
      <trkpt lat="35.751295" lon="127.02908">
        <ele>216.6</ele>
      </trkpt>
      <trkpt lat="35.751426" lon="127.02896">
        <ele>216.4</ele>
      </trkpt>
      <trkpt lat="35.751491" lon="127.028852">
        <ele>216.2</ele>
      </trkpt>
      <trkpt lat="35.751571" lon="127.028687">
        <ele>216.0</ele>
      </trkpt>
      <trkpt lat="35.751693" lon="127.028509">
        <ele>215.8</ele>
      </trkpt>
      <trkpt lat="35.751735" lon="127.028372">
        <ele>215.6</ele>
      </trkpt>
      <trkpt lat="35.751787" lon="127.028279">
        <ele>215.3</ele>
      </trkpt>
      <trkpt lat="35.751831" lon="127.028258">
        <ele>215.2</ele>
      </trkpt>
      <trkpt lat="35.75183244144624" lon="127.02826023101808">
        <ele>215.1</ele>
      </trkpt>
      <trkpt lat="35.751831" lon="127.028258">
        <ele>215.0</ele>
      </trkpt>
      <trkpt lat="35.751849" lon="127.02825">
        <ele>214.8</ele>
      </trkpt>
      <trkpt lat="35.751967" lon="127.028277">
        <ele>214.7</ele>
      </trkpt>
      <trkpt lat="35.752121" lon="127.028361">
        <ele>214.6</ele>
      </trkpt>
      <trkpt lat="35.752205" lon="127.02837">
        <ele>214.4</ele>
      </trkpt>
      <trkpt lat="35.752293" lon="127.028349">
        <ele>214.3</ele>
      </trkpt>
      <trkpt lat="35.752399" lon="127.028337">
        <ele>214.2</ele>
      </trkpt>
      <trkpt lat="35.752551" lon="127.028286">
        <ele>214.0</ele>
      </trkpt>
      <trkpt lat="35.752633" lon="127.02822">
        <ele>213.9</ele>
      </trkpt>
      <trkpt lat="35.752737" lon="127.028093">
        <ele>213.7</ele>
      </trkpt>
      <trkpt lat="35.752814" lon="127.02802">
        <ele>213.6</ele>
      </trkpt>
      <trkpt lat="35.75285986597354" lon="127.02809393405914">
        <ele>213.4</ele>
      </trkpt>
      <trkpt lat="35.754636060139255" lon="127.03070640563966">
        <ele>213.3</ele>
      </trkpt>
    </trkseg>
  </trk>
</gpx>