<?xml version="1.0" encoding="UTF-8"?>
<gpx xmlns="http://www.topografix.com/GPX/1/1" xmlns:gpxdata="http://www.cluetrust.com/XML/GPXDATA/1/0" xmlns:xsi="http://www.w3.org/2001/XMLSchema-instance" xsi:schemaLocation="http://www.topografix.com/GPX/1/1 https://www.topografix.com/GPX/1/1/gpx.xsd http://www.cluetrust.com/XML/GPXDATA/1/0 https://www.cluetrust.com/Schemas/gpxdata10.xsd" creator="COROS Wearables" version="1.1">
 <metadata>
  <link href="https://www.coros.com">
   <text>COROS</text>
  </link>
  <time>2026-05-05T21:54:28Z</time>
  <coros_edit>1</coros_edit>
 </metadata>
 <trk>
  <name>고령 미숭산 트런</name>
  <type>running</type>
  <trkseg>
   <trkpt lat="35.7221620" lon="128.2567190">
    <ele>68</ele>
   </trkpt>
   <trkpt lat="35.7221420" lon="128.2566710">
    <ele>68</ele>
   </trkpt>
   <trkpt lat="35.7221650" lon="128.2565970">
    <ele>70</ele>
   </trkpt>
   <trkpt lat="35.7221200" lon="128.2564760">
    <ele>70</ele>
   </trkpt>
   <trkpt lat="35.7221210" lon="128.2563150">
    <ele>72</ele>
   </trkpt>
   <trkpt lat="35.7222270" lon="128.2561570">
    <ele>75</ele>
   </trkpt>
   <trkpt lat="35.7223570" lon="128.2560570">
    <ele>80</ele>
   </trkpt>
   <trkpt lat="35.7225950" lon="128.2559250">
    <ele>90</ele>
   </trkpt>
   <trkpt lat="35.7226690" lon="128.2558710">
    <ele>90</ele>
   </trkpt>
   <trkpt lat="35.7226760" lon="128.2558130">
    <ele>90</ele>
   </trkpt>
   <trkpt lat="35.7226670" lon="128.2557580">
    <ele>95</ele>
   </trkpt>
   <trkpt lat="35.7226200" lon="128.2557170">
    <ele>95</ele>
   </trkpt>
   <trkpt lat="35.7225060" lon="128.2556690">
    <ele>92</ele>
   </trkpt>
   <trkpt lat="35.7223570" lon="128.2555990">
    <ele>90</ele>
   </trkpt>
   <trkpt lat="35.7222710" lon="128.2555550">
    <ele>93</ele>
   </trkpt>
   <trkpt lat="35.7221860" lon="128.2555280">
    <ele>89</ele>
   </trkpt>
   <trkpt lat="35.7221060" lon="128.2554550">
    <ele>86</ele>
   </trkpt>
   <trkpt lat="35.7221290" lon="128.2554420">
    <ele>89</ele>
   </trkpt>
   <trkpt lat="35.7222020" lon="128.2554510">
    <ele>89</ele>
   </trkpt>
   <trkpt lat="35.7222640" lon="128.2553640">
    <ele>91</ele>
   </trkpt>
   <trkpt lat="35.7223870" lon="128.2552500">
    <ele>96</ele>
   </trkpt>
   <trkpt lat="35.7225050" lon="128.2551630">
    <ele>98</ele>
   </trkpt>
   <trkpt lat="35.7225940" lon="128.2551350">
    <ele>100</ele>
   </trkpt>
   <trkpt lat="35.7227140" lon="128.2551420">
    <ele>103</ele>
   </trkpt>
   <trkpt lat="35.7227430" lon="128.2551440">
    <ele>103</ele>
   </trkpt>
   <trkpt lat="35.7228650" lon="128.2552030">
    <ele>104</ele>
   </trkpt>
   <trkpt lat="35.7229910" lon="128.2552570">
    <ele>105</ele>
   </trkpt>
   <trkpt lat="35.7230800" lon="128.2552630">
    <ele>105</ele>
   </trkpt>
   <trkpt lat="35.7231150" lon="128.2552660">
    <ele>106</ele>
   </trkpt>
   <trkpt lat="35.7234940" lon="128.2551840">
    <ele>105</ele>
   </trkpt>
   <trkpt lat="35.7236920" lon="128.2550840">
    <ele>108</ele>
   </trkpt>
   <trkpt lat="35.7237920" lon="128.2550340">
    <ele>106</ele>
   </trkpt>
   <trkpt lat="35.7240030" lon="128.2549010">
    <ele>109</ele>
   </trkpt>
   <trkpt lat="35.7241090" lon="128.2548930">
    <ele>112</ele>
   </trkpt>
   <trkpt lat="35.7243810" lon="128.2547930">
    <ele>117</ele>
   </trkpt>
   <trkpt lat="35.7245490" lon="128.2547950">
    <ele>120</ele>
   </trkpt>
   <trkpt lat="35.7246550" lon="128.2548120">
    <ele>122</ele>
   </trkpt>
   <trkpt lat="35.7246990" lon="128.2547820">
    <ele>122</ele>
   </trkpt>
   <trkpt lat="35.7247140" lon="128.2547100">
    <ele>125</ele>
   </trkpt>
   <trkpt lat="35.7247390" lon="128.2545340">
    <ele>126</ele>
   </trkpt>
   <trkpt lat="35.7249520" lon="128.2542520">
    <ele>136</ele>
   </trkpt>
   <trkpt lat="35.7251360" lon="128.2539410">
    <ele>145</ele>
   </trkpt>
   <trkpt lat="35.7251800" lon="128.2537980">
    <ele>147</ele>
   </trkpt>
   <trkpt lat="35.7252610" lon="128.2536330">
    <ele>153</ele>
   </trkpt>
   <trkpt lat="35.7255140" lon="128.2534610">
    <ele>163</ele>
   </trkpt>
   <trkpt lat="35.7255420" lon="128.2534510">
    <ele>163</ele>
   </trkpt>
   <trkpt lat="35.7255750" lon="128.2534400">
    <ele>163</ele>
   </trkpt>
   <trkpt lat="35.7256610" lon="128.2534720">
    <ele>166</ele>
   </trkpt>
   <trkpt lat="35.7257050" lon="128.2534800">
    <ele>166</ele>
   </trkpt>
   <trkpt lat="35.7257470" lon="128.2534410">
    <ele>166</ele>
   </trkpt>
   <trkpt lat="35.7257490" lon="128.2533190">
    <ele>168</ele>
   </trkpt>
   <trkpt lat="35.7257450" lon="128.2531630">
    <ele>165</ele>
   </trkpt>
   <trkpt lat="35.7259950" lon="128.2529960">
    <ele>172</ele>
   </trkpt>
   <trkpt lat="35.7261440" lon="128.2528820">
    <ele>176</ele>
   </trkpt>
   <trkpt lat="35.7262330" lon="128.2528640">
    <ele>179</ele>
   </trkpt>
   <trkpt lat="35.7264800" lon="128.2529610">
    <ele>184</ele>
   </trkpt>
   <trkpt lat="35.7265860" lon="128.2529860">
    <ele>185</ele>
   </trkpt>
   <trkpt lat="35.7267020" lon="128.2530270">
    <ele>183</ele>
   </trkpt>
   <trkpt lat="35.7268390" lon="128.2530270">
    <ele>182</ele>
   </trkpt>
   <trkpt lat="35.7269180" lon="128.2530610">
    <ele>180</ele>
   </trkpt>
   <trkpt lat="35.7269670" lon="128.2531430">
    <ele>180</ele>
   </trkpt>
   <trkpt lat="35.7270180" lon="128.2532550">
    <ele>179</ele>
   </trkpt>
   <trkpt lat="35.7270590" lon="128.2533700">
    <ele>179</ele>
   </trkpt>
   <trkpt lat="35.7271930" lon="128.2535210">
    <ele>178</ele>
   </trkpt>
   <trkpt lat="35.7273380" lon="128.2535910">
    <ele>177</ele>
   </trkpt>
   <trkpt lat="35.7274460" lon="128.2535670">
    <ele>175</ele>
   </trkpt>
   <trkpt lat="35.7275450" lon="128.2536090">
    <ele>175</ele>
   </trkpt>
   <trkpt lat="35.7276480" lon="128.2537360">
    <ele>174</ele>
   </trkpt>
   <trkpt lat="35.7277390" lon="128.2538160">
    <ele>173</ele>
   </trkpt>
   <trkpt lat="35.7278500" lon="128.2538890">
    <ele>172</ele>
   </trkpt>
   <trkpt lat="35.7280640" lon="128.2538740">
    <ele>173</ele>
   </trkpt>
   <trkpt lat="35.7281380" lon="128.2538970">
    <ele>174</ele>
   </trkpt>
   <trkpt lat="35.7282960" lon="128.2540190">
    <ele>176</ele>
   </trkpt>
   <trkpt lat="35.7284180" lon="128.2540520">
    <ele>177</ele>
   </trkpt>
   <trkpt lat="35.7285720" lon="128.2540510">
    <ele>180</ele>
   </trkpt>
   <trkpt lat="35.7286150" lon="128.2540510">
    <ele>180</ele>
   </trkpt>
   <trkpt lat="35.7287560" lon="128.2540420">
    <ele>181</ele>
   </trkpt>
   <trkpt lat="35.7288540" lon="128.2540470">
    <ele>183</ele>
   </trkpt>
   <trkpt lat="35.7289510" lon="128.2540510">
    <ele>183</ele>
   </trkpt>
   <trkpt lat="35.7290480" lon="128.2540500">
    <ele>186</ele>
   </trkpt>
   <trkpt lat="35.7291690" lon="128.2540940">
    <ele>188</ele>
   </trkpt>
   <trkpt lat="35.7291920" lon="128.2542870">
    <ele>188</ele>
   </trkpt>
   <trkpt lat="35.7291820" lon="128.2543690">
    <ele>188</ele>
   </trkpt>
   <trkpt lat="35.7291890" lon="128.2544840">
    <ele>187</ele>
   </trkpt>
   <trkpt lat="35.7292190" lon="128.2545770">
    <ele>184</ele>
   </trkpt>
   <trkpt lat="35.7292710" lon="128.2546690">
    <ele>189</ele>
   </trkpt>
   <trkpt lat="35.7293350" lon="128.2547620">
    <ele>186</ele>
   </trkpt>
   <trkpt lat="35.7293980" lon="128.2548040">
    <ele>191</ele>
   </trkpt>
   <trkpt lat="35.7294370" lon="128.2548720">
    <ele>191</ele>
   </trkpt>
   <trkpt lat="35.7294410" lon="128.2549120">
    <ele>187</ele>
   </trkpt>
   <trkpt lat="35.7294530" lon="128.2549990">
    <ele>187</ele>
   </trkpt>
   <trkpt lat="35.7294820" lon="128.2550580">
    <ele>187</ele>
   </trkpt>
   <trkpt lat="35.7295410" lon="128.2550740">
    <ele>191</ele>
   </trkpt>
   <trkpt lat="35.7296600" lon="128.2550530">
    <ele>196</ele>
   </trkpt>
   <trkpt lat="35.7297870" lon="128.2550730">
    <ele>196</ele>
   </trkpt>
   <trkpt lat="35.7298650" lon="128.2551130">
    <ele>195</ele>
   </trkpt>
   <trkpt lat="35.7299340" lon="128.2551280">
    <ele>199</ele>
   </trkpt>
   <trkpt lat="35.7299740" lon="128.2551150">
    <ele>199</ele>
   </trkpt>
   <trkpt lat="35.7300540" lon="128.2551240">
    <ele>199</ele>
   </trkpt>
   <trkpt lat="35.7300810" lon="128.2551080">
    <ele>202</ele>
   </trkpt>
   <trkpt lat="35.7300710" lon="128.2550560">
    <ele>209</ele>
   </trkpt>
   <trkpt lat="35.7299980" lon="128.2549740">
    <ele>205</ele>
   </trkpt>
   <trkpt lat="35.7298890" lon="128.2548320">
    <ele>205</ele>
   </trkpt>
   <trkpt lat="35.7298380" lon="128.2547140">
    <ele>209</ele>
   </trkpt>
   <trkpt lat="35.7298280" lon="128.2546060">
    <ele>209</ele>
   </trkpt>
   <trkpt lat="35.7298390" lon="128.2545080">
    <ele>212</ele>
   </trkpt>
   <trkpt lat="35.7298930" lon="128.2543250">
    <ele>213</ele>
   </trkpt>
   <trkpt lat="35.7299130" lon="128.2542200">
    <ele>213</ele>
   </trkpt>
   <trkpt lat="35.7299810" lon="128.2540810">
    <ele>218</ele>
   </trkpt>
   <trkpt lat="35.7299890" lon="128.2540020">
    <ele>218</ele>
   </trkpt>
   <trkpt lat="35.7300350" lon="128.2538890">
    <ele>218</ele>
   </trkpt>
   <trkpt lat="35.7300900" lon="128.2537310">
    <ele>225</ele>
   </trkpt>
   <trkpt lat="35.7301530" lon="128.2535780">
    <ele>225</ele>
   </trkpt>
   <trkpt lat="35.7301630" lon="128.2534240">
    <ele>226</ele>
   </trkpt>
   <trkpt lat="35.7301830" lon="128.2533520">
    <ele>227</ele>
   </trkpt>
   <trkpt lat="35.7301960" lon="128.2533040">
    <ele>227</ele>
   </trkpt>
   <trkpt lat="35.7301950" lon="128.2532000">
    <ele>227</ele>
   </trkpt>
   <trkpt lat="35.7302070" lon="128.2531160">
    <ele>228</ele>
   </trkpt>
   <trkpt lat="35.7302110" lon="128.2530330">
    <ele>233</ele>
   </trkpt>
   <trkpt lat="35.7301800" lon="128.2529680">
    <ele>230</ele>
   </trkpt>
   <trkpt lat="35.7301970" lon="128.2528640">
    <ele>230</ele>
   </trkpt>
   <trkpt lat="35.7302140" lon="128.2528360">
    <ele>235</ele>
   </trkpt>
   <trkpt lat="35.7302460" lon="128.2527730">
    <ele>235</ele>
   </trkpt>
   <trkpt lat="35.7303300" lon="128.2526780">
    <ele>235</ele>
   </trkpt>
   <trkpt lat="35.7303890" lon="128.2525830">
    <ele>241</ele>
   </trkpt>
   <trkpt lat="35.7304170" lon="128.2525370">
    <ele>241</ele>
   </trkpt>
   <trkpt lat="35.7304600" lon="128.2524690">
    <ele>240</ele>
   </trkpt>
   <trkpt lat="35.7304900" lon="128.2523840">
    <ele>243</ele>
   </trkpt>
   <trkpt lat="35.7305290" lon="128.2522970">
    <ele>241</ele>
   </trkpt>
   <trkpt lat="35.7305480" lon="128.2522620">
    <ele>241</ele>
   </trkpt>
   <trkpt lat="35.7305650" lon="128.2522340">
    <ele>241</ele>
   </trkpt>
   <trkpt lat="35.7306570" lon="128.2522290">
    <ele>243</ele>
   </trkpt>
   <trkpt lat="35.7307110" lon="128.2522250">
    <ele>243</ele>
   </trkpt>
   <trkpt lat="35.7307780" lon="128.2522140">
    <ele>243</ele>
   </trkpt>
   <trkpt lat="35.7308170" lon="128.2522070">
    <ele>243</ele>
   </trkpt>
   <trkpt lat="35.7308700" lon="128.2521860">
    <ele>243</ele>
   </trkpt>
   <trkpt lat="35.7309020" lon="128.2521700">
    <ele>243</ele>
   </trkpt>
   <trkpt lat="35.7309760" lon="128.2521110">
    <ele>236</ele>
   </trkpt>
   <trkpt lat="35.7310360" lon="128.2520700">
    <ele>236</ele>
   </trkpt>
   <trkpt lat="35.7311000" lon="128.2520290">
    <ele>235</ele>
   </trkpt>
   <trkpt lat="35.7311280" lon="128.2520110">
    <ele>235</ele>
   </trkpt>
   <trkpt lat="35.7311840" lon="128.2519910">
    <ele>225</ele>
   </trkpt>
   <trkpt lat="35.7312530" lon="128.2519800">
    <ele>225</ele>
   </trkpt>
   <trkpt lat="35.7313110" lon="128.2519940">
    <ele>235</ele>
   </trkpt>
   <trkpt lat="35.7313520" lon="128.2520140">
    <ele>241</ele>
   </trkpt>
   <trkpt lat="35.7314020" lon="128.2520260">
    <ele>241</ele>
   </trkpt>
   <trkpt lat="35.7314440" lon="128.2520140">
    <ele>241</ele>
   </trkpt>
   <trkpt lat="35.7314840" lon="128.2520040">
    <ele>246</ele>
   </trkpt>
   <trkpt lat="35.7315160" lon="128.2519420">
    <ele>235</ele>
   </trkpt>
   <trkpt lat="35.7315570" lon="128.2518790">
    <ele>235</ele>
   </trkpt>
   <trkpt lat="35.7315780" lon="128.2518420">
    <ele>235</ele>
   </trkpt>
   <trkpt lat="35.7316690" lon="128.2517590">
    <ele>229</ele>
   </trkpt>
   <trkpt lat="35.7317170" lon="128.2517220">
    <ele>229</ele>
   </trkpt>
   <trkpt lat="35.7317930" lon="128.2516930">
    <ele>232</ele>
   </trkpt>
   <trkpt lat="35.7318150" lon="128.2516840">
    <ele>232</ele>
   </trkpt>
   <trkpt lat="35.7319090" lon="128.2516640">
    <ele>233</ele>
   </trkpt>
   <trkpt lat="35.7319750" lon="128.2516490">
    <ele>233</ele>
   </trkpt>
   <trkpt lat="35.7320310" lon="128.2516340">
    <ele>225</ele>
   </trkpt>
   <trkpt lat="35.7320770" lon="128.2516130">
    <ele>225</ele>
   </trkpt>
   <trkpt lat="35.7321240" lon="128.2516200">
    <ele>225</ele>
   </trkpt>
   <trkpt lat="35.7321810" lon="128.2516570">
    <ele>233</ele>
   </trkpt>
   <trkpt lat="35.7322150" lon="128.2517030">
    <ele>233</ele>
   </trkpt>
   <trkpt lat="35.7322820" lon="128.2518290">
    <ele>242</ele>
   </trkpt>
   <trkpt lat="35.7323150" lon="128.2518840">
    <ele>239</ele>
   </trkpt>
   <trkpt lat="35.7323520" lon="128.2519700">
    <ele>239</ele>
   </trkpt>
   <trkpt lat="35.7323710" lon="128.2520370">
    <ele>250</ele>
   </trkpt>
   <trkpt lat="35.7323870" lon="128.2520700">
    <ele>250</ele>
   </trkpt>
   <trkpt lat="35.7324180" lon="128.2520810">
    <ele>250</ele>
   </trkpt>
   <trkpt lat="35.7324910" lon="128.2520900">
    <ele>247</ele>
   </trkpt>
   <trkpt lat="35.7325280" lon="128.2520860">
    <ele>247</ele>
   </trkpt>
   <trkpt lat="35.7325610" lon="128.2520860">
    <ele>247</ele>
   </trkpt>
   <trkpt lat="35.7325990" lon="128.2520610">
    <ele>244</ele>
   </trkpt>
   <trkpt lat="35.7326270" lon="128.2520340">
    <ele>244</ele>
   </trkpt>
   <trkpt lat="35.7326510" lon="128.2520170">
    <ele>244</ele>
   </trkpt>
   <trkpt lat="35.7327280" lon="128.2520090">
    <ele>242</ele>
   </trkpt>
   <trkpt lat="35.7327670" lon="128.2519850">
    <ele>234</ele>
   </trkpt>
   <trkpt lat="35.7327930" lon="128.2519750">
    <ele>234</ele>
   </trkpt>
   <trkpt lat="35.7328500" lon="128.2519230">
    <ele>234</ele>
   </trkpt>
   <trkpt lat="35.7328710" lon="128.2519030">
    <ele>235</ele>
   </trkpt>
   <trkpt lat="35.7329200" lon="128.2518300">
    <ele>235</ele>
   </trkpt>
   <trkpt lat="35.7329620" lon="128.2517870">
    <ele>228</ele>
   </trkpt>
   <trkpt lat="35.7330730" lon="128.2516870">
    <ele>230</ele>
   </trkpt>
   <trkpt lat="35.7331220" lon="128.2516550">
    <ele>230</ele>
   </trkpt>
   <trkpt lat="35.7331460" lon="128.2516320">
    <ele>228</ele>
   </trkpt>
   <trkpt lat="35.7331830" lon="128.2516100">
    <ele>228</ele>
   </trkpt>
   <trkpt lat="35.7332310" lon="128.2515810">
    <ele>228</ele>
   </trkpt>
   <trkpt lat="35.7332710" lon="128.2515700">
    <ele>228</ele>
   </trkpt>
   <trkpt lat="35.7333440" lon="128.2515460">
    <ele>229</ele>
   </trkpt>
   <trkpt lat="35.7334190" lon="128.2515140">
    <ele>229</ele>
   </trkpt>
   <trkpt lat="35.7335690" lon="128.2513500">
    <ele>225</ele>
   </trkpt>
   <trkpt lat="35.7336290" lon="128.2512960">
    <ele>222</ele>
   </trkpt>
   <trkpt lat="35.7336820" lon="128.2512730">
    <ele>222</ele>
   </trkpt>
   <trkpt lat="35.7337180" lon="128.2512350">
    <ele>222</ele>
   </trkpt>
   <trkpt lat="35.7338090" lon="128.2511570">
    <ele>222</ele>
   </trkpt>
   <trkpt lat="35.7339460" lon="128.2510470">
    <ele>216</ele>
   </trkpt>
   <trkpt lat="35.7340090" lon="128.2509870">
    <ele>215</ele>
   </trkpt>
   <trkpt lat="35.7340260" lon="128.2509520">
    <ele>211</ele>
   </trkpt>
   <trkpt lat="35.7341440" lon="128.2508610">
    <ele>212</ele>
   </trkpt>
   <trkpt lat="35.7342010" lon="128.2507490">
    <ele>208</ele>
   </trkpt>
   <trkpt lat="35.7343640" lon="128.2506190">
    <ele>211</ele>
   </trkpt>
   <trkpt lat="35.7344600" lon="128.2504010">
    <ele>208</ele>
   </trkpt>
   <trkpt lat="35.7345300" lon="128.2502370">
    <ele>207</ele>
   </trkpt>
   <trkpt lat="35.7346320" lon="128.2500900">
    <ele>203</ele>
   </trkpt>
   <trkpt lat="35.7348260" lon="128.2500350">
    <ele>208</ele>
   </trkpt>
   <trkpt lat="35.7349410" lon="128.2499530">
    <ele>208</ele>
   </trkpt>
   <trkpt lat="35.7350450" lon="128.2498440">
    <ele>206</ele>
   </trkpt>
   <trkpt lat="35.7351390" lon="128.2497540">
    <ele>202</ele>
   </trkpt>
   <trkpt lat="35.7351710" lon="128.2496550">
    <ele>202</ele>
   </trkpt>
   <trkpt lat="35.7352240" lon="128.2496150">
    <ele>202</ele>
   </trkpt>
   <trkpt lat="35.7354420" lon="128.2493980">
    <ele>199</ele>
   </trkpt>
   <trkpt lat="35.7355260" lon="128.2492770">
    <ele>201</ele>
   </trkpt>
   <trkpt lat="35.7356180" lon="128.2491040">
    <ele>200</ele>
   </trkpt>
   <trkpt lat="35.7356450" lon="128.2489420">
    <ele>203</ele>
   </trkpt>
   <trkpt lat="35.7357000" lon="128.2486590">
    <ele>202</ele>
   </trkpt>
   <trkpt lat="35.7357000" lon="128.2484780">
    <ele>202</ele>
   </trkpt>
   <trkpt lat="35.7357230" lon="128.2481820">
    <ele>199</ele>
   </trkpt>
   <trkpt lat="35.7357490" lon="128.2480810">
    <ele>199</ele>
   </trkpt>
   <trkpt lat="35.7359210" lon="128.2479170">
    <ele>202</ele>
   </trkpt>
   <trkpt lat="35.7360080" lon="128.2478040">
    <ele>204</ele>
   </trkpt>
   <trkpt lat="35.7360820" lon="128.2477180">
    <ele>209</ele>
   </trkpt>
   <trkpt lat="35.7361120" lon="128.2476000">
    <ele>207</ele>
   </trkpt>
   <trkpt lat="35.7360820" lon="128.2474450">
    <ele>207</ele>
   </trkpt>
   <trkpt lat="35.7359170" lon="128.2471340">
    <ele>197</ele>
   </trkpt>
   <trkpt lat="35.7358230" lon="128.2469060">
    <ele>201</ele>
   </trkpt>
   <trkpt lat="35.7357770" lon="128.2467640">
    <ele>202</ele>
   </trkpt>
   <trkpt lat="35.7355640" lon="128.2465840">
    <ele>204</ele>
   </trkpt>
   <trkpt lat="35.7354200" lon="128.2463990">
    <ele>206</ele>
   </trkpt>
   <trkpt lat="35.7352680" lon="128.2462700">
    <ele>206</ele>
   </trkpt>
   <trkpt lat="35.7351500" lon="128.2459940">
    <ele>205</ele>
   </trkpt>
   <trkpt lat="35.7350910" lon="128.2458300">
    <ele>206</ele>
   </trkpt>
   <trkpt lat="35.7350630" lon="128.2456670">
    <ele>201</ele>
   </trkpt>
   <trkpt lat="35.7350850" lon="128.2455320">
    <ele>198</ele>
   </trkpt>
   <trkpt lat="35.7351370" lon="128.2454410">
    <ele>201</ele>
   </trkpt>
   <trkpt lat="35.7353200" lon="128.2453470">
    <ele>206</ele>
   </trkpt>
   <trkpt lat="35.7354240" lon="128.2453070">
    <ele>211</ele>
   </trkpt>
   <trkpt lat="35.7354940" lon="128.2451570">
    <ele>207</ele>
   </trkpt>
   <trkpt lat="35.7355810" lon="128.2449850">
    <ele>207</ele>
   </trkpt>
   <trkpt lat="35.7356010" lon="128.2448460">
    <ele>207</ele>
   </trkpt>
   <trkpt lat="35.7355510" lon="128.2445510">
    <ele>206</ele>
   </trkpt>
   <trkpt lat="35.7354940" lon="128.2444010">
    <ele>207</ele>
   </trkpt>
   <trkpt lat="35.7353700" lon="128.2441910">
    <ele>209</ele>
   </trkpt>
   <trkpt lat="35.7352720" lon="128.2439960">
    <ele>214</ele>
   </trkpt>
   <trkpt lat="35.7352140" lon="128.2438480">
    <ele>219</ele>
   </trkpt>
   <trkpt lat="35.7351660" lon="128.2436860">
    <ele>222</ele>
   </trkpt>
   <trkpt lat="35.7350110" lon="128.2434810">
    <ele>227</ele>
   </trkpt>
   <trkpt lat="35.7349720" lon="128.2433200">
    <ele>228</ele>
   </trkpt>
   <trkpt lat="35.7348760" lon="128.2431690">
    <ele>230</ele>
   </trkpt>
   <trkpt lat="35.7348060" lon="128.2430700">
    <ele>232</ele>
   </trkpt>
   <trkpt lat="35.7347870" lon="128.2428770">
    <ele>224</ele>
   </trkpt>
   <trkpt lat="35.7348240" lon="128.2427510">
    <ele>224</ele>
   </trkpt>
   <trkpt lat="35.7349760" lon="128.2424990">
    <ele>218</ele>
   </trkpt>
   <trkpt lat="35.7350630" lon="128.2423270">
    <ele>217</ele>
   </trkpt>
   <trkpt lat="35.7351590" lon="128.2421660">
    <ele>218</ele>
   </trkpt>
   <trkpt lat="35.7351910" lon="128.2417830">
    <ele>216</ele>
   </trkpt>
   <trkpt lat="35.7353260" lon="128.2416490">
    <ele>217</ele>
   </trkpt>
   <trkpt lat="35.7353850" lon="128.2415280">
    <ele>218</ele>
   </trkpt>
   <trkpt lat="35.7354180" lon="128.2413350">
    <ele>215</ele>
   </trkpt>
   <trkpt lat="35.7353900" lon="128.2409890">
    <ele>213</ele>
   </trkpt>
   <trkpt lat="35.7353630" lon="128.2408230">
    <ele>211</ele>
   </trkpt>
   <trkpt lat="35.7354070" lon="128.2406000">
    <ele>212</ele>
   </trkpt>
   <trkpt lat="35.7354420" lon="128.2403610">
    <ele>211</ele>
   </trkpt>
   <trkpt lat="35.7355420" lon="128.2401570">
    <ele>212</ele>
   </trkpt>
   <trkpt lat="35.7356900" lon="128.2398730">
    <ele>213</ele>
   </trkpt>
   <trkpt lat="35.7358320" lon="128.2392860">
    <ele>218</ele>
   </trkpt>
   <trkpt lat="35.7358690" lon="128.2391090">
    <ele>218</ele>
   </trkpt>
   <trkpt lat="35.7358790" lon="128.2385940">
    <ele>221</ele>
   </trkpt>
   <trkpt lat="35.7358460" lon="128.2385050">
    <ele>221</ele>
   </trkpt>
   <trkpt lat="35.7358490" lon="128.2384040">
    <ele>224</ele>
   </trkpt>
   <trkpt lat="35.7357960" lon="128.2382620">
    <ele>224</ele>
   </trkpt>
   <trkpt lat="35.7357220" lon="128.2380240">
    <ele>234</ele>
   </trkpt>
   <trkpt lat="35.7357400" lon="128.2379340">
    <ele>234</ele>
   </trkpt>
   <trkpt lat="35.7357040" lon="128.2378140">
    <ele>240</ele>
   </trkpt>
   <trkpt lat="35.7357020" lon="128.2376640">
    <ele>248</ele>
   </trkpt>
   <trkpt lat="35.7356780" lon="128.2375360">
    <ele>254</ele>
   </trkpt>
   <trkpt lat="35.7356470" lon="128.2374300">
    <ele>254</ele>
   </trkpt>
   <trkpt lat="35.7356110" lon="128.2373460">
    <ele>260</ele>
   </trkpt>
   <trkpt lat="35.7356260" lon="128.2371770">
    <ele>263</ele>
   </trkpt>
   <trkpt lat="35.7356000" lon="128.2370080">
    <ele>265</ele>
   </trkpt>
   <trkpt lat="35.7355710" lon="128.2369390">
    <ele>265</ele>
   </trkpt>
   <trkpt lat="35.7354920" lon="128.2368460">
    <ele>266</ele>
   </trkpt>
   <trkpt lat="35.7354270" lon="128.2367270">
    <ele>266</ele>
   </trkpt>
   <trkpt lat="35.7353460" lon="128.2366380">
    <ele>269</ele>
   </trkpt>
   <trkpt lat="35.7352580" lon="128.2365110">
    <ele>270</ele>
   </trkpt>
   <trkpt lat="35.7352320" lon="128.2362830">
    <ele>271</ele>
   </trkpt>
   <trkpt lat="35.7351930" lon="128.2361340">
    <ele>274</ele>
   </trkpt>
   <trkpt lat="35.7351460" lon="128.2360270">
    <ele>274</ele>
   </trkpt>
   <trkpt lat="35.7351400" lon="128.2358580">
    <ele>275</ele>
   </trkpt>
   <trkpt lat="35.7351150" lon="128.2357520">
    <ele>277</ele>
   </trkpt>
   <trkpt lat="35.7351280" lon="128.2356400">
    <ele>279</ele>
   </trkpt>
   <trkpt lat="35.7351160" lon="128.2354780">
    <ele>280</ele>
   </trkpt>
   <trkpt lat="35.7351460" lon="128.2353410">
    <ele>280</ele>
   </trkpt>
   <trkpt lat="35.7351440" lon="128.2352690">
    <ele>282</ele>
   </trkpt>
   <trkpt lat="35.7351760" lon="128.2351790">
    <ele>282</ele>
   </trkpt>
   <trkpt lat="35.7353500" lon="128.2348490">
    <ele>288</ele>
   </trkpt>
   <trkpt lat="35.7354770" lon="128.2347580">
    <ele>293</ele>
   </trkpt>
   <trkpt lat="35.7355250" lon="128.2345540">
    <ele>296</ele>
   </trkpt>
   <trkpt lat="35.7355420" lon="128.2343100">
    <ele>299</ele>
   </trkpt>
   <trkpt lat="35.7355140" lon="128.2341140">
    <ele>300</ele>
   </trkpt>
   <trkpt lat="35.7355180" lon="128.2339180">
    <ele>302</ele>
   </trkpt>
   <trkpt lat="35.7354880" lon="128.2337120">
    <ele>298</ele>
   </trkpt>
   <trkpt lat="35.7355140" lon="128.2335640">
    <ele>305</ele>
   </trkpt>
   <trkpt lat="35.7356180" lon="128.2334920">
    <ele>305</ele>
   </trkpt>
   <trkpt lat="35.7357600" lon="128.2332720">
    <ele>312</ele>
   </trkpt>
   <trkpt lat="35.7358660" lon="128.2331190">
    <ele>316</ele>
   </trkpt>
   <trkpt lat="35.7359640" lon="128.2329690">
    <ele>318</ele>
   </trkpt>
   <trkpt lat="35.7359540" lon="128.2328540">
    <ele>320</ele>
   </trkpt>
   <trkpt lat="35.7358750" lon="128.2323840">
    <ele>326</ele>
   </trkpt>
   <trkpt lat="35.7358690" lon="128.2319310">
    <ele>328</ele>
   </trkpt>
   <trkpt lat="35.7359490" lon="128.2314940">
    <ele>333</ele>
   </trkpt>
   <trkpt lat="35.7360820" lon="128.2310350">
    <ele>338</ele>
   </trkpt>
   <trkpt lat="35.7361340" lon="128.2308530">
    <ele>341</ele>
   </trkpt>
   <trkpt lat="35.7361210" lon="128.2307210">
    <ele>341</ele>
   </trkpt>
   <trkpt lat="35.7360910" lon="128.2305900">
    <ele>344</ele>
   </trkpt>
   <trkpt lat="35.7361470" lon="128.2303190">
    <ele>353</ele>
   </trkpt>
   <trkpt lat="35.7362300" lon="128.2302120">
    <ele>356</ele>
   </trkpt>
   <trkpt lat="35.7364780" lon="128.2300110">
    <ele>369</ele>
   </trkpt>
   <trkpt lat="35.7365260" lon="128.2299170">
    <ele>368</ele>
   </trkpt>
   <trkpt lat="35.7365480" lon="128.2298580">
    <ele>368</ele>
   </trkpt>
   <trkpt lat="35.7364480" lon="128.2296810">
    <ele>375</ele>
   </trkpt>
   <trkpt lat="35.7362950" lon="128.2294630">
    <ele>386</ele>
   </trkpt>
   <trkpt lat="35.7362370" lon="128.2292810">
    <ele>390</ele>
   </trkpt>
   <trkpt lat="35.7361840" lon="128.2289830">
    <ele>394</ele>
   </trkpt>
   <trkpt lat="35.7362000" lon="128.2287550">
    <ele>397</ele>
   </trkpt>
   <trkpt lat="35.7362740" lon="128.2285460">
    <ele>400</ele>
   </trkpt>
   <trkpt lat="35.7362470" lon="128.2284280">
    <ele>404</ele>
   </trkpt>
   <trkpt lat="35.7361970" lon="128.2281330">
    <ele>407</ele>
   </trkpt>
   <trkpt lat="35.7361760" lon="128.2279560">
    <ele>410</ele>
   </trkpt>
   <trkpt lat="35.7361390" lon="128.2277610">
    <ele>407</ele>
   </trkpt>
   <trkpt lat="35.7362040" lon="128.2276520">
    <ele>408</ele>
   </trkpt>
   <trkpt lat="35.7362760" lon="128.2275410">
    <ele>405</ele>
   </trkpt>
   <trkpt lat="35.7363610" lon="128.2274270">
    <ele>398</ele>
   </trkpt>
   <trkpt lat="35.7364970" lon="128.2272470">
    <ele>394</ele>
   </trkpt>
   <trkpt lat="35.7366370" lon="128.2271060">
    <ele>393</ele>
   </trkpt>
   <trkpt lat="35.7366830" lon="128.2270170">
    <ele>391</ele>
   </trkpt>
   <trkpt lat="35.7367450" lon="128.2268800">
    <ele>389</ele>
   </trkpt>
   <trkpt lat="35.7368000" lon="128.2267580">
    <ele>391</ele>
   </trkpt>
   <trkpt lat="35.7368840" lon="128.2265870">
    <ele>390</ele>
   </trkpt>
   <trkpt lat="35.7370010" lon="128.2263860">
    <ele>390</ele>
   </trkpt>
   <trkpt lat="35.7370760" lon="128.2263410">
    <ele>395</ele>
   </trkpt>
   <trkpt lat="35.7371730" lon="128.2262630">
    <ele>395</ele>
   </trkpt>
   <trkpt lat="35.7373350" lon="128.2262340">
    <ele>398</ele>
   </trkpt>
   <trkpt lat="35.7375540" lon="128.2261440">
    <ele>402</ele>
   </trkpt>
   <trkpt lat="35.7376190" lon="128.2260770">
    <ele>405</ele>
   </trkpt>
   <trkpt lat="35.7377020" lon="128.2258800">
    <ele>404</ele>
   </trkpt>
   <trkpt lat="35.7378400" lon="128.2256980">
    <ele>412</ele>
   </trkpt>
   <trkpt lat="35.7378760" lon="128.2256130">
    <ele>418</ele>
   </trkpt>
   <trkpt lat="35.7379650" lon="128.2252240">
    <ele>418</ele>
   </trkpt>
   <trkpt lat="35.7380370" lon="128.2248740">
    <ele>429</ele>
   </trkpt>
   <trkpt lat="35.7380610" lon="128.2246980">
    <ele>429</ele>
   </trkpt>
   <trkpt lat="35.7380500" lon="128.2244480">
    <ele>426</ele>
   </trkpt>
   <trkpt lat="35.7380220" lon="128.2242880">
    <ele>424</ele>
   </trkpt>
   <trkpt lat="35.7379840" lon="128.2241420">
    <ele>417</ele>
   </trkpt>
   <trkpt lat="35.7379700" lon="128.2238640">
    <ele>414</ele>
   </trkpt>
   <trkpt lat="35.7378510" lon="128.2236760">
    <ele>411</ele>
   </trkpt>
   <trkpt lat="35.7377080" lon="128.2234580">
    <ele>407</ele>
   </trkpt>
   <trkpt lat="35.7375430" lon="128.2229970">
    <ele>406</ele>
   </trkpt>
   <trkpt lat="35.7374470" lon="128.2228460">
    <ele>407</ele>
   </trkpt>
   <trkpt lat="35.7372860" lon="128.2226370">
    <ele>416</ele>
   </trkpt>
   <trkpt lat="35.7371120" lon="128.2224280">
    <ele>419</ele>
   </trkpt>
   <trkpt lat="35.7370120" lon="128.2219830">
    <ele>419</ele>
   </trkpt>
   <trkpt lat="35.7369330" lon="128.2217570">
    <ele>420</ele>
   </trkpt>
   <trkpt lat="35.7369110" lon="128.2215190">
    <ele>421</ele>
   </trkpt>
   <trkpt lat="35.7368400" lon="128.2213070">
    <ele>420</ele>
   </trkpt>
   <trkpt lat="35.7366570" lon="128.2211190">
    <ele>417</ele>
   </trkpt>
   <trkpt lat="35.7365170" lon="128.2209960">
    <ele>416</ele>
   </trkpt>
   <trkpt lat="35.7364260" lon="128.2208190">
    <ele>411</ele>
   </trkpt>
   <trkpt lat="35.7364150" lon="128.2203600">
    <ele>411</ele>
   </trkpt>
   <trkpt lat="35.7364240" lon="128.2201350">
    <ele>409</ele>
   </trkpt>
   <trkpt lat="35.7363740" lon="128.2198770">
    <ele>409</ele>
   </trkpt>
   <trkpt lat="35.7362890" lon="128.2196950">
    <ele>410</ele>
   </trkpt>
   <trkpt lat="35.7360910" lon="128.2195580">
    <ele>411</ele>
   </trkpt>
   <trkpt lat="35.7359140" lon="128.2195340">
    <ele>412</ele>
   </trkpt>
   <trkpt lat="35.7358230" lon="128.2194640">
    <ele>412</ele>
   </trkpt>
   <trkpt lat="35.7357340" lon="128.2193330">
    <ele>410</ele>
   </trkpt>
   <trkpt lat="35.7357050" lon="128.2192120">
    <ele>410</ele>
   </trkpt>
   <trkpt lat="35.7358190" lon="128.2187130">
    <ele>407</ele>
   </trkpt>
   <trkpt lat="35.7358600" lon="128.2184340">
    <ele>399</ele>
   </trkpt>
   <trkpt lat="35.7359380" lon="128.2182170">
    <ele>400</ele>
   </trkpt>
   <trkpt lat="35.7360930" lon="128.2179350">
    <ele>398</ele>
   </trkpt>
   <trkpt lat="35.7360970" lon="128.2177980">
    <ele>398</ele>
   </trkpt>
   <trkpt lat="35.7360320" lon="128.2174870">
    <ele>398</ele>
   </trkpt>
   <trkpt lat="35.7360510" lon="128.2171650">
    <ele>398</ele>
   </trkpt>
   <trkpt lat="35.7360230" lon="128.2169290">
    <ele>397</ele>
   </trkpt>
   <trkpt lat="35.7360600" lon="128.2166880">
    <ele>397</ele>
   </trkpt>
   <trkpt lat="35.7360840" lon="128.2163660">
    <ele>400</ele>
   </trkpt>
   <trkpt lat="35.7359840" lon="128.2160550">
    <ele>404</ele>
   </trkpt>
   <trkpt lat="35.7358640" lon="128.2158750">
    <ele>404</ele>
   </trkpt>
   <trkpt lat="35.7357970" lon="128.2156980">
    <ele>407</ele>
   </trkpt>
   <trkpt lat="35.7358290" lon="128.2154680">
    <ele>410</ele>
   </trkpt>
   <trkpt lat="35.7359640" lon="128.2150010">
    <ele>419</ele>
   </trkpt>
   <trkpt lat="35.7360320" lon="128.2146630">
    <ele>421</ele>
   </trkpt>
   <trkpt lat="35.7360120" lon="128.2145580">
    <ele>423</ele>
   </trkpt>
   <trkpt lat="35.7360170" lon="128.2143250">
    <ele>424</ele>
   </trkpt>
   <trkpt lat="35.7360410" lon="128.2139490">
    <ele>426</ele>
   </trkpt>
   <trkpt lat="35.7360850" lon="128.2138970">
    <ele>430</ele>
   </trkpt>
   <trkpt lat="35.7360730" lon="128.2137660">
    <ele>430</ele>
   </trkpt>
   <trkpt lat="35.7360630" lon="128.2135770">
    <ele>430</ele>
   </trkpt>
   <trkpt lat="35.7360830" lon="128.2134020">
    <ele>431</ele>
   </trkpt>
   <trkpt lat="35.7361470" lon="128.2132120">
    <ele>433</ele>
   </trkpt>
   <trkpt lat="35.7362030" lon="128.2131310">
    <ele>436</ele>
   </trkpt>
   <trkpt lat="35.7361910" lon="128.2130820">
    <ele>435</ele>
   </trkpt>
   <trkpt lat="35.7361780" lon="128.2130080">
    <ele>440</ele>
   </trkpt>
   <trkpt lat="35.7361450" lon="128.2129460">
    <ele>440</ele>
   </trkpt>
   <trkpt lat="35.7361670" lon="128.2127320">
    <ele>445</ele>
   </trkpt>
   <trkpt lat="35.7361040" lon="128.2125410">
    <ele>449</ele>
   </trkpt>
   <trkpt lat="35.7360690" lon="128.2123400">
    <ele>454</ele>
   </trkpt>
   <trkpt lat="35.7360620" lon="128.2120160">
    <ele>460</ele>
   </trkpt>
   <trkpt lat="35.7360600" lon="128.2118920">
    <ele>461</ele>
   </trkpt>
   <trkpt lat="35.7360210" lon="128.2117580">
    <ele>464</ele>
   </trkpt>
   <trkpt lat="35.7358640" lon="128.2115380">
    <ele>466</ele>
   </trkpt>
   <trkpt lat="35.7357970" lon="128.2113020">
    <ele>478</ele>
   </trkpt>
   <trkpt lat="35.7358270" lon="128.2110690">
    <ele>482</ele>
   </trkpt>
   <trkpt lat="35.7358140" lon="128.2106930">
    <ele>486</ele>
   </trkpt>
   <trkpt lat="35.7358140" lon="128.2104330">
    <ele>487</ele>
   </trkpt>
   <trkpt lat="35.7357750" lon="128.2101840">
    <ele>485</ele>
   </trkpt>
   <trkpt lat="35.7358600" lon="128.2100440">
    <ele>486</ele>
   </trkpt>
   <trkpt lat="35.7359430" lon="128.2100040">
    <ele>487</ele>
   </trkpt>
   <trkpt lat="35.7359820" lon="128.2098320">
    <ele>488</ele>
   </trkpt>
   <trkpt lat="35.7360320" lon="128.2094190">
    <ele>490</ele>
   </trkpt>
   <trkpt lat="35.7361430" lon="128.2091640">
    <ele>496</ele>
   </trkpt>
   <trkpt lat="35.7363110" lon="128.2090140">
    <ele>501</ele>
   </trkpt>
   <trkpt lat="35.7363650" lon="128.2089260">
    <ele>504</ele>
   </trkpt>
   <trkpt lat="35.7363850" lon="128.2088640">
    <ele>504</ele>
   </trkpt>
   <trkpt lat="35.7364130" lon="128.2082550">
    <ele>501</ele>
   </trkpt>
   <trkpt lat="35.7365670" lon="128.2077400">
    <ele>499</ele>
   </trkpt>
   <trkpt lat="35.7367200" lon="128.2074240">
    <ele>502</ele>
   </trkpt>
   <trkpt lat="35.7368180" lon="128.2070530">
    <ele>505</ele>
   </trkpt>
   <trkpt lat="35.7368740" lon="128.2064370">
    <ele>517</ele>
   </trkpt>
   <trkpt lat="35.7368460" lon="128.2061760">
    <ele>524</ele>
   </trkpt>
   <trkpt lat="35.7368980" lon="128.2060450">
    <ele>530</ele>
   </trkpt>
   <trkpt lat="35.7368160" lon="128.2057630">
    <ele>538</ele>
   </trkpt>
   <trkpt lat="35.7367590" lon="128.2054040">
    <ele>539</ele>
   </trkpt>
   <trkpt lat="35.7367680" lon="128.2052940">
    <ele>538</ele>
   </trkpt>
   <trkpt lat="35.7368700" lon="128.2050040">
    <ele>538</ele>
   </trkpt>
   <trkpt lat="35.7369440" lon="128.2047550">
    <ele>538</ele>
   </trkpt>
   <trkpt lat="35.7371140" lon="128.2045590">
    <ele>541</ele>
   </trkpt>
   <trkpt lat="35.7372710" lon="128.2042830">
    <ele>548</ele>
   </trkpt>
   <trkpt lat="35.7373470" lon="128.2039370">
    <ele>559</ele>
   </trkpt>
   <trkpt lat="35.7373730" lon="128.2037010">
    <ele>558</ele>
   </trkpt>
   <trkpt lat="35.7374710" lon="128.2034380">
    <ele>561</ele>
   </trkpt>
   <trkpt lat="35.7374950" lon="128.2031860">
    <ele>556</ele>
   </trkpt>
   <trkpt lat="35.7374690" lon="128.2030030">
    <ele>555</ele>
   </trkpt>
   <trkpt lat="35.7373750" lon="128.2028530">
    <ele>556</ele>
   </trkpt>
   <trkpt lat="35.7372710" lon="128.2027080">
    <ele>557</ele>
   </trkpt>
   <trkpt lat="35.7372100" lon="128.2025820">
    <ele>557</ele>
   </trkpt>
   <trkpt lat="35.7371920" lon="128.2022040">
    <ele>577</ele>
   </trkpt>
   <trkpt lat="35.7372770" lon="128.2020220">
    <ele>581</ele>
   </trkpt>
   <trkpt lat="35.7372710" lon="128.2018530">
    <ele>585</ele>
   </trkpt>
   <trkpt lat="35.7371900" lon="128.2015950">
    <ele>588</ele>
   </trkpt>
   <trkpt lat="35.7371360" lon="128.2012010">
    <ele>596</ele>
   </trkpt>
   <trkpt lat="35.7370270" lon="128.2010690">
    <ele>597</ele>
   </trkpt>
   <trkpt lat="35.7370640" lon="128.2009510">
    <ele>607</ele>
   </trkpt>
   <trkpt lat="35.7371420" lon="128.2008790">
    <ele>607</ele>
   </trkpt>
   <trkpt lat="35.7371600" lon="128.2007690">
    <ele>613</ele>
   </trkpt>
   <trkpt lat="35.7372730" lon="128.2006400">
    <ele>619</ele>
   </trkpt>
   <trkpt lat="35.7372340" lon="128.2005330">
    <ele>619</ele>
   </trkpt>
   <trkpt lat="35.7372620" lon="128.2003430">
    <ele>622</ele>
   </trkpt>
   <trkpt lat="35.7371100" lon="128.2002540">
    <ele>629</ele>
   </trkpt>
   <trkpt lat="35.7370700" lon="128.2002000">
    <ele>629</ele>
   </trkpt>
   <trkpt lat="35.7371200" lon="128.2000850">
    <ele>637</ele>
   </trkpt>
   <trkpt lat="35.7370970" lon="128.2000380">
    <ele>637</ele>
   </trkpt>
   <trkpt lat="35.7370470" lon="128.2000090">
    <ele>637</ele>
   </trkpt>
   <trkpt lat="35.7369790" lon="128.1998950">
    <ele>646</ele>
   </trkpt>
   <trkpt lat="35.7369620" lon="128.1998280">
    <ele>646</ele>
   </trkpt>
   <trkpt lat="35.7368510" lon="128.1998140">
    <ele>645</ele>
   </trkpt>
   <trkpt lat="35.7368240" lon="128.1996210">
    <ele>664</ele>
   </trkpt>
   <trkpt lat="35.7367460" lon="128.1994600">
    <ele>670</ele>
   </trkpt>
   <trkpt lat="35.7367870" lon="128.1993610">
    <ele>670</ele>
   </trkpt>
   <trkpt lat="35.7367390" lon="128.1992000">
    <ele>677</ele>
   </trkpt>
   <trkpt lat="35.7366850" lon="128.1991250">
    <ele>677</ele>
   </trkpt>
   <trkpt lat="35.7365760" lon="128.1990630">
    <ele>686</ele>
   </trkpt>
   <trkpt lat="35.7364110" lon="128.1988830">
    <ele>692</ele>
   </trkpt>
   <trkpt lat="35.7363870" lon="128.1987520">
    <ele>698</ele>
   </trkpt>
   <trkpt lat="35.7363410" lon="128.1986890">
    <ele>698</ele>
   </trkpt>
   <trkpt lat="35.7363790" lon="128.1986350">
    <ele>698</ele>
   </trkpt>
   <trkpt lat="35.7364380" lon="128.1985910">
    <ele>704</ele>
   </trkpt>
   <trkpt lat="35.7364870" lon="128.1985390">
    <ele>706</ele>
   </trkpt>
   <trkpt lat="35.7365700" lon="128.1984750">
    <ele>706</ele>
   </trkpt>
   <trkpt lat="35.7366420" lon="128.1983980">
    <ele>712</ele>
   </trkpt>
   <trkpt lat="35.7366600" lon="128.1983400">
    <ele>712</ele>
   </trkpt>
   <trkpt lat="35.7366770" lon="128.1982280">
    <ele>713</ele>
   </trkpt>
   <trkpt lat="35.7367200" lon="128.1981020">
    <ele>713</ele>
   </trkpt>
   <trkpt lat="35.7367310" lon="128.1979930">
    <ele>714</ele>
   </trkpt>
   <trkpt lat="35.7367200" lon="128.1979020">
    <ele>714</ele>
   </trkpt>
   <trkpt lat="35.7367220" lon="128.1978190">
    <ele>714</ele>
   </trkpt>
   <trkpt lat="35.7367780" lon="128.1974350">
    <ele>718</ele>
   </trkpt>
   <trkpt lat="35.7368640" lon="128.1973300">
    <ele>718</ele>
   </trkpt>
   <trkpt lat="35.7369810" lon="128.1972100">
    <ele>717</ele>
   </trkpt>
   <trkpt lat="35.7371200" lon="128.1969310">
    <ele>717</ele>
   </trkpt>
   <trkpt lat="35.7372030" lon="128.1967350">
    <ele>719</ele>
   </trkpt>
   <trkpt lat="35.7371880" lon="128.1965020">
    <ele>720</ele>
   </trkpt>
   <trkpt lat="35.7372420" lon="128.1963270">
    <ele>718</ele>
   </trkpt>
   <trkpt lat="35.7375360" lon="128.1959040">
    <ele>716</ele>
   </trkpt>
   <trkpt lat="35.7376190" lon="128.1957050">
    <ele>716</ele>
   </trkpt>
   <trkpt lat="35.7377170" lon="128.1955310">
    <ele>717</ele>
   </trkpt>
   <trkpt lat="35.7379060" lon="128.1952680">
    <ele>728</ele>
   </trkpt>
   <trkpt lat="35.7380460" lon="128.1952200">
    <ele>729</ele>
   </trkpt>
   <trkpt lat="35.7381940" lon="128.1951100">
    <ele>731</ele>
   </trkpt>
   <trkpt lat="35.7382260" lon="128.1949920">
    <ele>735</ele>
   </trkpt>
   <trkpt lat="35.7382050" lon="128.1948250">
    <ele>736</ele>
   </trkpt>
   <trkpt lat="35.7382350" lon="128.1945840">
    <ele>737</ele>
   </trkpt>
   <trkpt lat="35.7382630" lon="128.1944520">
    <ele>738</ele>
   </trkpt>
   <trkpt lat="35.7382810" lon="128.1942630">
    <ele>738</ele>
   </trkpt>
   <trkpt lat="35.7382790" lon="128.1940500">
    <ele>738</ele>
   </trkpt>
   <trkpt lat="35.7383000" lon="128.1937150">
    <ele>741</ele>
   </trkpt>
   <trkpt lat="35.7383130" lon="128.1935810">
    <ele>742</ele>
   </trkpt>
   <trkpt lat="35.7383000" lon="128.1937150">
    <ele>741</ele>
   </trkpt>
   <trkpt lat="35.7382790" lon="128.1940500">
    <ele>738</ele>
   </trkpt>
   <trkpt lat="35.7382810" lon="128.1942630">
    <ele>738</ele>
   </trkpt>
   <trkpt lat="35.7382630" lon="128.1944520">
    <ele>738</ele>
   </trkpt>
   <trkpt lat="35.7382350" lon="128.1945840">
    <ele>737</ele>
   </trkpt>
   <trkpt lat="35.7382050" lon="128.1948250">
    <ele>736</ele>
   </trkpt>
   <trkpt lat="35.7382260" lon="128.1949920">
    <ele>735</ele>
   </trkpt>
   <trkpt lat="35.7381940" lon="128.1951100">
    <ele>731</ele>
   </trkpt>
   <trkpt lat="35.7380460" lon="128.1952200">
    <ele>729</ele>
   </trkpt>
   <trkpt lat="35.7379060" lon="128.1952680">
    <ele>728</ele>
   </trkpt>
   <trkpt lat="35.7377170" lon="128.1955310">
    <ele>717</ele>
   </trkpt>
   <trkpt lat="35.7376190" lon="128.1957050">
    <ele>716</ele>
   </trkpt>
   <trkpt lat="35.7375360" lon="128.1959040">
    <ele>716</ele>
   </trkpt>
   <trkpt lat="35.7372420" lon="128.1963270">
    <ele>718</ele>
   </trkpt>
   <trkpt lat="35.7371880" lon="128.1965020">
    <ele>720</ele>
   </trkpt>
   <trkpt lat="35.7372030" lon="128.1967350">
    <ele>719</ele>
   </trkpt>
   <trkpt lat="35.7371200" lon="128.1969310">
    <ele>717</ele>
   </trkpt>
   <trkpt lat="35.7369810" lon="128.1972100">
    <ele>717</ele>
   </trkpt>
   <trkpt lat="35.7368640" lon="128.1973300">
    <ele>718</ele>
   </trkpt>
   <trkpt lat="35.7367780" lon="128.1974350">
    <ele>718</ele>
   </trkpt>
   <trkpt lat="35.7367220" lon="128.1978190">
    <ele>714</ele>
   </trkpt>
   <trkpt lat="35.7367200" lon="128.1979020">
    <ele>714</ele>
   </trkpt>
   <trkpt lat="35.7367310" lon="128.1979930">
    <ele>714</ele>
   </trkpt>
   <trkpt lat="35.7367200" lon="128.1981020">
    <ele>713</ele>
   </trkpt>
   <trkpt lat="35.7366770" lon="128.1982280">
    <ele>713</ele>
   </trkpt>
   <trkpt lat="35.7366600" lon="128.1983400">
    <ele>712</ele>
   </trkpt>
   <trkpt lat="35.7366420" lon="128.1983980">
    <ele>712</ele>
   </trkpt>
   <trkpt lat="35.7365700" lon="128.1984750">
    <ele>706</ele>
   </trkpt>
   <trkpt lat="35.7364870" lon="128.1985390">
    <ele>706</ele>
   </trkpt>
   <trkpt lat="35.7364380" lon="128.1985910">
    <ele>704</ele>
   </trkpt>
   <trkpt lat="35.7363790" lon="128.1986350">
    <ele>698</ele>
   </trkpt>
   <trkpt lat="35.7363410" lon="128.1986890">
    <ele>698</ele>
   </trkpt>
   <trkpt lat="35.7363870" lon="128.1987520">
    <ele>698</ele>
   </trkpt>
   <trkpt lat="35.7364110" lon="128.1988830">
    <ele>692</ele>
   </trkpt>
   <trkpt lat="35.7365760" lon="128.1990630">
    <ele>686</ele>
   </trkpt>
   <trkpt lat="35.7366850" lon="128.1991250">
    <ele>677</ele>
   </trkpt>
   <trkpt lat="35.7367390" lon="128.1992000">
    <ele>677</ele>
   </trkpt>
   <trkpt lat="35.7367870" lon="128.1993610">
    <ele>670</ele>
   </trkpt>
   <trkpt lat="35.7367460" lon="128.1994600">
    <ele>670</ele>
   </trkpt>
   <trkpt lat="35.7368240" lon="128.1996210">
    <ele>664</ele>
   </trkpt>
   <trkpt lat="35.7368510" lon="128.1998140">
    <ele>645</ele>
   </trkpt>
   <trkpt lat="35.7369620" lon="128.1998280">
    <ele>646</ele>
   </trkpt>
   <trkpt lat="35.7369790" lon="128.1998950">
    <ele>646</ele>
   </trkpt>
   <trkpt lat="35.7370470" lon="128.2000090">
    <ele>637</ele>
   </trkpt>
   <trkpt lat="35.7370970" lon="128.2000380">
    <ele>637</ele>
   </trkpt>
   <trkpt lat="35.7371200" lon="128.2000850">
    <ele>637</ele>
   </trkpt>
   <trkpt lat="35.7370700" lon="128.2002000">
    <ele>629</ele>
   </trkpt>
   <trkpt lat="35.7371100" lon="128.2002540">
    <ele>629</ele>
   </trkpt>
   <trkpt lat="35.7372620" lon="128.2003430">
    <ele>622</ele>
   </trkpt>
   <trkpt lat="35.7372340" lon="128.2005330">
    <ele>619</ele>
   </trkpt>
   <trkpt lat="35.7372730" lon="128.2006400">
    <ele>619</ele>
   </trkpt>
   <trkpt lat="35.7371600" lon="128.2007690">
    <ele>613</ele>
   </trkpt>
   <trkpt lat="35.7371420" lon="128.2008790">
    <ele>607</ele>
   </trkpt>
   <trkpt lat="35.7370640" lon="128.2009510">
    <ele>607</ele>
   </trkpt>
   <trkpt lat="35.7370270" lon="128.2010690">
    <ele>597</ele>
   </trkpt>
   <trkpt lat="35.7371360" lon="128.2012010">
    <ele>596</ele>
   </trkpt>
   <trkpt lat="35.7371900" lon="128.2015950">
    <ele>588</ele>
   </trkpt>
   <trkpt lat="35.7372710" lon="128.2018530">
    <ele>585</ele>
   </trkpt>
   <trkpt lat="35.7372770" lon="128.2020220">
    <ele>581</ele>
   </trkpt>
   <trkpt lat="35.7371920" lon="128.2022040">
    <ele>577</ele>
   </trkpt>
   <trkpt lat="35.7372100" lon="128.2025820">
    <ele>557</ele>
   </trkpt>
   <trkpt lat="35.7372710" lon="128.2027080">
    <ele>557</ele>
   </trkpt>
   <trkpt lat="35.7373750" lon="128.2028530">
    <ele>556</ele>
   </trkpt>
   <trkpt lat="35.7374690" lon="128.2030030">
    <ele>555</ele>
   </trkpt>
   <trkpt lat="35.7374950" lon="128.2031860">
    <ele>556</ele>
   </trkpt>
   <trkpt lat="35.7374710" lon="128.2034380">
    <ele>561</ele>
   </trkpt>
   <trkpt lat="35.7373730" lon="128.2037010">
    <ele>558</ele>
   </trkpt>
   <trkpt lat="35.7373470" lon="128.2039370">
    <ele>559</ele>
   </trkpt>
   <trkpt lat="35.7372710" lon="128.2042830">
    <ele>548</ele>
   </trkpt>
   <trkpt lat="35.7371140" lon="128.2045590">
    <ele>541</ele>
   </trkpt>
   <trkpt lat="35.7369440" lon="128.2047550">
    <ele>538</ele>
   </trkpt>
   <trkpt lat="35.7368700" lon="128.2050040">
    <ele>538</ele>
   </trkpt>
   <trkpt lat="35.7367680" lon="128.2052940">
    <ele>538</ele>
   </trkpt>
   <trkpt lat="35.7367590" lon="128.2054040">
    <ele>539</ele>
   </trkpt>
   <trkpt lat="35.7368160" lon="128.2057630">
    <ele>538</ele>
   </trkpt>
   <trkpt lat="35.7368980" lon="128.2060450">
    <ele>530</ele>
   </trkpt>
   <trkpt lat="35.7368460" lon="128.2061760">
    <ele>524</ele>
   </trkpt>
   <trkpt lat="35.7368740" lon="128.2064370">
    <ele>517</ele>
   </trkpt>
   <trkpt lat="35.7368180" lon="128.2070530">
    <ele>505</ele>
   </trkpt>
   <trkpt lat="35.7367200" lon="128.2074240">
    <ele>502</ele>
   </trkpt>
   <trkpt lat="35.7365670" lon="128.2077400">
    <ele>499</ele>
   </trkpt>
   <trkpt lat="35.7364130" lon="128.2082550">
    <ele>501</ele>
   </trkpt>
   <trkpt lat="35.7363850" lon="128.2088640">
    <ele>504</ele>
   </trkpt>
   <trkpt lat="35.7363650" lon="128.2089260">
    <ele>504</ele>
   </trkpt>
   <trkpt lat="35.7363110" lon="128.2090140">
    <ele>501</ele>
   </trkpt>
   <trkpt lat="35.7361430" lon="128.2091640">
    <ele>496</ele>
   </trkpt>
   <trkpt lat="35.7360320" lon="128.2094190">
    <ele>490</ele>
   </trkpt>
   <trkpt lat="35.7359820" lon="128.2098320">
    <ele>488</ele>
   </trkpt>
   <trkpt lat="35.7359430" lon="128.2100040">
    <ele>487</ele>
   </trkpt>
   <trkpt lat="35.7358600" lon="128.2100440">
    <ele>486</ele>
   </trkpt>
   <trkpt lat="35.7357750" lon="128.2101840">
    <ele>485</ele>
   </trkpt>
   <trkpt lat="35.7358140" lon="128.2104330">
    <ele>487</ele>
   </trkpt>
   <trkpt lat="35.7358140" lon="128.2106930">
    <ele>486</ele>
   </trkpt>
   <trkpt lat="35.7358270" lon="128.2110690">
    <ele>482</ele>
   </trkpt>
   <trkpt lat="35.7357970" lon="128.2113020">
    <ele>478</ele>
   </trkpt>
   <trkpt lat="35.7358640" lon="128.2115380">
    <ele>466</ele>
   </trkpt>
   <trkpt lat="35.7360210" lon="128.2117580">
    <ele>464</ele>
   </trkpt>
   <trkpt lat="35.7360600" lon="128.2118920">
    <ele>461</ele>
   </trkpt>
   <trkpt lat="35.7360620" lon="128.2120160">
    <ele>460</ele>
   </trkpt>
   <trkpt lat="35.7360690" lon="128.2123400">
    <ele>454</ele>
   </trkpt>
   <trkpt lat="35.7361040" lon="128.2125410">
    <ele>449</ele>
   </trkpt>
   <trkpt lat="35.7361670" lon="128.2127320">
    <ele>445</ele>
   </trkpt>
   <trkpt lat="35.7361450" lon="128.2129460">
    <ele>440</ele>
   </trkpt>
   <trkpt lat="35.7361780" lon="128.2130080">
    <ele>440</ele>
   </trkpt>
   <trkpt lat="35.7361910" lon="128.2130820">
    <ele>435</ele>
   </trkpt>
   <trkpt lat="35.7362030" lon="128.2131310">
    <ele>436</ele>
   </trkpt>
   <trkpt lat="35.7361470" lon="128.2132120">
    <ele>433</ele>
   </trkpt>
   <trkpt lat="35.7360830" lon="128.2134020">
    <ele>431</ele>
   </trkpt>
   <trkpt lat="35.7360630" lon="128.2135770">
    <ele>430</ele>
   </trkpt>
   <trkpt lat="35.7360730" lon="128.2137660">
    <ele>430</ele>
   </trkpt>
   <trkpt lat="35.7360850" lon="128.2138970">
    <ele>430</ele>
   </trkpt>
   <trkpt lat="35.7360410" lon="128.2139490">
    <ele>426</ele>
   </trkpt>
   <trkpt lat="35.7360170" lon="128.2143250">
    <ele>424</ele>
   </trkpt>
   <trkpt lat="35.7360120" lon="128.2145580">
    <ele>423</ele>
   </trkpt>
   <trkpt lat="35.7360320" lon="128.2146630">
    <ele>421</ele>
   </trkpt>
   <trkpt lat="35.7359640" lon="128.2150010">
    <ele>419</ele>
   </trkpt>
   <trkpt lat="35.7358290" lon="128.2154680">
    <ele>410</ele>
   </trkpt>
   <trkpt lat="35.7357970" lon="128.2156980">
    <ele>407</ele>
   </trkpt>
   <trkpt lat="35.7358640" lon="128.2158750">
    <ele>404</ele>
   </trkpt>
   <trkpt lat="35.7359840" lon="128.2160550">
    <ele>404</ele>
   </trkpt>
   <trkpt lat="35.7360840" lon="128.2163660">
    <ele>400</ele>
   </trkpt>
   <trkpt lat="35.7360600" lon="128.2166880">
    <ele>397</ele>
   </trkpt>
   <trkpt lat="35.7360230" lon="128.2169290">
    <ele>397</ele>
   </trkpt>
   <trkpt lat="35.7360510" lon="128.2171650">
    <ele>398</ele>
   </trkpt>
   <trkpt lat="35.7360320" lon="128.2174870">
    <ele>398</ele>
   </trkpt>
   <trkpt lat="35.7360970" lon="128.2177980">
    <ele>398</ele>
   </trkpt>
   <trkpt lat="35.7360930" lon="128.2179350">
    <ele>398</ele>
   </trkpt>
   <trkpt lat="35.7359380" lon="128.2182170">
    <ele>400</ele>
   </trkpt>
   <trkpt lat="35.7358600" lon="128.2184340">
    <ele>399</ele>
   </trkpt>
   <trkpt lat="35.7358190" lon="128.2187130">
    <ele>407</ele>
   </trkpt>
   <trkpt lat="35.7357050" lon="128.2192120">
    <ele>410</ele>
   </trkpt>
   <trkpt lat="35.7357340" lon="128.2193330">
    <ele>410</ele>
   </trkpt>
   <trkpt lat="35.7358230" lon="128.2194640">
    <ele>412</ele>
   </trkpt>
   <trkpt lat="35.7359140" lon="128.2195340">
    <ele>412</ele>
   </trkpt>
   <trkpt lat="35.7360910" lon="128.2195580">
    <ele>411</ele>
   </trkpt>
   <trkpt lat="35.7362890" lon="128.2196950">
    <ele>410</ele>
   </trkpt>
   <trkpt lat="35.7363740" lon="128.2198770">
    <ele>409</ele>
   </trkpt>
   <trkpt lat="35.7364240" lon="128.2201350">
    <ele>409</ele>
   </trkpt>
   <trkpt lat="35.7364150" lon="128.2203600">
    <ele>411</ele>
   </trkpt>
   <trkpt lat="35.7364260" lon="128.2208190">
    <ele>411</ele>
   </trkpt>
   <trkpt lat="35.7365170" lon="128.2209960">
    <ele>416</ele>
   </trkpt>
   <trkpt lat="35.7366570" lon="128.2211190">
    <ele>417</ele>
   </trkpt>
   <trkpt lat="35.7368400" lon="128.2213070">
    <ele>420</ele>
   </trkpt>
   <trkpt lat="35.7369110" lon="128.2215190">
    <ele>421</ele>
   </trkpt>
   <trkpt lat="35.7369330" lon="128.2217570">
    <ele>420</ele>
   </trkpt>
   <trkpt lat="35.7370120" lon="128.2219830">
    <ele>419</ele>
   </trkpt>
   <trkpt lat="35.7371120" lon="128.2224280">
    <ele>419</ele>
   </trkpt>
   <trkpt lat="35.7372860" lon="128.2226370">
    <ele>416</ele>
   </trkpt>
   <trkpt lat="35.7374470" lon="128.2228460">
    <ele>407</ele>
   </trkpt>
   <trkpt lat="35.7375430" lon="128.2229970">
    <ele>406</ele>
   </trkpt>
   <trkpt lat="35.7377080" lon="128.2234580">
    <ele>407</ele>
   </trkpt>
   <trkpt lat="35.7378510" lon="128.2236760">
    <ele>411</ele>
   </trkpt>
   <trkpt lat="35.7379700" lon="128.2238640">
    <ele>414</ele>
   </trkpt>
   <trkpt lat="35.7379840" lon="128.2241420">
    <ele>417</ele>
   </trkpt>
   <trkpt lat="35.7380220" lon="128.2242880">
    <ele>424</ele>
   </trkpt>
   <trkpt lat="35.7380500" lon="128.2244480">
    <ele>426</ele>
   </trkpt>
   <trkpt lat="35.7380610" lon="128.2246980">
    <ele>429</ele>
   </trkpt>
   <trkpt lat="35.7380370" lon="128.2248740">
    <ele>429</ele>
   </trkpt>
   <trkpt lat="35.7379650" lon="128.2252240">
    <ele>418</ele>
   </trkpt>
   <trkpt lat="35.7378760" lon="128.2256130">
    <ele>418</ele>
   </trkpt>
   <trkpt lat="35.7378400" lon="128.2256980">
    <ele>412</ele>
   </trkpt>
   <trkpt lat="35.7377020" lon="128.2258800">
    <ele>404</ele>
   </trkpt>
   <trkpt lat="35.7376190" lon="128.2260770">
    <ele>405</ele>
   </trkpt>
   <trkpt lat="35.7375540" lon="128.2261440">
    <ele>402</ele>
   </trkpt>
   <trkpt lat="35.7373350" lon="128.2262340">
    <ele>398</ele>
   </trkpt>
   <trkpt lat="35.7371730" lon="128.2262630">
    <ele>395</ele>
   </trkpt>
   <trkpt lat="35.7370760" lon="128.2263410">
    <ele>395</ele>
   </trkpt>
   <trkpt lat="35.7370010" lon="128.2263860">
    <ele>390</ele>
   </trkpt>
   <trkpt lat="35.7368840" lon="128.2265870">
    <ele>390</ele>
   </trkpt>
   <trkpt lat="35.7368000" lon="128.2267580">
    <ele>391</ele>
   </trkpt>
   <trkpt lat="35.7366830" lon="128.2270170">
    <ele>391</ele>
   </trkpt>
   <trkpt lat="35.7366370" lon="128.2271060">
    <ele>393</ele>
   </trkpt>
   <trkpt lat="35.7364970" lon="128.2272470">
    <ele>394</ele>
   </trkpt>
   <trkpt lat="35.7363610" lon="128.2274270">
    <ele>398</ele>
   </trkpt>
   <trkpt lat="35.7362870" lon="128.2275250">
    <ele>405</ele>
   </trkpt>
   <trkpt lat="35.7362040" lon="128.2276520">
    <ele>408</ele>
   </trkpt>
   <trkpt lat="35.7361390" lon="128.2277610">
    <ele>407</ele>
   </trkpt>
   <trkpt lat="35.7361760" lon="128.2279560">
    <ele>410</ele>
   </trkpt>
   <trkpt lat="35.7361970" lon="128.2281330">
    <ele>407</ele>
   </trkpt>
   <trkpt lat="35.7362470" lon="128.2284280">
    <ele>404</ele>
   </trkpt>
   <trkpt lat="35.7362740" lon="128.2285460">
    <ele>400</ele>
   </trkpt>
   <trkpt lat="35.7362000" lon="128.2287550">
    <ele>397</ele>
   </trkpt>
   <trkpt lat="35.7361840" lon="128.2289830">
    <ele>394</ele>
   </trkpt>
   <trkpt lat="35.7362370" lon="128.2292810">
    <ele>390</ele>
   </trkpt>
   <trkpt lat="35.7362950" lon="128.2294630">
    <ele>386</ele>
   </trkpt>
   <trkpt lat="35.7364480" lon="128.2296810">
    <ele>375</ele>
   </trkpt>
   <trkpt lat="35.7365480" lon="128.2298580">
    <ele>368</ele>
   </trkpt>
   <trkpt lat="35.7365260" lon="128.2299170">
    <ele>368</ele>
   </trkpt>
   <trkpt lat="35.7364780" lon="128.2300110">
    <ele>369</ele>
   </trkpt>
   <trkpt lat="35.7362300" lon="128.2302120">
    <ele>356</ele>
   </trkpt>
   <trkpt lat="35.7361470" lon="128.2303190">
    <ele>353</ele>
   </trkpt>
   <trkpt lat="35.7360910" lon="128.2305900">
    <ele>344</ele>
   </trkpt>
   <trkpt lat="35.7361210" lon="128.2307210">
    <ele>341</ele>
   </trkpt>
   <trkpt lat="35.7361340" lon="128.2308530">
    <ele>341</ele>
   </trkpt>
   <trkpt lat="35.7360820" lon="128.2310350">
    <ele>338</ele>
   </trkpt>
   <trkpt lat="35.7359490" lon="128.2314940">
    <ele>333</ele>
   </trkpt>
   <trkpt lat="35.7358690" lon="128.2319310">
    <ele>328</ele>
   </trkpt>
   <trkpt lat="35.7358750" lon="128.2323840">
    <ele>326</ele>
   </trkpt>
   <trkpt lat="35.7359540" lon="128.2328540">
    <ele>320</ele>
   </trkpt>
   <trkpt lat="35.7359640" lon="128.2329690">
    <ele>318</ele>
   </trkpt>
   <trkpt lat="35.7358660" lon="128.2331190">
    <ele>316</ele>
   </trkpt>
   <trkpt lat="35.7357600" lon="128.2332720">
    <ele>312</ele>
   </trkpt>
   <trkpt lat="35.7356180" lon="128.2334920">
    <ele>305</ele>
   </trkpt>
   <trkpt lat="35.7355140" lon="128.2335640">
    <ele>305</ele>
   </trkpt>
   <trkpt lat="35.7354880" lon="128.2337120">
    <ele>298</ele>
   </trkpt>
   <trkpt lat="35.7355180" lon="128.2339180">
    <ele>302</ele>
   </trkpt>
   <trkpt lat="35.7355140" lon="128.2341140">
    <ele>300</ele>
   </trkpt>
   <trkpt lat="35.7355420" lon="128.2343100">
    <ele>299</ele>
   </trkpt>
   <trkpt lat="35.7355250" lon="128.2345540">
    <ele>296</ele>
   </trkpt>
   <trkpt lat="35.7354770" lon="128.2347580">
    <ele>293</ele>
   </trkpt>
   <trkpt lat="35.7353500" lon="128.2348490">
    <ele>288</ele>
   </trkpt>
   <trkpt lat="35.7351760" lon="128.2351790">
    <ele>282</ele>
   </trkpt>
   <trkpt lat="35.7351440" lon="128.2352690">
    <ele>282</ele>
   </trkpt>
   <trkpt lat="35.7351460" lon="128.2353410">
    <ele>280</ele>
   </trkpt>
   <trkpt lat="35.7351160" lon="128.2354780">
    <ele>280</ele>
   </trkpt>
   <trkpt lat="35.7351280" lon="128.2356400">
    <ele>279</ele>
   </trkpt>
   <trkpt lat="35.7351150" lon="128.2357520">
    <ele>277</ele>
   </trkpt>
   <trkpt lat="35.7351400" lon="128.2358580">
    <ele>275</ele>
   </trkpt>
   <trkpt lat="35.7351460" lon="128.2360270">
    <ele>274</ele>
   </trkpt>
   <trkpt lat="35.7351930" lon="128.2361340">
    <ele>274</ele>
   </trkpt>
   <trkpt lat="35.7352320" lon="128.2362830">
    <ele>271</ele>
   </trkpt>
   <trkpt lat="35.7352580" lon="128.2365110">
    <ele>270</ele>
   </trkpt>
   <trkpt lat="35.7353460" lon="128.2366380">
    <ele>269</ele>
   </trkpt>
   <trkpt lat="35.7354270" lon="128.2367270">
    <ele>266</ele>
   </trkpt>
   <trkpt lat="35.7354920" lon="128.2368460">
    <ele>266</ele>
   </trkpt>
   <trkpt lat="35.7355710" lon="128.2369390">
    <ele>265</ele>
   </trkpt>
   <trkpt lat="35.7356000" lon="128.2370080">
    <ele>265</ele>
   </trkpt>
   <trkpt lat="35.7356260" lon="128.2371770">
    <ele>263</ele>
   </trkpt>
   <trkpt lat="35.7356110" lon="128.2373460">
    <ele>260</ele>
   </trkpt>
   <trkpt lat="35.7356470" lon="128.2374300">
    <ele>254</ele>
   </trkpt>
   <trkpt lat="35.7356780" lon="128.2375360">
    <ele>254</ele>
   </trkpt>
   <trkpt lat="35.7357020" lon="128.2376640">
    <ele>248</ele>
   </trkpt>
   <trkpt lat="35.7357040" lon="128.2378140">
    <ele>240</ele>
   </trkpt>
   <trkpt lat="35.7357400" lon="128.2379340">
    <ele>234</ele>
   </trkpt>
   <trkpt lat="35.7357220" lon="128.2380240">
    <ele>234</ele>
   </trkpt>
   <trkpt lat="35.7357960" lon="128.2382620">
    <ele>224</ele>
   </trkpt>
   <trkpt lat="35.7358490" lon="128.2384040">
    <ele>224</ele>
   </trkpt>
   <trkpt lat="35.7358460" lon="128.2385050">
    <ele>221</ele>
   </trkpt>
   <trkpt lat="35.7358790" lon="128.2385940">
    <ele>221</ele>
   </trkpt>
   <trkpt lat="35.7358690" lon="128.2391090">
    <ele>218</ele>
   </trkpt>
   <trkpt lat="35.7358320" lon="128.2392860">
    <ele>218</ele>
   </trkpt>
   <trkpt lat="35.7356900" lon="128.2398730">
    <ele>213</ele>
   </trkpt>
   <trkpt lat="35.7355420" lon="128.2401570">
    <ele>212</ele>
   </trkpt>
   <trkpt lat="35.7354420" lon="128.2403610">
    <ele>211</ele>
   </trkpt>
   <trkpt lat="35.7354070" lon="128.2406000">
    <ele>212</ele>
   </trkpt>
   <trkpt lat="35.7353630" lon="128.2408230">
    <ele>211</ele>
   </trkpt>
   <trkpt lat="35.7353900" lon="128.2409890">
    <ele>213</ele>
   </trkpt>
   <trkpt lat="35.7354180" lon="128.2413350">
    <ele>215</ele>
   </trkpt>
   <trkpt lat="35.7353850" lon="128.2415280">
    <ele>218</ele>
   </trkpt>
   <trkpt lat="35.7353260" lon="128.2416490">
    <ele>217</ele>
   </trkpt>
   <trkpt lat="35.7351910" lon="128.2417830">
    <ele>216</ele>
   </trkpt>
   <trkpt lat="35.7351590" lon="128.2421660">
    <ele>218</ele>
   </trkpt>
   <trkpt lat="35.7350630" lon="128.2423270">
    <ele>217</ele>
   </trkpt>
   <trkpt lat="35.7349760" lon="128.2424990">
    <ele>218</ele>
   </trkpt>
   <trkpt lat="35.7348240" lon="128.2427510">
    <ele>224</ele>
   </trkpt>
   <trkpt lat="35.7347870" lon="128.2428770">
    <ele>224</ele>
   </trkpt>
   <trkpt lat="35.7348060" lon="128.2430700">
    <ele>232</ele>
   </trkpt>
   <trkpt lat="35.7348760" lon="128.2431690">
    <ele>230</ele>
   </trkpt>
   <trkpt lat="35.7349720" lon="128.2433200">
    <ele>228</ele>
   </trkpt>
   <trkpt lat="35.7350110" lon="128.2434810">
    <ele>227</ele>
   </trkpt>
   <trkpt lat="35.7351660" lon="128.2436860">
    <ele>222</ele>
   </trkpt>
   <trkpt lat="35.7352140" lon="128.2438480">
    <ele>219</ele>
   </trkpt>
   <trkpt lat="35.7352720" lon="128.2439960">
    <ele>214</ele>
   </trkpt>
   <trkpt lat="35.7353700" lon="128.2441910">
    <ele>209</ele>
   </trkpt>
   <trkpt lat="35.7354940" lon="128.2444010">
    <ele>207</ele>
   </trkpt>
   <trkpt lat="35.7355510" lon="128.2445510">
    <ele>206</ele>
   </trkpt>
   <trkpt lat="35.7356010" lon="128.2448460">
    <ele>207</ele>
   </trkpt>
   <trkpt lat="35.7355810" lon="128.2449850">
    <ele>207</ele>
   </trkpt>
   <trkpt lat="35.7354940" lon="128.2451570">
    <ele>207</ele>
   </trkpt>
   <trkpt lat="35.7354240" lon="128.2453070">
    <ele>211</ele>
   </trkpt>
   <trkpt lat="35.7353200" lon="128.2453470">
    <ele>206</ele>
   </trkpt>
   <trkpt lat="35.7351370" lon="128.2454410">
    <ele>201</ele>
   </trkpt>
   <trkpt lat="35.7350850" lon="128.2455320">
    <ele>198</ele>
   </trkpt>
   <trkpt lat="35.7350630" lon="128.2456670">
    <ele>201</ele>
   </trkpt>
   <trkpt lat="35.7350910" lon="128.2458300">
    <ele>206</ele>
   </trkpt>
   <trkpt lat="35.7351500" lon="128.2459940">
    <ele>205</ele>
   </trkpt>
   <trkpt lat="35.7352680" lon="128.2462700">
    <ele>206</ele>
   </trkpt>
   <trkpt lat="35.7354200" lon="128.2463990">
    <ele>206</ele>
   </trkpt>
   <trkpt lat="35.7355640" lon="128.2465840">
    <ele>204</ele>
   </trkpt>
   <trkpt lat="35.7357770" lon="128.2467640">
    <ele>202</ele>
   </trkpt>
   <trkpt lat="35.7358230" lon="128.2469060">
    <ele>201</ele>
   </trkpt>
   <trkpt lat="35.7359170" lon="128.2471340">
    <ele>197</ele>
   </trkpt>
   <trkpt lat="35.7360820" lon="128.2474450">
    <ele>207</ele>
   </trkpt>
   <trkpt lat="35.7361120" lon="128.2476000">
    <ele>207</ele>
   </trkpt>
   <trkpt lat="35.7360820" lon="128.2477180">
    <ele>209</ele>
   </trkpt>
   <trkpt lat="35.7360080" lon="128.2478040">
    <ele>204</ele>
   </trkpt>
   <trkpt lat="35.7359210" lon="128.2479170">
    <ele>202</ele>
   </trkpt>
   <trkpt lat="35.7357490" lon="128.2480810">
    <ele>199</ele>
   </trkpt>
   <trkpt lat="35.7357230" lon="128.2481820">
    <ele>199</ele>
   </trkpt>
   <trkpt lat="35.7357000" lon="128.2484780">
    <ele>202</ele>
   </trkpt>
   <trkpt lat="35.7357000" lon="128.2486590">
    <ele>202</ele>
   </trkpt>
   <trkpt lat="35.7356450" lon="128.2489420">
    <ele>203</ele>
   </trkpt>
   <trkpt lat="35.7356180" lon="128.2491040">
    <ele>200</ele>
   </trkpt>
   <trkpt lat="35.7355260" lon="128.2492770">
    <ele>201</ele>
   </trkpt>
   <trkpt lat="35.7354420" lon="128.2493980">
    <ele>199</ele>
   </trkpt>
   <trkpt lat="35.7352240" lon="128.2496150">
    <ele>202</ele>
   </trkpt>
   <trkpt lat="35.7351710" lon="128.2496550">
    <ele>202</ele>
   </trkpt>
   <trkpt lat="35.7351390" lon="128.2497540">
    <ele>202</ele>
   </trkpt>
   <trkpt lat="35.7350450" lon="128.2498440">
    <ele>206</ele>
   </trkpt>
   <trkpt lat="35.7349410" lon="128.2499530">
    <ele>208</ele>
   </trkpt>
   <trkpt lat="35.7348260" lon="128.2500350">
    <ele>208</ele>
   </trkpt>
   <trkpt lat="35.7346320" lon="128.2500900">
    <ele>203</ele>
   </trkpt>
   <trkpt lat="35.7345300" lon="128.2502370">
    <ele>207</ele>
   </trkpt>
   <trkpt lat="35.7344600" lon="128.2504010">
    <ele>208</ele>
   </trkpt>
   <trkpt lat="35.7343640" lon="128.2506190">
    <ele>211</ele>
   </trkpt>
   <trkpt lat="35.7342010" lon="128.2507490">
    <ele>208</ele>
   </trkpt>
   <trkpt lat="35.7341440" lon="128.2508610">
    <ele>212</ele>
   </trkpt>
   <trkpt lat="35.7340260" lon="128.2509520">
    <ele>211</ele>
   </trkpt>
   <trkpt lat="35.7340090" lon="128.2509870">
    <ele>215</ele>
   </trkpt>
   <trkpt lat="35.7339460" lon="128.2510470">
    <ele>216</ele>
   </trkpt>
   <trkpt lat="35.7338090" lon="128.2511570">
    <ele>222</ele>
   </trkpt>
   <trkpt lat="35.7337180" lon="128.2512350">
    <ele>222</ele>
   </trkpt>
   <trkpt lat="35.7336820" lon="128.2512730">
    <ele>222</ele>
   </trkpt>
   <trkpt lat="35.7336290" lon="128.2512960">
    <ele>222</ele>
   </trkpt>
   <trkpt lat="35.7335690" lon="128.2513500">
    <ele>225</ele>
   </trkpt>
   <trkpt lat="35.7334190" lon="128.2515140">
    <ele>229</ele>
   </trkpt>
   <trkpt lat="35.7333440" lon="128.2515460">
    <ele>229</ele>
   </trkpt>
   <trkpt lat="35.7332710" lon="128.2515700">
    <ele>228</ele>
   </trkpt>
   <trkpt lat="35.7332310" lon="128.2515810">
    <ele>228</ele>
   </trkpt>
   <trkpt lat="35.7331830" lon="128.2516100">
    <ele>228</ele>
   </trkpt>
   <trkpt lat="35.7331460" lon="128.2516320">
    <ele>228</ele>
   </trkpt>
   <trkpt lat="35.7331220" lon="128.2516550">
    <ele>230</ele>
   </trkpt>
   <trkpt lat="35.7330730" lon="128.2516870">
    <ele>230</ele>
   </trkpt>
   <trkpt lat="35.7329620" lon="128.2517870">
    <ele>228</ele>
   </trkpt>
   <trkpt lat="35.7329200" lon="128.2518300">
    <ele>235</ele>
   </trkpt>
   <trkpt lat="35.7328710" lon="128.2519030">
    <ele>235</ele>
   </trkpt>
   <trkpt lat="35.7328500" lon="128.2519230">
    <ele>234</ele>
   </trkpt>
   <trkpt lat="35.7327930" lon="128.2519750">
    <ele>234</ele>
   </trkpt>
   <trkpt lat="35.7327670" lon="128.2519850">
    <ele>234</ele>
   </trkpt>
   <trkpt lat="35.7327280" lon="128.2520090">
    <ele>242</ele>
   </trkpt>
   <trkpt lat="35.7326510" lon="128.2520170">
    <ele>244</ele>
   </trkpt>
   <trkpt lat="35.7326270" lon="128.2520340">
    <ele>244</ele>
   </trkpt>
   <trkpt lat="35.7325990" lon="128.2520610">
    <ele>244</ele>
   </trkpt>
   <trkpt lat="35.7325610" lon="128.2520860">
    <ele>247</ele>
   </trkpt>
   <trkpt lat="35.7325280" lon="128.2520860">
    <ele>247</ele>
   </trkpt>
   <trkpt lat="35.7324910" lon="128.2520900">
    <ele>247</ele>
   </trkpt>
   <trkpt lat="35.7324180" lon="128.2520810">
    <ele>250</ele>
   </trkpt>
   <trkpt lat="35.7323870" lon="128.2520700">
    <ele>250</ele>
   </trkpt>
   <trkpt lat="35.7323710" lon="128.2520370">
    <ele>250</ele>
   </trkpt>
   <trkpt lat="35.7323520" lon="128.2519700">
    <ele>239</ele>
   </trkpt>
   <trkpt lat="35.7323150" lon="128.2518840">
    <ele>239</ele>
   </trkpt>
   <trkpt lat="35.7322820" lon="128.2518290">
    <ele>242</ele>
   </trkpt>
   <trkpt lat="35.7322150" lon="128.2517030">
    <ele>233</ele>
   </trkpt>
   <trkpt lat="35.7321810" lon="128.2516570">
    <ele>233</ele>
   </trkpt>
   <trkpt lat="35.7321240" lon="128.2516200">
    <ele>225</ele>
   </trkpt>
   <trkpt lat="35.7320770" lon="128.2516130">
    <ele>225</ele>
   </trkpt>
   <trkpt lat="35.7320310" lon="128.2516340">
    <ele>225</ele>
   </trkpt>
   <trkpt lat="35.7319750" lon="128.2516490">
    <ele>233</ele>
   </trkpt>
   <trkpt lat="35.7319090" lon="128.2516640">
    <ele>233</ele>
   </trkpt>
   <trkpt lat="35.7318150" lon="128.2516840">
    <ele>232</ele>
   </trkpt>
   <trkpt lat="35.7317170" lon="128.2517220">
    <ele>229</ele>
   </trkpt>
   <trkpt lat="35.7316690" lon="128.2517590">
    <ele>229</ele>
   </trkpt>
   <trkpt lat="35.7315780" lon="128.2518420">
    <ele>235</ele>
   </trkpt>
   <trkpt lat="35.7315570" lon="128.2518790">
    <ele>235</ele>
   </trkpt>
   <trkpt lat="35.7315160" lon="128.2519420">
    <ele>235</ele>
   </trkpt>
   <trkpt lat="35.7314840" lon="128.2520040">
    <ele>246</ele>
   </trkpt>
   <trkpt lat="35.7314440" lon="128.2520140">
    <ele>241</ele>
   </trkpt>
   <trkpt lat="35.7314020" lon="128.2520260">
    <ele>241</ele>
   </trkpt>
   <trkpt lat="35.7313520" lon="128.2520140">
    <ele>241</ele>
   </trkpt>
   <trkpt lat="35.7313110" lon="128.2519940">
    <ele>235</ele>
   </trkpt>
   <trkpt lat="35.7312530" lon="128.2519800">
    <ele>225</ele>
   </trkpt>
   <trkpt lat="35.7311970" lon="128.2519870">
    <ele>225</ele>
   </trkpt>
   <trkpt lat="35.7311280" lon="128.2520110">
    <ele>235</ele>
   </trkpt>
   <trkpt lat="35.7311000" lon="128.2520290">
    <ele>235</ele>
   </trkpt>
   <trkpt lat="35.7310360" lon="128.2520700">
    <ele>236</ele>
   </trkpt>
   <trkpt lat="35.7309760" lon="128.2521110">
    <ele>236</ele>
   </trkpt>
   <trkpt lat="35.7309020" lon="128.2521700">
    <ele>243</ele>
   </trkpt>
   <trkpt lat="35.7308700" lon="128.2521860">
    <ele>243</ele>
   </trkpt>
   <trkpt lat="35.7308170" lon="128.2522070">
    <ele>243</ele>
   </trkpt>
   <trkpt lat="35.7307780" lon="128.2522140">
    <ele>243</ele>
   </trkpt>
   <trkpt lat="35.7307110" lon="128.2522250">
    <ele>243</ele>
   </trkpt>
   <trkpt lat="35.7306570" lon="128.2522290">
    <ele>243</ele>
   </trkpt>
   <trkpt lat="35.7305650" lon="128.2522340">
    <ele>241</ele>
   </trkpt>
   <trkpt lat="35.7305480" lon="128.2522620">
    <ele>241</ele>
   </trkpt>
   <trkpt lat="35.7305290" lon="128.2522970">
    <ele>241</ele>
   </trkpt>
   <trkpt lat="35.7304900" lon="128.2523840">
    <ele>243</ele>
   </trkpt>
   <trkpt lat="35.7304600" lon="128.2524690">
    <ele>240</ele>
   </trkpt>
   <trkpt lat="35.7304170" lon="128.2525370">
    <ele>241</ele>
   </trkpt>
   <trkpt lat="35.7303300" lon="128.2526780">
    <ele>235</ele>
   </trkpt>
   <trkpt lat="35.7302460" lon="128.2527730">
    <ele>235</ele>
   </trkpt>
   <trkpt lat="35.7302140" lon="128.2528360">
    <ele>235</ele>
   </trkpt>
   <trkpt lat="35.7301970" lon="128.2528640">
    <ele>230</ele>
   </trkpt>
   <trkpt lat="35.7301800" lon="128.2529680">
    <ele>230</ele>
   </trkpt>
   <trkpt lat="35.7301510" lon="128.2530120">
    <ele>230</ele>
   </trkpt>
   <trkpt lat="35.7301020" lon="128.2531120">
    <ele>228</ele>
   </trkpt>
   <trkpt lat="35.7300440" lon="128.2532440">
    <ele>221</ele>
   </trkpt>
   <trkpt lat="35.7299910" lon="128.2533620">
    <ele>221</ele>
   </trkpt>
   <trkpt lat="35.7299750" lon="128.2534500">
    <ele>219</ele>
   </trkpt>
   <trkpt lat="35.7298930" lon="128.2535790">
    <ele>212</ele>
   </trkpt>
   <trkpt lat="35.7298670" lon="128.2536530">
    <ele>212</ele>
   </trkpt>
   <trkpt lat="35.7297410" lon="128.2537980">
    <ele>206</ele>
   </trkpt>
   <trkpt lat="35.7296850" lon="128.2539340">
    <ele>207</ele>
   </trkpt>
   <trkpt lat="35.7296590" lon="128.2540190">
    <ele>207</ele>
   </trkpt>
   <trkpt lat="35.7295720" lon="128.2541520">
    <ele>203</ele>
   </trkpt>
   <trkpt lat="35.7294250" lon="128.2542350">
    <ele>198</ele>
   </trkpt>
   <trkpt lat="35.7293520" lon="128.2542720">
    <ele>193</ele>
   </trkpt>
   <trkpt lat="35.7292380" lon="128.2542990">
    <ele>193</ele>
   </trkpt>
   <trkpt lat="35.7291920" lon="128.2542870">
    <ele>188</ele>
   </trkpt>
   <trkpt lat="35.7291690" lon="128.2540940">
    <ele>188</ele>
   </trkpt>
   <trkpt lat="35.7290480" lon="128.2540500">
    <ele>186</ele>
   </trkpt>
   <trkpt lat="35.7289510" lon="128.2540510">
    <ele>183</ele>
   </trkpt>
   <trkpt lat="35.7287560" lon="128.2540420">
    <ele>181</ele>
   </trkpt>
   <trkpt lat="35.7286150" lon="128.2540510">
    <ele>180</ele>
   </trkpt>
   <trkpt lat="35.7284180" lon="128.2540520">
    <ele>177</ele>
   </trkpt>
   <trkpt lat="35.7282960" lon="128.2540190">
    <ele>176</ele>
   </trkpt>
   <trkpt lat="35.7281380" lon="128.2538970">
    <ele>174</ele>
   </trkpt>
   <trkpt lat="35.7280640" lon="128.2538740">
    <ele>173</ele>
   </trkpt>
   <trkpt lat="35.7278500" lon="128.2538890">
    <ele>172</ele>
   </trkpt>
   <trkpt lat="35.7277390" lon="128.2538160">
    <ele>173</ele>
   </trkpt>
   <trkpt lat="35.7276480" lon="128.2537360">
    <ele>174</ele>
   </trkpt>
   <trkpt lat="35.7275450" lon="128.2536090">
    <ele>175</ele>
   </trkpt>
   <trkpt lat="35.7274460" lon="128.2535670">
    <ele>175</ele>
   </trkpt>
   <trkpt lat="35.7273380" lon="128.2535910">
    <ele>177</ele>
   </trkpt>
   <trkpt lat="35.7271930" lon="128.2535210">
    <ele>178</ele>
   </trkpt>
   <trkpt lat="35.7270590" lon="128.2533700">
    <ele>179</ele>
   </trkpt>
   <trkpt lat="35.7270180" lon="128.2532550">
    <ele>179</ele>
   </trkpt>
   <trkpt lat="35.7269670" lon="128.2531430">
    <ele>180</ele>
   </trkpt>
   <trkpt lat="35.7269180" lon="128.2530610">
    <ele>180</ele>
   </trkpt>
   <trkpt lat="35.7268390" lon="128.2530270">
    <ele>182</ele>
   </trkpt>
   <trkpt lat="35.7267020" lon="128.2530270">
    <ele>183</ele>
   </trkpt>
   <trkpt lat="35.7265860" lon="128.2529860">
    <ele>185</ele>
   </trkpt>
   <trkpt lat="35.7264800" lon="128.2529610">
    <ele>184</ele>
   </trkpt>
   <trkpt lat="35.7264170" lon="128.2529360">
    <ele>183</ele>
   </trkpt>
   <trkpt lat="35.7262330" lon="128.2528640">
    <ele>179</ele>
   </trkpt>
   <trkpt lat="35.7262000" lon="128.2528710">
    <ele>179</ele>
   </trkpt>
   <trkpt lat="35.7261440" lon="128.2528820">
    <ele>176</ele>
   </trkpt>
   <trkpt lat="35.7259950" lon="128.2529960">
    <ele>172</ele>
   </trkpt>
   <trkpt lat="35.7257450" lon="128.2531630">
    <ele>165</ele>
   </trkpt>
   <trkpt lat="35.7257490" lon="128.2533200">
    <ele>168</ele>
   </trkpt>
   <trkpt lat="35.7257470" lon="128.2534410">
    <ele>166</ele>
   </trkpt>
   <trkpt lat="35.7257050" lon="128.2534800">
    <ele>166</ele>
   </trkpt>
   <trkpt lat="35.7256610" lon="128.2534720">
    <ele>166</ele>
   </trkpt>
   <trkpt lat="35.7255750" lon="128.2534400">
    <ele>163</ele>
   </trkpt>
   <trkpt lat="35.7255140" lon="128.2534610">
    <ele>163</ele>
   </trkpt>
   <trkpt lat="35.7252610" lon="128.2536330">
    <ele>153</ele>
   </trkpt>
   <trkpt lat="35.7251800" lon="128.2537980">
    <ele>147</ele>
   </trkpt>
   <trkpt lat="35.7251360" lon="128.2539410">
    <ele>145</ele>
   </trkpt>
   <trkpt lat="35.7249520" lon="128.2542520">
    <ele>136</ele>
   </trkpt>
   <trkpt lat="35.7247390" lon="128.2545340">
    <ele>126</ele>
   </trkpt>
   <trkpt lat="35.7247140" lon="128.2547100">
    <ele>125</ele>
   </trkpt>
   <trkpt lat="35.7246990" lon="128.2547820">
    <ele>122</ele>
   </trkpt>
   <trkpt lat="35.7246550" lon="128.2548120">
    <ele>122</ele>
   </trkpt>
   <trkpt lat="35.7245490" lon="128.2547950">
    <ele>120</ele>
   </trkpt>
   <trkpt lat="35.7243810" lon="128.2547930">
    <ele>117</ele>
   </trkpt>
   <trkpt lat="35.7241090" lon="128.2548930">
    <ele>112</ele>
   </trkpt>
   <trkpt lat="35.7240030" lon="128.2549010">
    <ele>109</ele>
   </trkpt>
   <trkpt lat="35.7237920" lon="128.2550340">
    <ele>106</ele>
   </trkpt>
   <trkpt lat="35.7236920" lon="128.2550840">
    <ele>108</ele>
   </trkpt>
   <trkpt lat="35.7234940" lon="128.2551840">
    <ele>105</ele>
   </trkpt>
   <trkpt lat="35.7231150" lon="128.2552660">
    <ele>106</ele>
   </trkpt>
   <trkpt lat="35.7229910" lon="128.2552570">
    <ele>105</ele>
   </trkpt>
   <trkpt lat="35.7228650" lon="128.2552030">
    <ele>104</ele>
   </trkpt>
   <trkpt lat="35.7227430" lon="128.2551440">
    <ele>103</ele>
   </trkpt>
   <trkpt lat="35.7225940" lon="128.2551350">
    <ele>100</ele>
   </trkpt>
   <trkpt lat="35.7225050" lon="128.2551630">
    <ele>98</ele>
   </trkpt>
   <trkpt lat="35.7223870" lon="128.2552500">
    <ele>96</ele>
   </trkpt>
   <trkpt lat="35.7222640" lon="128.2553640">
    <ele>91</ele>
   </trkpt>
   <trkpt lat="35.7222020" lon="128.2554510">
    <ele>89</ele>
   </trkpt>
   <trkpt lat="35.7221290" lon="128.2554420">
    <ele>89</ele>
   </trkpt>
   <trkpt lat="35.7221060" lon="128.2554550">
    <ele>86</ele>
   </trkpt>
   <trkpt lat="35.7220270" lon="128.2555000">
    <ele>86</ele>
   </trkpt>
   <trkpt lat="35.7220050" lon="128.2555360">
    <ele>86</ele>
   </trkpt>
   <trkpt lat="35.7219320" lon="128.2555560">
    <ele>81</ele>
   </trkpt>
   <trkpt lat="35.7218670" lon="128.2555990">
    <ele>81</ele>
   </trkpt>
   <trkpt lat="35.7218380" lon="128.2556380">
    <ele>76</ele>
   </trkpt>
   <trkpt lat="35.7218320" lon="128.2556770">
    <ele>76</ele>
   </trkpt>
   <trkpt lat="35.7218540" lon="128.2557410">
    <ele>81</ele>
   </trkpt>
   <trkpt lat="35.7218950" lon="128.2559190">
    <ele>78</ele>
   </trkpt>
   <trkpt lat="35.7219550" lon="128.2561110">
    <ele>75</ele>
   </trkpt>
   <trkpt lat="35.7220580" lon="128.2562070">
    <ele>74</ele>
   </trkpt>
   <trkpt lat="35.7221210" lon="128.2563150">
    <ele>72</ele>
   </trkpt>
   <trkpt lat="35.7221200" lon="128.2564760">
    <ele>70</ele>
   </trkpt>
   <trkpt lat="35.7221320" lon="128.2565080">
    <ele>70</ele>
   </trkpt>
   <trkpt lat="35.7221200" lon="128.2564760">
    <ele>70</ele>
   </trkpt>
   <trkpt lat="35.7221210" lon="128.2563150">
    <ele>72</ele>
   </trkpt>
   <trkpt lat="35.7220610" lon="128.2562100">
    <ele>74</ele>
   </trkpt>
   <trkpt lat="35.7219550" lon="128.2561110">
    <ele>75</ele>
   </trkpt>
   <trkpt lat="35.7218950" lon="128.2559190">
    <ele>78</ele>
   </trkpt>
   <trkpt lat="35.7218540" lon="128.2557410">
    <ele>81</ele>
   </trkpt>
   <trkpt lat="35.7218320" lon="128.2556770">
    <ele>76</ele>
   </trkpt>
   <trkpt lat="35.7218380" lon="128.2556380">
    <ele>76</ele>
   </trkpt>
   <trkpt lat="35.7218670" lon="128.2555990">
    <ele>81</ele>
   </trkpt>
  </trkseg>
 </trk>
</gpx>
