<?xml version="1.0" encoding="UTF-8"?>
<gpx version="1.1" creator="Runruun GPX Creator" xmlns="http://www.topografix.com/GPX/1/1">
  <trk>
    <name>muju_Baengnyeon_10k</name>
    <trkseg>
      <trkpt lat="35.888077" lon="127.777911"><ele>655.8</ele></trkpt>
      <trkpt lat="35.888076" lon="127.777908"><ele>655.8</ele></trkpt>
      <trkpt lat="35.888052" lon="127.777903"><ele>656.0</ele></trkpt>
      <trkpt lat="35.887934" lon="127.777856"><ele>656.5</ele></trkpt>
      <trkpt lat="35.887854" lon="127.777765"><ele>656.0</ele></trkpt>
      <trkpt lat="35.887646" lon="127.777504"><ele>652.5</ele></trkpt>
      <trkpt lat="35.887438" lon="127.777392"><ele>654.3</ele></trkpt>
      <trkpt lat="35.886472" lon="127.777348"><ele>659.5</ele></trkpt>
      <trkpt lat="35.885496" lon="127.777376"><ele>665.5</ele></trkpt>
      <trkpt lat="35.885477" lon="127.777384"><ele>665.3</ele></trkpt>
      <trkpt lat="35.885478" lon="127.777385"><ele>665.3</ele></trkpt>
      <trkpt lat="35.885477" lon="127.777384"><ele>665.3</ele></trkpt>
      <trkpt lat="35.885134" lon="127.777550"><ele>665.3</ele></trkpt>
      <trkpt lat="35.883489" lon="127.778395"><ele>681.0</ele></trkpt>
      <trkpt lat="35.882892" lon="127.778437"><ele>687.8</ele></trkpt>
      <trkpt lat="35.882692" lon="127.778356"><ele>685.8</ele></trkpt>
      <trkpt lat="35.882486" lon="127.778223"><ele>686.0</ele></trkpt>
      <trkpt lat="35.882009" lon="127.777877"><ele>687.3</ele></trkpt>
      <trkpt lat="35.881445" lon="127.777537"><ele>683.8</ele></trkpt>
      <trkpt lat="35.881317" lon="127.777488"><ele>684.5</ele></trkpt>
      <trkpt lat="35.881159" lon="127.777483"><ele>686.0</ele></trkpt>
      <trkpt lat="35.881082" lon="127.777521"><ele>686.8</ele></trkpt>
      <trkpt lat="35.880989" lon="127.777712"><ele>688.8</ele></trkpt>
      <trkpt lat="35.880981" lon="127.778015"><ele>690.8</ele></trkpt>
      <trkpt lat="35.880995" lon="127.778277"><ele>692.5</ele></trkpt>
      <trkpt lat="35.880962" lon="127.778902"><ele>695.8</ele></trkpt>
      <trkpt lat="35.881037" lon="127.779187"><ele>700.0</ele></trkpt>
      <trkpt lat="35.880924" lon="127.779623"><ele>700.0</ele></trkpt>
      <trkpt lat="35.880823" lon="127.779980"><ele>700.0</ele></trkpt>
      <trkpt lat="35.880772" lon="127.780218"><ele>704.0</ele></trkpt>
      <trkpt lat="35.880723" lon="127.780442"><ele>707.0</ele></trkpt>
      <trkpt lat="35.880725" lon="127.780443"><ele>707.0</ele></trkpt>
      <trkpt lat="35.880723" lon="127.780442"><ele>707.0</ele></trkpt>
      <trkpt lat="35.880631" lon="127.780570"><ele>708.8</ele></trkpt>
      <trkpt lat="35.880420" lon="127.780726"><ele>709.5</ele></trkpt>
      <trkpt lat="35.880348" lon="127.780852"><ele>709.0</ele></trkpt>
      <trkpt lat="35.880312" lon="127.781013"><ele>709.0</ele></trkpt>
      <trkpt lat="35.880410" lon="127.781324"><ele>711.0</ele></trkpt>
      <trkpt lat="35.880353" lon="127.781479"><ele>710.8</ele></trkpt>
      <trkpt lat="35.880145" lon="127.781899"><ele>711.8</ele></trkpt>
      <trkpt lat="35.880023" lon="127.782048"><ele>712.5</ele></trkpt>
      <trkpt lat="35.879934" lon="127.782106"><ele>713.3</ele></trkpt>
      <trkpt lat="35.879631" lon="127.782215"><ele>714.8</ele></trkpt>
      <trkpt lat="35.879324" lon="127.782178"><ele>713.8</ele></trkpt>
      <trkpt lat="35.879130" lon="127.782106"><ele>712.8</ele></trkpt>
      <trkpt lat="35.879070" lon="127.782069"><ele>713.0</ele></trkpt>
      <trkpt lat="35.879068" lon="127.782077"><ele>713.0</ele></trkpt>
      <trkpt lat="35.879070" lon="127.782069"><ele>712.8</ele></trkpt>
      <trkpt lat="35.879067" lon="127.782068"><ele>713.0</ele></trkpt>
      <trkpt lat="35.879006" lon="127.781995"><ele>712.3</ele></trkpt>
      <trkpt lat="35.878824" lon="127.781657"><ele>707.5</ele></trkpt>
      <trkpt lat="35.878647" lon="127.781520"><ele>709.0</ele></trkpt>
      <trkpt lat="35.878255" lon="127.781340"><ele>711.0</ele></trkpt>
      <trkpt lat="35.878000" lon="127.780968"><ele>712.5</ele></trkpt>
      <trkpt lat="35.877840" lon="127.780455"><ele>718.0</ele></trkpt>
      <trkpt lat="35.877763" lon="127.780227"><ele>721.5</ele></trkpt>
      <trkpt lat="35.877558" lon="127.779416"><ele>722.5</ele></trkpt>
      <trkpt lat="35.876918" lon="127.778575"><ele>737.8</ele></trkpt>
      <trkpt lat="35.876507" lon="127.777646"><ele>735.0</ele></trkpt>
      <trkpt lat="35.876506" lon="127.777648"><ele>735.0</ele></trkpt>
      <trkpt lat="35.876507" lon="127.777646"><ele>735.0</ele></trkpt>
      <trkpt lat="35.876507" lon="127.777644"><ele>735.0</ele></trkpt>
      <trkpt lat="35.876365" lon="127.777026"><ele>738.0</ele></trkpt>
      <trkpt lat="35.876073" lon="127.776572"><ele>743.8</ele></trkpt>
      <trkpt lat="35.875666" lon="127.776177"><ele>749.3</ele></trkpt>
      <trkpt lat="35.875163" lon="127.775951"><ele>753.3</ele></trkpt>
      <trkpt lat="35.874346" lon="127.775974"><ele>759.0</ele></trkpt>
      <trkpt lat="35.873536" lon="127.776050"><ele>764.5</ele></trkpt>
      <trkpt lat="35.872593" lon="127.776234"><ele>771.5</ele></trkpt>
      <trkpt lat="35.872590" lon="127.776238"><ele>771.5</ele></trkpt>
      <trkpt lat="35.872593" lon="127.776234"><ele>771.5</ele></trkpt>
      <trkpt lat="35.871900" lon="127.775913"><ele>772.8</ele></trkpt>
      <trkpt lat="35.871540" lon="127.775607"><ele>776.0</ele></trkpt>
      <trkpt lat="35.871351" lon="127.775528"><ele>780.5</ele></trkpt>
      <trkpt lat="35.871165" lon="127.775517"><ele>785.0</ele></trkpt>
      <trkpt lat="35.870478" lon="127.774994"><ele>788.3</ele></trkpt>
      <trkpt lat="35.869665" lon="127.774675"><ele>807.3</ele></trkpt>
      <trkpt lat="35.869334" lon="127.773880"><ele>804.5</ele></trkpt>
      <trkpt lat="35.869206" lon="127.773724"><ele>804.8</ele></trkpt>
      <trkpt lat="35.869086" lon="127.773688"><ele>805.3</ele></trkpt>
      <trkpt lat="35.868923" lon="127.773677"><ele>806.5</ele></trkpt>
      <trkpt lat="35.868656" lon="127.773633"><ele>808.3</ele></trkpt>
      <trkpt lat="35.868420" lon="127.773610"><ele>809.3</ele></trkpt>
      <trkpt lat="35.868283" lon="127.773558"><ele>810.5</ele></trkpt>
      <trkpt lat="35.868143" lon="127.773478"><ele>814.3</ele></trkpt>
      <trkpt lat="35.868047" lon="127.773332"><ele>815.0</ele></trkpt>
      <trkpt lat="35.867972" lon="127.772847"><ele>819.8</ele></trkpt>
      <trkpt lat="35.867972" lon="127.772848"><ele>819.8</ele></trkpt>
      <trkpt lat="35.867972" lon="127.772847"><ele>819.8</ele></trkpt>
      <trkpt lat="35.867996" lon="127.772809"><ele>819.0</ele></trkpt>
      <trkpt lat="35.868132" lon="127.772638"><ele>816.3</ele></trkpt>
      <trkpt lat="35.868175" lon="127.772503"><ele>816.3</ele></trkpt>
      <trkpt lat="35.868151" lon="127.772456"><ele>817.5</ele></trkpt>
      <trkpt lat="35.868022" lon="127.772118"><ele>824.3</ele></trkpt>
      <trkpt lat="35.867941" lon="127.771727"><ele>828.5</ele></trkpt>
      <trkpt lat="35.867927" lon="127.771694"><ele>828.8</ele></trkpt>
      <trkpt lat="35.867864" lon="127.771540"><ele>831.0</ele></trkpt>
      <trkpt lat="35.867821" lon="127.771483"><ele>831.8</ele></trkpt>
      <trkpt lat="35.867738" lon="127.771327"><ele>833.8</ele></trkpt>
      <trkpt lat="35.867648" lon="127.771246"><ele>833.8</ele></trkpt>
      <trkpt lat="35.867486" lon="127.771205"><ele>832.3</ele></trkpt>
      <trkpt lat="35.867337" lon="127.771198"><ele>832.8</ele></trkpt>
      <trkpt lat="35.867115" lon="127.771210"><ele>833.5</ele></trkpt>
      <trkpt lat="35.866878" lon="127.771302"><ele>832.8</ele></trkpt>
      <trkpt lat="35.866635" lon="127.771411"><ele>832.0</ele></trkpt>
      <trkpt lat="35.866444" lon="127.771691"><ele>829.8</ele></trkpt>
      <trkpt lat="35.865859" lon="127.772135"><ele>836.5</ele></trkpt>
      <trkpt lat="35.865858" lon="127.772132"><ele>836.5</ele></trkpt>
      <trkpt lat="35.865859" lon="127.772135"><ele>836.3</ele></trkpt>
      <trkpt lat="35.865853" lon="127.772140"><ele>836.5</ele></trkpt>
      <trkpt lat="35.864878" lon="127.771982"><ele>840.3</ele></trkpt>
      <trkpt lat="35.864463" lon="127.772029"><ele>842.3</ele></trkpt>
      <trkpt lat="35.863931" lon="127.772058"><ele>847.8</ele></trkpt>
      <trkpt lat="35.863715" lon="127.772145"><ele>849.8</ele></trkpt>
      <trkpt lat="35.863373" lon="127.772313"><ele>851.0</ele></trkpt>
      <trkpt lat="35.863010" lon="127.772325"><ele>855.8</ele></trkpt>
      <trkpt lat="35.862406" lon="127.772529"><ele>856.3</ele></trkpt>
      <trkpt lat="35.862019" lon="127.772640"><ele>858.8</ele></trkpt>
      <trkpt lat="35.861798" lon="127.772646"><ele>859.8</ele></trkpt>
      <trkpt lat="35.861619" lon="127.772563"><ele>860.0</ele></trkpt>
      <trkpt lat="35.861535" lon="127.772449"><ele>862.3</ele></trkpt>
      <trkpt lat="35.861266" lon="127.771972"><ele>876.3</ele></trkpt>
      <trkpt lat="35.861199" lon="127.771623"><ele>881.5</ele></trkpt>
      <trkpt lat="35.861221" lon="127.771379"><ele>882.5</ele></trkpt>
      <trkpt lat="35.861470" lon="127.770287"><ele>885.0</ele></trkpt>
      <trkpt lat="35.861466" lon="127.769788"><ele>885.0</ele></trkpt>
      <trkpt lat="35.861474" lon="127.769453"><ele>886.5</ele></trkpt>
      <trkpt lat="35.861476" lon="127.769454"><ele>886.5</ele></trkpt>
      <trkpt lat="35.861474" lon="127.769453"><ele>886.3</ele></trkpt>
      <trkpt lat="35.861475" lon="127.769448"><ele>886.5</ele></trkpt>
      <trkpt lat="35.861312" lon="127.768980"><ele>888.8</ele></trkpt>
      <trkpt lat="35.861104" lon="127.768651"><ele>888.8</ele></trkpt>
      <trkpt lat="35.860929" lon="127.768539"><ele>887.3</ele></trkpt>
      <trkpt lat="35.860838" lon="127.768415"><ele>886.0</ele></trkpt>
      <trkpt lat="35.860514" lon="127.768128"><ele>897.8</ele></trkpt>
      <trkpt lat="35.860434" lon="127.767719"><ele>903.5</ele></trkpt>
      <trkpt lat="35.860351" lon="127.767532"><ele>904.5</ele></trkpt>
      <trkpt lat="35.859971" lon="127.767224"><ele>905.3</ele></trkpt>
      <trkpt lat="35.859484" lon="127.767146"><ele>914.0</ele></trkpt>
      <trkpt lat="35.859423" lon="127.767179"><ele>914.3</ele></trkpt>
      <trkpt lat="35.859327" lon="127.767231"><ele>914.3</ele></trkpt>
      <trkpt lat="35.859165" lon="127.767364"><ele>913.3</ele></trkpt>
      <trkpt lat="35.859144" lon="127.767364"><ele>914.0</ele></trkpt>
      <trkpt lat="35.859102" lon="127.767320"><ele>916.3</ele></trkpt>
      <trkpt lat="35.859113" lon="127.767242"><ele>918.0</ele></trkpt>
      <trkpt lat="35.859242" lon="127.767029"><ele>920.5</ele></trkpt>
      <trkpt lat="35.859443" lon="127.766579"><ele>927.5</ele></trkpt>
      <trkpt lat="35.859722" lon="127.766411"><ele>925.3</ele></trkpt>
      <trkpt lat="35.859748" lon="127.766427"><ele>924.3</ele></trkpt>
      <trkpt lat="35.859749" lon="127.766429"><ele>924.3</ele></trkpt>
      <trkpt lat="35.859748" lon="127.766427"><ele>924.3</ele></trkpt>
      <trkpt lat="35.859752" lon="127.766429"><ele>924.3</ele></trkpt>
      <trkpt lat="35.859788" lon="127.766446"><ele>922.8</ele></trkpt>
      <trkpt lat="35.859954" lon="127.766043"><ele>927.8</ele></trkpt>
      <trkpt lat="35.860030" lon="127.765964"><ele>928.5</ele></trkpt>
      <trkpt lat="35.860121" lon="127.765994"><ele>929.0</ele></trkpt>
      <trkpt lat="35.860123" lon="127.765992"><ele>929.0</ele></trkpt>
      <trkpt lat="35.860121" lon="127.765994"><ele>928.8</ele></trkpt>
      <trkpt lat="35.860030" lon="127.765964"><ele>928.5</ele></trkpt>
      <trkpt lat="35.859954" lon="127.766043"><ele>927.8</ele></trkpt>
      <trkpt lat="35.859788" lon="127.766446"><ele>922.8</ele></trkpt>
      <trkpt lat="35.859752" lon="127.766429"><ele>924.3</ele></trkpt>
      <trkpt lat="35.859722" lon="127.766411"><ele>925.3</ele></trkpt>
      <trkpt lat="35.859443" lon="127.766579"><ele>927.5</ele></trkpt>
      <trkpt lat="35.859242" lon="127.767029"><ele>920.5</ele></trkpt>
      <trkpt lat="35.859113" lon="127.767242"><ele>918.0</ele></trkpt>
      <trkpt lat="35.859102" lon="127.767316"><ele>916.3</ele></trkpt>
      <trkpt lat="35.859106" lon="127.767317"><ele>916.3</ele></trkpt>
      <trkpt lat="35.859102" lon="127.767316"><ele>916.3</ele></trkpt>
      <trkpt lat="35.859102" lon="127.767320"><ele>916.3</ele></trkpt>
      <trkpt lat="35.859144" lon="127.767364"><ele>914.0</ele></trkpt>
      <trkpt lat="35.859165" lon="127.767364"><ele>913.3</ele></trkpt>
      <trkpt lat="35.859327" lon="127.767231"><ele>914.3</ele></trkpt>
      <trkpt lat="35.859423" lon="127.767179"><ele>914.3</ele></trkpt>
      <trkpt lat="35.859484" lon="127.767146"><ele>914.0</ele></trkpt>
      <trkpt lat="35.859971" lon="127.767224"><ele>905.3</ele></trkpt>
      <trkpt lat="35.860351" lon="127.767532"><ele>904.5</ele></trkpt>
      <trkpt lat="35.860434" lon="127.767719"><ele>903.5</ele></trkpt>
      <trkpt lat="35.860513" lon="127.768126"><ele>897.8</ele></trkpt>
      <trkpt lat="35.860509" lon="127.768129"><ele>897.8</ele></trkpt>
      <trkpt lat="35.860513" lon="127.768126"><ele>897.8</ele></trkpt>
      <trkpt lat="35.860514" lon="127.768128"><ele>897.8</ele></trkpt>
      <trkpt lat="35.860838" lon="127.768415"><ele>886.0</ele></trkpt>
      <trkpt lat="35.860929" lon="127.768539"><ele>887.3</ele></trkpt>
      <trkpt lat="35.861104" lon="127.768651"><ele>888.8</ele></trkpt>
      <trkpt lat="35.861312" lon="127.768980"><ele>888.8</ele></trkpt>
      <trkpt lat="35.861475" lon="127.769448"><ele>886.5</ele></trkpt>
      <trkpt lat="35.861466" lon="127.769788"><ele>885.0</ele></trkpt>
      <trkpt lat="35.861470" lon="127.770287"><ele>885.0</ele></trkpt>
      <trkpt lat="35.861221" lon="127.771379"><ele>882.5</ele></trkpt>
      <trkpt lat="35.861199" lon="127.771623"><ele>881.5</ele></trkpt>
      <trkpt lat="35.861266" lon="127.771972"><ele>876.3</ele></trkpt>
      <trkpt lat="35.861535" lon="127.772449"><ele>862.3</ele></trkpt>
      <trkpt lat="35.861613" lon="127.772556"><ele>860.0</ele></trkpt>
      <trkpt lat="35.861613" lon="127.772558"><ele>860.0</ele></trkpt>
      <trkpt lat="35.861613" lon="127.772556"><ele>860.0</ele></trkpt>
      <trkpt lat="35.861619" lon="127.772563"><ele>860.0</ele></trkpt>
      <trkpt lat="35.861798" lon="127.772646"><ele>859.8</ele></trkpt>
      <trkpt lat="35.862019" lon="127.772640"><ele>858.8</ele></trkpt>
      <trkpt lat="35.862406" lon="127.772529"><ele>856.3</ele></trkpt>
      <trkpt lat="35.863010" lon="127.772325"><ele>855.8</ele></trkpt>
      <trkpt lat="35.863373" lon="127.772313"><ele>851.0</ele></trkpt>
      <trkpt lat="35.863715" lon="127.772145"><ele>849.8</ele></trkpt>
      <trkpt lat="35.863931" lon="127.772058"><ele>847.8</ele></trkpt>
      <trkpt lat="35.864463" lon="127.772029"><ele>842.3</ele></trkpt>
      <trkpt lat="35.864878" lon="127.771982"><ele>840.3</ele></trkpt>
      <trkpt lat="35.865853" lon="127.772140"><ele>836.5</ele></trkpt>
      <trkpt lat="35.865852" lon="127.772133"><ele>836.5</ele></trkpt>
      <trkpt lat="35.865854" lon="127.772138"><ele>836.3</ele></trkpt>
      <trkpt lat="35.866444" lon="127.771691"><ele>829.8</ele></trkpt>
      <trkpt lat="35.866635" lon="127.771411"><ele>832.0</ele></trkpt>
      <trkpt lat="35.866878" lon="127.771302"><ele>832.8</ele></trkpt>
      <trkpt lat="35.867115" lon="127.771210"><ele>833.5</ele></trkpt>
      <trkpt lat="35.867337" lon="127.771198"><ele>832.8</ele></trkpt>
      <trkpt lat="35.867486" lon="127.771205"><ele>832.3</ele></trkpt>
      <trkpt lat="35.867648" lon="127.771246"><ele>833.8</ele></trkpt>
      <trkpt lat="35.867738" lon="127.771327"><ele>833.8</ele></trkpt>
      <trkpt lat="35.867821" lon="127.771483"><ele>831.8</ele></trkpt>
      <trkpt lat="35.867864" lon="127.771540"><ele>831.0</ele></trkpt>
      <trkpt lat="35.867927" lon="127.771694"><ele>828.8</ele></trkpt>
      <trkpt lat="35.867941" lon="127.771727"><ele>828.5</ele></trkpt>
      <trkpt lat="35.868022" lon="127.772118"><ele>824.3</ele></trkpt>
      <trkpt lat="35.868151" lon="127.772456"><ele>817.5</ele></trkpt>
      <trkpt lat="35.868175" lon="127.772503"><ele>816.3</ele></trkpt>
      <trkpt lat="35.868132" lon="127.772638"><ele>816.3</ele></trkpt>
      <trkpt lat="35.867996" lon="127.772809"><ele>819.0</ele></trkpt>
      <trkpt lat="35.867972" lon="127.772847"><ele>819.8</ele></trkpt>
      <trkpt lat="35.867973" lon="127.772850"><ele>819.8</ele></trkpt>
      <trkpt lat="35.867972" lon="127.772847"><ele>819.8</ele></trkpt>
      <trkpt lat="35.868047" lon="127.773332"><ele>815.0</ele></trkpt>
      <trkpt lat="35.868143" lon="127.773478"><ele>814.3</ele></trkpt>
      <trkpt lat="35.868283" lon="127.773558"><ele>810.5</ele></trkpt>
      <trkpt lat="35.868420" lon="127.773610"><ele>809.3</ele></trkpt>
      <trkpt lat="35.868656" lon="127.773633"><ele>808.3</ele></trkpt>
      <trkpt lat="35.868923" lon="127.773677"><ele>806.5</ele></trkpt>
      <trkpt lat="35.869086" lon="127.773688"><ele>805.3</ele></trkpt>
      <trkpt lat="35.869206" lon="127.773724"><ele>804.8</ele></trkpt>
      <trkpt lat="35.869334" lon="127.773880"><ele>804.5</ele></trkpt>
      <trkpt lat="35.869665" lon="127.774675"><ele>807.3</ele></trkpt>
      <trkpt lat="35.870478" lon="127.774994"><ele>788.3</ele></trkpt>
      <trkpt lat="35.871155" lon="127.775509"><ele>785.0</ele></trkpt>
      <trkpt lat="35.871153" lon="127.775516"><ele>785.0</ele></trkpt>
      <trkpt lat="35.871155" lon="127.775509"><ele>785.0</ele></trkpt>
      <trkpt lat="35.871165" lon="127.775517"><ele>785.0</ele></trkpt>
      <trkpt lat="35.871351" lon="127.775528"><ele>780.5</ele></trkpt>
      <trkpt lat="35.871540" lon="127.775607"><ele>776.0</ele></trkpt>
      <trkpt lat="35.871900" lon="127.775913"><ele>772.8</ele></trkpt>
      <trkpt lat="35.872593" lon="127.776234"><ele>771.5</ele></trkpt>
      <trkpt lat="35.873536" lon="127.776050"><ele>764.5</ele></trkpt>
      <trkpt lat="35.874346" lon="127.775974"><ele>759.0</ele></trkpt>
      <trkpt lat="35.875163" lon="127.775951"><ele>753.3</ele></trkpt>
      <trkpt lat="35.875666" lon="127.776177"><ele>749.3</ele></trkpt>
      <trkpt lat="35.876073" lon="127.776572"><ele>743.8</ele></trkpt>
      <trkpt lat="35.876365" lon="127.777026"><ele>738.0</ele></trkpt>
      <trkpt lat="35.876507" lon="127.777644"><ele>735.0</ele></trkpt>
      <trkpt lat="35.876918" lon="127.778575"><ele>737.8</ele></trkpt>
      <trkpt lat="35.876919" lon="127.778579"><ele>737.8</ele></trkpt>
      <trkpt lat="35.876919" lon="127.778577"><ele>737.5</ele></trkpt>
      <trkpt lat="35.877558" lon="127.779416"><ele>722.5</ele></trkpt>
      <trkpt lat="35.877763" lon="127.780227"><ele>721.5</ele></trkpt>
      <trkpt lat="35.877840" lon="127.780455"><ele>718.0</ele></trkpt>
      <trkpt lat="35.878000" lon="127.780968"><ele>712.5</ele></trkpt>
      <trkpt lat="35.878255" lon="127.781340"><ele>711.0</ele></trkpt>
      <trkpt lat="35.878647" lon="127.781520"><ele>709.0</ele></trkpt>
      <trkpt lat="35.878824" lon="127.781657"><ele>707.5</ele></trkpt>
      <trkpt lat="35.879006" lon="127.781995"><ele>712.3</ele></trkpt>
      <trkpt lat="35.879067" lon="127.782068"><ele>713.0</ele></trkpt>
      <trkpt lat="35.879130" lon="127.782106"><ele>712.8</ele></trkpt>
      <trkpt lat="35.879324" lon="127.782178"><ele>713.8</ele></trkpt>
      <trkpt lat="35.879631" lon="127.782215"><ele>714.8</ele></trkpt>
      <trkpt lat="35.879934" lon="127.782106"><ele>713.3</ele></trkpt>
      <trkpt lat="35.880023" lon="127.782048"><ele>712.5</ele></trkpt>
      <trkpt lat="35.880145" lon="127.781899"><ele>711.8</ele></trkpt>
      <trkpt lat="35.880353" lon="127.781479"><ele>710.8</ele></trkpt>
      <trkpt lat="35.880410" lon="127.781324"><ele>711.0</ele></trkpt>
      <trkpt lat="35.880312" lon="127.781013"><ele>709.0</ele></trkpt>
      <trkpt lat="35.880348" lon="127.780852"><ele>709.0</ele></trkpt>
      <trkpt lat="35.880420" lon="127.780726"><ele>709.5</ele></trkpt>
      <trkpt lat="35.880631" lon="127.780570"><ele>708.8</ele></trkpt>
      <trkpt lat="35.880723" lon="127.780442"><ele>707.0</ele></trkpt>
      <trkpt lat="35.880728" lon="127.780440"><ele>707.0</ele></trkpt>
      <trkpt lat="35.880723" lon="127.780438"><ele>706.8</ele></trkpt>
      <trkpt lat="35.880772" lon="127.780218"><ele>704.0</ele></trkpt>
      <trkpt lat="35.880823" lon="127.779980"><ele>700.0</ele></trkpt>
      <trkpt lat="35.880924" lon="127.779623"><ele>700.0</ele></trkpt>
      <trkpt lat="35.881037" lon="127.779187"><ele>700.0</ele></trkpt>
      <trkpt lat="35.880962" lon="127.778902"><ele>695.8</ele></trkpt>
      <trkpt lat="35.880995" lon="127.778277"><ele>692.5</ele></trkpt>
      <trkpt lat="35.880981" lon="127.778015"><ele>690.8</ele></trkpt>
      <trkpt lat="35.880989" lon="127.777712"><ele>688.8</ele></trkpt>
      <trkpt lat="35.881082" lon="127.777521"><ele>686.8</ele></trkpt>
      <trkpt lat="35.881159" lon="127.777483"><ele>686.0</ele></trkpt>
      <trkpt lat="35.881317" lon="127.777488"><ele>684.5</ele></trkpt>
      <trkpt lat="35.881445" lon="127.777537"><ele>683.8</ele></trkpt>
      <trkpt lat="35.882009" lon="127.777877"><ele>687.3</ele></trkpt>
      <trkpt lat="35.882486" lon="127.778223"><ele>686.0</ele></trkpt>
      <trkpt lat="35.882692" lon="127.778356"><ele>685.8</ele></trkpt>
      <trkpt lat="35.882892" lon="127.778437"><ele>687.8</ele></trkpt>
      <trkpt lat="35.883489" lon="127.778395"><ele>681.0</ele></trkpt>
      <trkpt lat="35.885134" lon="127.777550"><ele>665.3</ele></trkpt>
      <trkpt lat="35.885496" lon="127.777376"><ele>665.5</ele></trkpt>
      <trkpt lat="35.885921" lon="127.777363"><ele>659.5</ele></trkpt>
      <trkpt lat="35.885921" lon="127.777358"><ele>659.5</ele></trkpt>
      <trkpt lat="35.885921" lon="127.777363"><ele>662.8</ele></trkpt>
      <trkpt lat="35.886472" lon="127.777348"><ele>659.5</ele></trkpt>
      <trkpt lat="35.887438" lon="127.777392"><ele>654.3</ele></trkpt>
      <trkpt lat="35.887646" lon="127.777504"><ele>652.5</ele></trkpt>
      <trkpt lat="35.887854" lon="127.777765"><ele>656.0</ele></trkpt>
      <trkpt lat="35.887934" lon="127.777856"><ele>656.5</ele></trkpt>
      <trkpt lat="35.888052" lon="127.777903"><ele>656.0</ele></trkpt>
      <trkpt lat="35.888109" lon="127.777916"><ele>652.8</ele></trkpt>
      <trkpt lat="35.888109" lon="127.777924"><ele>652.8</ele></trkpt>
    </trkseg>
  </trk>
</gpx>