<?xml version="1.0" encoding="utf-8"?>
<gpx xmlns:xsd="http://www.w3.org/2001/XMLSchema" xmlns:xsi="http://www.w3.org/2001/XMLSchema-instance" version="1.1" creator="ROUTEEDITOR1" xmlns="http://www.topografix.com/GPX/1/1">
  <metadata>
    <desc>Created/Modified by using GPS Route Editor.</desc>
    <link href="http://www.gpsnote.net">
      <text>GpsNote.NET</text>
    </link>
  </metadata>
  <wpt lat="37.3075633684084" lon="127.273837924004">
    <name>CP</name>
    <desc />
  </wpt>
  <wpt lat="37.337766407056" lon="127.269471287727">
    <name>START</name>
    <desc />
  </wpt>
  <wpt lat="37.3377472140648" lon="127.269495427608">
    <name>FINISH</name>
    <desc />
  </wpt>
  <trk>
    <trkseg>
      <trkpt lat="37.3377578768383" lon="127.269476652145">
        <ele>112</ele>
      </trkpt>
      <trkpt lat="37.3389435678085" lon="127.270935773849">
        <ele>120</ele>
      </trkpt>
      <trkpt lat="37.3390885790886" lon="127.271284461021">
        <ele>121</ele>
      </trkpt>
      <trkpt lat="37.3391312294118" lon="127.271702885628">
        <ele>125</ele>
      </trkpt>
      <trkpt lat="37.3392591802361" lon="127.274819612503">
        <ele>151</ele>
      </trkpt>
      <trkpt lat="37.3397752463482" lon="127.275806665421">
        <ele>161</ele>
      </trkpt>
      <trkpt lat="37.3394553710767" lon="127.276214361191">
        <ele>159</ele>
      </trkpt>
      <trkpt lat="37.3393828658258" lon="127.276664972305">
        <ele>170</ele>
      </trkpt>
      <trkpt lat="37.3397411263842" lon="127.277458906174">
        <ele>193</ele>
      </trkpt>
      <trkpt lat="37.3397880413307" lon="127.277743220329">
        <ele>198</ele>
      </trkpt>
      <trkpt lat="37.339689946409" lon="127.278274297714">
        <ele>204</ele>
      </trkpt>
      <trkpt lat="37.3396728864095" lon="127.278655171394">
        <ele>211</ele>
      </trkpt>
      <trkpt lat="37.3398306912567" lon="127.279041409492">
        <ele>221</ele>
      </trkpt>
      <trkpt lat="37.3398733411585" lon="127.28068292141">
        <ele>268</ele>
      </trkpt>
      <trkpt lat="37.3397240663963" lon="127.281149625778">
        <ele>277</ele>
      </trkpt>
      <trkpt lat="37.3396856814095" lon="127.281777262688">
        <ele>296</ele>
      </trkpt>
      <trkpt lat="37.3398690761694" lon="127.282077670097">
        <ele>308</ele>
      </trkpt>
      <trkpt lat="37.3398904011124" lon="127.283172011375">
        <ele>327</ele>
      </trkpt>
      <trkpt lat="37.3399884957723" lon="127.283370494843">
        <ele>327</ele>
      </trkpt>
      <trkpt lat="37.3398861361243" lon="127.283483147621">
        <ele>329</ele>
      </trkpt>
      <trkpt lat="37.3392719753066" lon="127.283467054367">
        <ele>344</ele>
      </trkpt>
      <trkpt lat="37.3391312294118" lon="127.283552885056">
        <ele>347</ele>
      </trkpt>
      <trkpt lat="37.3389904832533" lon="127.283520698547">
        <ele>347</ele>
      </trkpt>
      <trkpt lat="37.3385597130686" lon="127.283724546432">
        <ele>364</ele>
      </trkpt>
      <trkpt lat="37.338316604052" lon="127.283601164818">
        <ele>366</ele>
      </trkpt>
      <trkpt lat="37.3380436386043" lon="127.283520698547">
        <ele>370</ele>
      </trkpt>
      <trkpt lat="37.3373441601164" lon="127.28324174881">
        <ele>376</ele>
      </trkpt>
      <trkpt lat="37.3367470391801" lon="127.2832685709">
        <ele>387</ele>
      </trkpt>
      <trkpt lat="37.3363589080259" lon="127.283145189285">
        <ele>395</ele>
      </trkpt>
      <trkpt lat="37.3361328526932" lon="127.282844781876">
        <ele>400</ele>
      </trkpt>
      <trkpt lat="37.3355442525974" lon="127.282292246819">
        <ele>401</ele>
      </trkpt>
      <trkpt lat="37.3349684436927" lon="127.281761169434">
        <ele>391</ele>
      </trkpt>
      <trkpt lat="37.3346570785204" lon="127.281208634377">
        <ele>388</ele>
      </trkpt>
      <trkpt lat="37.3343115896269" lon="127.281036973">
        <ele>386</ele>
      </trkpt>
      <trkpt lat="37.3341068547179" lon="127.281106710434">
        <ele>384</ele>
      </trkpt>
      <trkpt lat="37.3337357712732" lon="127.28109061718">
        <ele>383</ele>
      </trkpt>
      <trkpt lat="37.3335992803497" lon="127.280961871147">
        <ele>384</ele>
      </trkpt>
      <trkpt lat="37.3331343562802" lon="127.280827760696">
        <ele>394</ele>
      </trkpt>
      <trkpt lat="37.332332462133" lon="127.280318140984">
        <ele>410</ele>
      </trkpt>
      <trkpt lat="37.3316841159262" lon="127.28010892868">
        <ele>427</ele>
      </trkpt>
      <trkpt lat="37.3310784190197" lon="127.279888987541">
        <ele>448</ele>
      </trkpt>
      <trkpt lat="37.3306774620432" lon="127.279888987541">
        <ele>462</ele>
      </trkpt>
      <trkpt lat="37.3305196379655" lon="127.279824614525">
        <ele>468</ele>
      </trkpt>
      <trkpt lat="37.3302551752543" lon="127.279921174049">
        <ele>475</ele>
      </trkpt>
      <trkpt lat="37.3301101469206" lon="127.279803156853">
        <ele>479</ele>
      </trkpt>
      <trkpt lat="37.3298243549731" lon="127.279878258705">
        <ele>487</ele>
      </trkpt>
      <trkpt lat="37.3295342963625" lon="127.279744148254">
        <ele>500</ele>
      </trkpt>
      <trkpt lat="37.3293935322214" lon="127.279502749443">
        <ele>501</ele>
      </trkpt>
      <trkpt lat="37.3292612990002" lon="127.279486656189">
        <ele>509</ele>
      </trkpt>
      <trkpt lat="37.3292229086665" lon="127.279379367828">
        <ele>509</ele>
      </trkpt>
      <trkpt lat="37.3292485022245" lon="127.279272079468">
        <ele>506</ele>
      </trkpt>
      <trkpt lat="37.3291802527173" lon="127.279245257378">
        <ele>511</ele>
      </trkpt>
      <trkpt lat="37.3287153012996" lon="127.279438376427">
        <ele>537</ele>
      </trkpt>
      <trkpt lat="37.3285788012545" lon="127.279856801033">
        <ele>544</ele>
      </trkpt>
      <trkpt lat="37.3283313942907" lon="127.279931902885">
        <ele>546</ele>
      </trkpt>
      <trkpt lat="37.3281906278959" lon="127.280350327492">
        <ele>546</ele>
      </trkpt>
      <trkpt lat="37.3279901419693" lon="127.280538082123">
        <ele>545</ele>
      </trkpt>
      <trkpt lat="37.3278195152273" lon="127.281165719032">
        <ele>547</ele>
      </trkpt>
      <trkpt lat="37.3277555300992" lon="127.281450033188">
        <ele>552</ele>
      </trkpt>
      <trkpt lat="37.3277299360327" lon="127.281777262688">
        <ele>554</ele>
      </trkpt>
      <trkpt lat="37.3275337145665" lon="127.282088398933">
        <ele>564</ele>
      </trkpt>
      <trkpt lat="37.3274441350312" lon="127.282329797745">
        <ele>567</ele>
      </trkpt>
      <trkpt lat="37.3268597325842" lon="127.282361984253">
        <ele>548</ele>
      </trkpt>
      <trkpt lat="37.3267914809071" lon="127.282292246819">
        <ele>546</ele>
      </trkpt>
      <trkpt lat="37.3266208514431" lon="127.282243967056">
        <ele>540</ele>
      </trkpt>
      <trkpt lat="37.3263947668066" lon="127.282131314278">
        <ele>536</ele>
      </trkpt>
      <trkpt lat="37.3257804956798" lon="127.281954288483">
        <ele>536</ele>
      </trkpt>
      <trkpt lat="37.3255800033222" lon="127.282002568245">
        <ele>533</ele>
      </trkpt>
      <trkpt lat="37.3251192954525" lon="127.28155195713">
        <ele>532</ele>
      </trkpt>
      <trkpt lat="37.3248974721374" lon="127.281514406204">
        <ele>534</ele>
      </trkpt>
      <trkpt lat="37.3245732676528" lon="127.281364202499">
        <ele>528</ele>
      </trkpt>
      <trkpt lat="37.3240869583033" lon="127.281503677368">
        <ele>526</ele>
      </trkpt>
      <trkpt lat="37.3234939979084" lon="127.281203269958">
        <ele>533</ele>
      </trkpt>
      <trkpt lat="37.3231313939227" lon="127.281122803688">
        <ele>532</ele>
      </trkpt>
      <trkpt lat="37.3224872342921" lon="127.281965017319">
        <ele>528</ele>
      </trkpt>
      <trkpt lat="37.3222995311092" lon="127.282061576843">
        <ele>523</ele>
      </trkpt>
      <trkpt lat="37.321804675016" lon="127.282201051712">
        <ele>495</ele>
      </trkpt>
      <trkpt lat="37.3211221095407" lon="127.28258728981">
        <ele>470</ele>
      </trkpt>
      <trkpt lat="37.3206101813659" lon="127.282683849335">
        <ele>461</ele>
      </trkpt>
      <trkpt lat="37.3202944905866" lon="127.282555103302">
        <ele>458</ele>
      </trkpt>
      <trkpt lat="37.3198849438158" lon="127.282823324203">
        <ele>448</ele>
      </trkpt>
      <trkpt lat="37.319739895466" lon="127.282447814941">
        <ele>445</ele>
      </trkpt>
      <trkpt lat="37.3194497979266" lon="127.282115221024">
        <ele>438</ele>
      </trkpt>
      <trkpt lat="37.3188781318509" lon="127.28117108345">
        <ele>411</ele>
      </trkpt>
      <trkpt lat="37.3189122612909" lon="127.280677556992">
        <ele>391</ele>
      </trkpt>
      <trkpt lat="37.319296216423" lon="127.280570268631">
        <ele>382</ele>
      </trkpt>
      <trkpt lat="37.3192620871573" lon="127.279980182648">
        <ele>367</ele>
      </trkpt>
      <trkpt lat="37.3195009916914" lon="127.279368638992">
        <ele>360</ele>
      </trkpt>
      <trkpt lat="37.3192194255535" lon="127.278413772583">
        <ele>337</ele>
      </trkpt>
      <trkpt lat="37.319296216423" lon="127.277920246124">
        <ele>333</ele>
      </trkpt>
      <trkpt lat="37.3188610671251" lon="127.276847362518">
        <ele>301</ele>
      </trkpt>
      <trkpt lat="37.3185709661936" lon="127.276139259338">
        <ele>284</ele>
      </trkpt>
      <trkpt lat="37.3181272802501" lon="127.275978326797">
        <ele>281</ele>
      </trkpt>
      <trkpt lat="37.3179822285082" lon="127.275581359863">
        <ele>272</ele>
      </trkpt>
      <trkpt lat="37.317589734156" lon="127.275152206421">
        <ele>263</ele>
      </trkpt>
      <trkpt lat="37.3171204447402" lon="127.2749376297">
        <ele>273</ele>
      </trkpt>
      <trkpt lat="37.3166426197792" lon="127.274186611176">
        <ele>275</ele>
      </trkpt>
      <trkpt lat="37.3163951735163" lon="127.274208068848">
        <ele>285</ele>
      </trkpt>
      <trkpt lat="37.3161306610931" lon="127.274186611176">
        <ele>292</ele>
      </trkpt>
      <trkpt lat="37.3160112035646" lon="127.273972034454">
        <ele>291</ele>
      </trkpt>
      <trkpt lat="37.3158661477391" lon="127.2736287117">
        <ele>289</ele>
      </trkpt>
      <trkpt lat="37.3156869607446" lon="127.273607254028">
        <ele>291</ele>
      </trkpt>
      <trkpt lat="37.3151835283315" lon="127.274025678635">
        <ele>305</ele>
      </trkpt>
      <trkpt lat="37.3146715597077" lon="127.273746728897">
        <ele>302</ele>
      </trkpt>
      <trkpt lat="37.3144838370054" lon="127.273886203766">
        <ele>301</ele>
      </trkpt>
      <trkpt lat="37.3143985083493" lon="127.274358272552">
        <ele>306</ele>
      </trkpt>
      <trkpt lat="37.314074258573" lon="127.274798154831">
        <ele>302</ele>
      </trkpt>
      <trkpt lat="37.3139291990097" lon="127.274765968323">
        <ele>301</ele>
      </trkpt>
      <trkpt lat="37.313715875614" lon="127.274873256683">
        <ele>304</ele>
      </trkpt>
      <trkpt lat="37.3133233589844" lon="127.274572849274">
        <ele>302</ele>
      </trkpt>
      <trkpt lat="37.31298203851" lon="127.274755239487">
        <ele>303</ele>
      </trkpt>
      <trkpt lat="37.3125895180487" lon="127.274390459061">
        <ele>292</ele>
      </trkpt>
      <trkpt lat="37.3121372636718" lon="127.274326086044">
        <ele>291</ele>
      </trkpt>
      <trkpt lat="37.3117532719709" lon="127.274036407471">
        <ele>294</ele>
      </trkpt>
      <trkpt lat="37.3116508738527" lon="127.273532152176">
        <ele>282</ele>
      </trkpt>
      <trkpt lat="37.3107719509357" lon="127.273414134979">
        <ele>288</ele>
      </trkpt>
      <trkpt lat="37.3097479501121" lon="127.273961305618">
        <ele>313</ele>
      </trkpt>
      <trkpt lat="37.3091335429234" lon="127.274036407471">
        <ele>316</ele>
      </trkpt>
      <trkpt lat="37.3095516816948" lon="127.274540662766">
        <ele>336</ele>
      </trkpt>
      <trkpt lat="37.3090994090435" lon="127.274733781815">
        <ele>333</ele>
      </trkpt>
      <trkpt lat="37.308954339881" lon="127.275109291077">
        <ele>344</ele>
      </trkpt>
      <trkpt lat="37.3087047349315" lon="127.274967133999">
        <ele>341</ele>
      </trkpt>
      <trkpt lat="37.3085383311715" lon="127.274967133999">
        <ele>344</ele>
      </trkpt>
      <trkpt lat="37.3084615293119" lon="127.274862527847">
        <ele>343</ele>
      </trkpt>
      <trkpt lat="37.3083015251857" lon="127.274079322815">
        <ele>325</ele>
      </trkpt>
      <trkpt lat="37.3080839190278" lon="127.273749411106">
        <ele>327</ele>
      </trkpt>
      <trkpt lat="37.3079708489128" lon="127.273719906807">
        <ele>330</ele>
      </trkpt>
      <trkpt lat="37.3074844321392" lon="127.273888885975">
        <ele>341</ele>
      </trkpt>
      <trkpt lat="37.3066374620896" lon="127.275010049343">
        <ele>365</ele>
      </trkpt>
      <trkpt lat="37.3066907980165" lon="127.275152206421">
        <ele>365</ele>
      </trkpt>
      <trkpt lat="37.307160152542" lon="127.27537214756">
        <ele>375</ele>
      </trkpt>
      <trkpt lat="37.3072369557309" lon="127.276206314564">
        <ele>389</ele>
      </trkpt>
      <trkpt lat="37.3075121665135" lon="127.276973426342">
        <ele>413</ele>
      </trkpt>
      <trkpt lat="37.3081009862002" lon="127.277842462063">
        <ele>421</ele>
      </trkpt>
      <trkpt lat="37.3082673909281" lon="127.277458906174">
        <ele>429</ele>
      </trkpt>
      <trkpt lat="37.3082801912765" lon="127.276994884014">
        <ele>431</ele>
      </trkpt>
      <trkpt lat="37.3084167281909" lon="127.276981472969">
        <ele>435</ele>
      </trkpt>
      <trkpt lat="37.308958606625" lon="127.27727919817">
        <ele>445</ele>
      </trkpt>
      <trkpt lat="37.3095751485977" lon="127.277276515961">
        <ele>450</ele>
      </trkpt>
      <trkpt lat="37.3102279522347" lon="127.277901470661">
        <ele>460</ele>
      </trkpt>
      <trkpt lat="37.3104540855061" lon="127.277912199497">
        <ele>458</ele>
      </trkpt>
      <trkpt lat="37.3106418182713" lon="127.278075814247">
        <ele>456</ele>
      </trkpt>
      <trkpt lat="37.3108338172053" lon="127.278126776218">
        <ele>454</ele>
      </trkpt>
      <trkpt lat="37.3110471487792" lon="127.278333306313">
        <ele>457</ele>
      </trkpt>
      <trkpt lat="37.3116572737392" lon="127.278271615505">
        <ele>460</ele>
      </trkpt>
      <trkpt lat="37.3117383389207" lon="127.278445959091">
        <ele>465</ele>
      </trkpt>
      <trkpt lat="37.3120071333707" lon="127.278521060944">
        <ele>470</ele>
      </trkpt>
      <trkpt lat="37.3124295227075" lon="127.278899252415">
        <ele>472</ele>
      </trkpt>
      <trkpt lat="37.3128839085868" lon="127.279170155525">
        <ele>480</ele>
      </trkpt>
      <trkpt lat="37.3137564071058" lon="127.279513478279">
        <ele>498</ele>
      </trkpt>
      <trkpt lat="37.3139611974668" lon="127.279626131058">
        <ele>502</ele>
      </trkpt>
      <trkpt lat="37.3141019905164" lon="127.279626131058">
        <ele>504</ele>
      </trkpt>
      <trkpt lat="37.3149019460199" lon="127.280471026897">
        <ele>507</ele>
      </trkpt>
      <trkpt lat="37.3149979401083" lon="127.280465662479">
        <ele>507</ele>
      </trkpt>
      <trkpt lat="37.3150747352907" lon="127.280634641647">
        <ele>510</ele>
      </trkpt>
      <trkpt lat="37.3152475241643" lon="127.280642688274">
        <ele>506</ele>
      </trkpt>
      <trkpt lat="37.3154736423372" lon="127.281010150909">
        <ele>511</ele>
      </trkpt>
      <trkpt lat="37.3163098470299" lon="127.281669974327">
        <ele>492</ele>
      </trkpt>
      <trkpt lat="37.3164719672713" lon="127.282064259052">
        <ele>494</ele>
      </trkpt>
      <trkpt lat="37.3164954320141" lon="127.282391488552">
        <ele>494</ele>
      </trkpt>
      <trkpt lat="37.3166298208546" lon="127.282547056675">
        <ele>492</ele>
      </trkpt>
      <trkpt lat="37.3169199292782" lon="127.282466590405">
        <ele>489</ele>
      </trkpt>
      <trkpt lat="37.3170201870761" lon="127.282552421093">
        <ele>485</ele>
      </trkpt>
      <trkpt lat="37.3173550898144" lon="127.28258728981">
        <ele>473</ele>
      </trkpt>
      <trkpt lat="37.3175513378593" lon="127.282517552376">
        <ele>470</ele>
      </trkpt>
      <trkpt lat="37.3177475853919" lon="127.282517552376">
        <ele>465</ele>
      </trkpt>
      <trkpt lat="37.3185411027988" lon="127.282710671425">
        <ele>464</ele>
      </trkpt>
      <trkpt lat="37.3187928081832" lon="127.283035218716">
        <ele>463</ele>
      </trkpt>
      <trkpt lat="37.3191490338542" lon="127.283147871494">
        <ele>457</ele>
      </trkpt>
      <trkpt lat="37.3195031247641" lon="127.283080816269">
        <ele>454</ele>
      </trkpt>
      <trkpt lat="37.3196865687964" lon="127.282917201519">
        <ele>448</ele>
      </trkpt>
      <trkpt lat="37.3198209519313" lon="127.282817959785">
        <ele>448</ele>
      </trkpt>
      <trkpt lat="37.3198828107539" lon="127.282799184322">
        <ele>448</ele>
      </trkpt>
      <trkpt lat="37.3197441615979" lon="127.282469272614">
        <ele>445</ele>
      </trkpt>
      <trkpt lat="37.319462596371" lon="127.28212594986">
        <ele>439</ele>
      </trkpt>
      <trkpt lat="37.319321813362" lon="127.282002568245">
        <ele>435</ele>
      </trkpt>
      <trkpt lat="37.3188930634828" lon="127.281184494495">
        <ele>412</ele>
      </trkpt>
      <trkpt lat="37.3188589340341" lon="127.281026244164">
        <ele>406</ele>
      </trkpt>
      <trkpt lat="37.3188866642124" lon="127.28076338768">
        <ele>396</ele>
      </trkpt>
      <trkpt lat="37.3191362353563" lon="127.28062659502">
        <ele>384</ele>
      </trkpt>
      <trkpt lat="37.3193239464399" lon="127.280489802361">
        <ele>380</ele>
      </trkpt>
      <trkpt lat="37.3193175472061" lon="127.280248403549">
        <ele>372</ele>
      </trkpt>
      <trkpt lat="37.3192834179502" lon="127.280039191246">
        <ele>368</ele>
      </trkpt>
      <trkpt lat="37.3194967255456" lon="127.279382050037">
        <ele>361</ele>
      </trkpt>
      <trkpt lat="37.319191695498" lon="127.278462052345">
        <ele>336</ele>
      </trkpt>
      <trkpt lat="37.3192983495016" lon="127.277933657169">
        <ele>333</ele>
      </trkpt>
      <trkpt lat="37.3190018509972" lon="127.277287244797">
        <ele>311</ele>
      </trkpt>
      <trkpt lat="37.3188525347608" lon="127.276823222637">
        <ele>300</ele>
      </trkpt>
      <trkpt lat="37.318754412501" lon="127.276683747768">
        <ele>296</ele>
      </trkpt>
      <trkpt lat="37.3185794985899" lon="127.276155352592">
        <ele>284</ele>
      </trkpt>
      <trkpt lat="37.3187608117828" lon="127.276125848293">
        <ele>288</ele>
      </trkpt>
      <trkpt lat="37.3189101282014" lon="127.275795936584">
        <ele>288</ele>
      </trkpt>
      <trkpt lat="37.3189015958426" lon="127.27512806654">
        <ele>282</ele>
      </trkpt>
      <trkpt lat="37.3188695994885" lon="127.274208068848">
        <ele>283</ele>
      </trkpt>
      <trkpt lat="37.3189399914495" lon="127.273811101913">
        <ele>287</ele>
      </trkpt>
      <trkpt lat="37.3189186605592" lon="127.273604571819">
        <ele>289</ele>
      </trkpt>
      <trkpt lat="37.3188141391092" lon="127.27346777916">
        <ele>288</ele>
      </trkpt>
      <trkpt lat="37.3185133724931" lon="127.27327466011">
        <ele>279</ele>
      </trkpt>
      <trkpt lat="37.3184600449533" lon="127.273062765598">
        <ele>283</ele>
      </trkpt>
      <trkpt lat="37.3185560344977" lon="127.272630929947">
        <ele>287</ele>
      </trkpt>
      <trkpt lat="37.3185645668957" lon="127.272392213345">
        <ele>284</ele>
      </trkpt>
      <trkpt lat="37.3187010851322" lon="127.271515130997">
        <ele>280</ele>
      </trkpt>
      <trkpt lat="37.3186349591424" lon="127.271161079407">
        <ele>274</ele>
      </trkpt>
      <trkpt lat="37.3187224160843" lon="127.270710468292">
        <ele>280</ele>
      </trkpt>
      <trkpt lat="37.3187160167993" lon="127.27047175169">
        <ele>276</ele>
      </trkpt>
      <trkpt lat="37.3181827411363" lon="127.269208431244">
        <ele>261</ele>
      </trkpt>
      <trkpt lat="37.3180590206417" lon="127.268216013908">
        <ele>259</ele>
      </trkpt>
      <trkpt lat="37.3182723317121" lon="127.267293334007">
        <ele>273</ele>
      </trkpt>
      <trkpt lat="37.3182979289999" lon="127.266837358475">
        <ele>270</ele>
      </trkpt>
      <trkpt lat="37.3189421245382" lon="127.265592813492">
        <ele>267</ele>
      </trkpt>
      <trkpt lat="37.319151166937" lon="127.26554453373">
        <ele>265</ele>
      </trkpt>
      <trkpt lat="37.3195180562719" lon="127.266209721565">
        <ele>275</ele>
      </trkpt>
      <trkpt lat="37.3200811852553" lon="127.266569137573">
        <ele>270</ele>
      </trkpt>
      <trkpt lat="37.3201451769183" lon="127.267078757286">
        <ele>282</ele>
      </trkpt>
      <trkpt lat="37.320431005681" lon="127.26742208004">
        <ele>279</ele>
      </trkpt>
      <trkpt lat="37.3204480700503" lon="127.267679572105">
        <ele>283</ele>
      </trkpt>
      <trkpt lat="37.3204352717737" lon="127.267947793007">
        <ele>290</ele>
      </trkpt>
      <trkpt lat="37.3208021548401" lon="127.26843059063">
        <ele>289</ele>
      </trkpt>
      <trkpt lat="37.3208576137525" lon="127.268688082695">
        <ele>288</ele>
      </trkpt>
      <trkpt lat="37.3206400439386" lon="127.269170880318">
        <ele>293</ele>
      </trkpt>
      <trkpt lat="37.3207552280362" lon="127.269508838654">
        <ele>287</ele>
      </trkpt>
      <trkpt lat="37.3209173386893" lon="127.269605398178">
        <ele>289</ele>
      </trkpt>
      <trkpt lat="37.3213908704365" lon="127.26951956749">
        <ele>292</ele>
      </trkpt>
      <trkpt lat="37.3214804571882" lon="127.269423007965">
        <ele>290</ele>
      </trkpt>
      <trkpt lat="37.3216937585481" lon="127.269020676613">
        <ele>281</ele>
      </trkpt>
      <trkpt lat="37.3224787023394" lon="127.268736362457">
        <ele>268</ele>
      </trkpt>
      <trkpt lat="37.3229607561476" lon="127.270104289055">
        <ele>255</ele>
      </trkpt>
      <trkpt lat="37.323357488378" lon="127.270340323448">
        <ele>249</ele>
      </trkpt>
      <trkpt lat="37.3238395365491" lon="127.269562482834">
        <ele>224</ele>
      </trkpt>
      <trkpt lat="37.3241552124369" lon="127.26954638958">
        <ele>217</ele>
      </trkpt>
      <trkpt lat="37.3245562042201" lon="127.270367145538">
        <ele>238</ele>
      </trkpt>
      <trkpt lat="37.3250083838768" lon="127.270485162735">
        <ele>239</ele>
      </trkpt>
      <trkpt lat="37.3256141297188" lon="127.271005511284">
        <ele>243</ele>
      </trkpt>
      <trkpt lat="37.3257634325212" lon="127.271783351898">
        <ele>260</ele>
      </trkpt>
      <trkpt lat="37.3256653192845" lon="127.27243244648">
        <ele>276</ele>
      </trkpt>
      <trkpt lat="37.3258146219852" lon="127.272502183914">
        <ele>279</ele>
      </trkpt>
      <trkpt lat="37.3263649065207" lon="127.272126674652">
        <ele>289</ele>
      </trkpt>
      <trkpt lat="37.3266805717996" lon="127.271085977554">
        <ele>302</ele>
      </trkpt>
      <trkpt lat="37.3271370043848" lon="127.271048426628">
        <ele>316</ele>
      </trkpt>
      <trkpt lat="37.3274185408586" lon="127.270646095276">
        <ele>322</ele>
      </trkpt>
      <trkpt lat="37.3275849028245" lon="127.270125746727">
        <ele>323</ele>
      </trkpt>
      <trkpt lat="37.3275849028245" lon="127.269557118416">
        <ele>314</ele>
      </trkpt>
      <trkpt lat="37.3277171389962" lon="127.268730998039">
        <ele>311</ele>
      </trkpt>
      <trkpt lat="37.3279645479827" lon="127.268317937851">
        <ele>321</ele>
      </trkpt>
      <trkpt lat="37.3280541268976" lon="127.267861962318">
        <ele>315</ele>
      </trkpt>
      <trkpt lat="37.3282802065413" lon="127.267373800278">
        <ele>313</ele>
      </trkpt>
      <trkpt lat="37.3279730793125" lon="127.266558408737">
        <ele>294</ele>
      </trkpt>
      <trkpt lat="37.327874968961" lon="127.266118526459">
        <ele>290</ele>
      </trkpt>
      <trkpt lat="37.3276403567313" lon="127.26570546627">
        <ele>282</ele>
      </trkpt>
      <trkpt lat="37.3274398693363" lon="127.264192700386">
        <ele>266</ele>
      </trkpt>
      <trkpt lat="37.3273374925879" lon="127.263913750648">
        <ele>262</ele>
      </trkpt>
      <trkpt lat="37.3274270722504" lon="127.262948155403">
        <ele>259</ele>
      </trkpt>
      <trkpt lat="37.3276232939951" lon="127.262690663338">
        <ele>254</ele>
      </trkpt>
      <trkpt lat="37.3287408950305" lon="127.262164950371">
        <ele>249</ele>
      </trkpt>
      <trkpt lat="37.3289200509023" lon="127.262213230133">
        <ele>246</ele>
      </trkpt>
      <trkpt lat="37.3290224254944" lon="127.262459993362">
        <ele>240</ele>
      </trkpt>
      <trkpt lat="37.3290010974659" lon="127.262985706329">
        <ele>243</ele>
      </trkpt>
      <trkpt lat="37.3291375967438" lon="127.263538241386">
        <ele>240</ele>
      </trkpt>
      <trkpt lat="37.3292442366321" lon="127.263715267181">
        <ele>237</ele>
      </trkpt>
      <trkpt lat="37.3291546591361" lon="127.264434099197">
        <ele>251</ele>
      </trkpt>
      <trkpt lat="37.3292186430727" lon="127.264707684517">
        <ele>250</ele>
      </trkpt>
      <trkpt lat="37.329756105989" lon="127.265034914017">
        <ele>238</ele>
      </trkpt>
      <trkpt lat="37.3297262470389" lon="127.265421152115">
        <ele>245</ele>
      </trkpt>
      <trkpt lat="37.3301528023419" lon="127.26701438427">
        <ele>273</ele>
      </trkpt>
      <trkpt lat="37.330622010378" lon="127.267781496048">
        <ele>272</ele>
      </trkpt>
      <trkpt lat="37.3318504684471" lon="127.268505692482">
        <ele>259</ele>
      </trkpt>
      <trkpt lat="37.3331087640461" lon="127.269750237465">
        <ele>263</ele>
      </trkpt>
      <trkpt lat="37.333373216712" lon="127.270313501358">
        <ele>268</ele>
      </trkpt>
      <trkpt lat="37.3334627891781" lon="127.270286679268">
        <ele>265</ele>
      </trkpt>
      <trkpt lat="37.3333988088561" lon="127.269482016563">
        <ele>251</ele>
      </trkpt>
      <trkpt lat="37.3333518899186" lon="127.269342541695">
        <ele>251</ele>
      </trkpt>
      <trkpt lat="37.3329722719833" lon="127.268956303596">
        <ele>252</ele>
      </trkpt>
      <trkpt lat="37.3329210873958" lon="127.268618345261">
        <ele>249</ele>
      </trkpt>
      <trkpt lat="37.3330063950222" lon="127.268328666687">
        <ele>242</ele>
      </trkpt>
      <trkpt lat="37.3331642138757" lon="127.268323302269">
        <ele>236</ele>
      </trkpt>
      <trkpt lat="37.3335694229271" lon="127.268763184547">
        <ele>236</ele>
      </trkpt>
      <trkpt lat="37.3341964263093" lon="127.269111871719">
        <ele>216</ele>
      </trkpt>
      <trkpt lat="37.3345163239778" lon="127.269514203072">
        <ele>212</ele>
      </trkpt>
      <trkpt lat="37.3350878710876" lon="127.270769476891">
        <ele>213</ele>
      </trkpt>
      <trkpt lat="37.3353096643172" lon="127.272003293037">
        <ele>208</ele>
      </trkpt>
      <trkpt lat="37.3355527830665" lon="127.272260785103">
        <ele>208</ele>
      </trkpt>
      <trkpt lat="37.3359494488102" lon="127.272228598595">
        <ele>195</ele>
      </trkpt>
      <trkpt lat="37.3361627090969" lon="127.272400259972">
        <ele>190</ele>
      </trkpt>
      <trkpt lat="37.3362138914756" lon="127.272550463676">
        <ele>190</ele>
      </trkpt>
      <trkpt lat="37.3361755046948" lon="127.272781133652">
        <ele>191</ele>
      </trkpt>
      <trkpt lat="37.3358726749588" lon="127.272984981537">
        <ele>195</ele>
      </trkpt>
      <trkpt lat="37.3357276574697" lon="127.27324783802">
        <ele>196</ele>
      </trkpt>
      <trkpt lat="37.3355869049332" lon="127.2736287117">
        <ele>203</ele>
      </trkpt>
      <trkpt lat="37.3357063313448" lon="127.273800373077">
        <ele>204</ele>
      </trkpt>
      <trkpt lat="37.3363887643397" lon="127.273864746094">
        <ele>197</ele>
      </trkpt>
      <trkpt lat="37.3364484769318" lon="127.273843288422">
        <ele>195</ele>
      </trkpt>
      <trkpt lat="37.3373100390479" lon="127.274267077446">
        <ele>187</ele>
      </trkpt>
      <trkpt lat="37.3373996068196" lon="127.274401187897">
        <ele>187</ele>
      </trkpt>
      <trkpt lat="37.3377066955117" lon="127.275125384331">
        <ele>187</ele>
      </trkpt>
      <trkpt lat="37.3384701466804" lon="127.275640368462">
        <ele>165</ele>
      </trkpt>
      <trkpt lat="37.3388156164465" lon="127.276031970978">
        <ele>165</ele>
      </trkpt>
      <trkpt lat="37.339092844122" lon="127.276037335396">
        <ele>161</ele>
      </trkpt>
      <trkpt lat="37.3393402156454" lon="127.276198267937">
        <ele>159</ele>
      </trkpt>
      <trkpt lat="37.3394681661137" lon="127.276187539101">
        <ele>158</ele>
      </trkpt>
      <trkpt lat="37.3397539213725" lon="127.275838851929">
        <ele>159</ele>
      </trkpt>
      <trkpt lat="37.3397859088338" lon="127.275790572166">
        <ele>161</ele>
      </trkpt>
      <trkpt lat="37.3392463851635" lon="127.274833023548">
        <ele>150</ele>
      </trkpt>
      <trkpt lat="37.3391525545643" lon="127.271702885628">
        <ele>124</ele>
      </trkpt>
      <trkpt lat="37.3390736514698" lon="127.271284461021">
        <ele>121</ele>
      </trkpt>
      <trkpt lat="37.3389243751181" lon="127.27090626955">
        <ele>120</ele>
      </trkpt>
      <trkpt lat="37.3377472140648" lon="127.269495427608">
        <ele>112</ele>
      </trkpt>
    </trkseg>
  </trk>
</gpx>