<?xml version="1.0" encoding="UTF-8"?>
<gpx xmlns="http://www.topografix.com/GPX/1/1" xmlns:gpxdata="http://www.cluetrust.com/XML/GPXDATA/1/0" xmlns:xsi="http://www.w3.org/2001/XMLSchema-instance" xsi:schemaLocation="http://www.topografix.com/GPX/1/1 https://www.topografix.com/GPX/1/1/gpx.xsd http://www.cluetrust.com/XML/GPXDATA/1/0 https://www.cluetrust.com/Schemas/gpxdata10.xsd" creator="COROS Wearables" version="1.1">
 <metadata>
  <link href="https://www.coros.com">
   <text>COROS</text>
  </link>
  <time>2024-07-17T16:58:49Z</time>
  <coros_edit>1</coros_edit>
 </metadata>
 <trk>
  <name>CHUNCHEON23.7</name>
  <type>running</type>
  <trkseg>
   <trkpt lat="37.8202837" lon="127.5896867">
    <ele>86</ele>
   </trkpt>
   <trkpt lat="37.8199647" lon="127.5896375">
    <ele>88</ele>
   </trkpt>
   <trkpt lat="37.8196456" lon="127.5895882">
    <ele>91</ele>
   </trkpt>
   <trkpt lat="37.8196288" lon="127.5895921">
    <ele>91</ele>
   </trkpt>
   <trkpt lat="37.8193093" lon="127.5896655">
    <ele>95</ele>
   </trkpt>
   <trkpt lat="37.8192905" lon="127.5896719">
    <ele>95</ele>
   </trkpt>
   <trkpt lat="37.8189330" lon="127.5897929">
    <ele>99</ele>
   </trkpt>
   <trkpt lat="37.8189167" lon="127.5897955">
    <ele>99</ele>
   </trkpt>
   <trkpt lat="37.8186076" lon="127.5898454">
    <ele>103</ele>
   </trkpt>
   <trkpt lat="37.8182822" lon="127.5898979">
    <ele>108</ele>
   </trkpt>
   <trkpt lat="37.8182749" lon="127.5899019">
    <ele>108</ele>
   </trkpt>
   <trkpt lat="37.8181354" lon="127.5899784">
    <ele>112</ele>
   </trkpt>
   <trkpt lat="37.8181284" lon="127.5899800">
    <ele>112</ele>
   </trkpt>
   <trkpt lat="37.8179959" lon="127.5900101">
    <ele>113</ele>
   </trkpt>
   <trkpt lat="37.8179856" lon="127.5900199">
    <ele>113</ele>
   </trkpt>
   <trkpt lat="37.8177908" lon="127.5902057">
    <ele>111</ele>
   </trkpt>
   <trkpt lat="37.8177826" lon="127.5902151">
    <ele>112</ele>
   </trkpt>
   <trkpt lat="37.8176258" lon="127.5903927">
    <ele>112</ele>
   </trkpt>
   <trkpt lat="37.8176177" lon="127.5904024">
    <ele>112</ele>
   </trkpt>
   <trkpt lat="37.8174643" lon="127.5905872">
    <ele>108</ele>
   </trkpt>
   <trkpt lat="37.8174495" lon="127.5906004">
    <ele>108</ele>
   </trkpt>
   <trkpt lat="37.8171692" lon="127.5908508">
    <ele>111</ele>
   </trkpt>
   <trkpt lat="37.8168740" lon="127.5911144">
    <ele>105</ele>
   </trkpt>
   <trkpt lat="37.8168636" lon="127.5911220">
    <ele>105</ele>
   </trkpt>
   <trkpt lat="37.8166654" lon="127.5912660">
    <ele>106</ele>
   </trkpt>
   <trkpt lat="37.8164569" lon="127.5914176">
    <ele>103</ele>
   </trkpt>
   <trkpt lat="37.8164527" lon="127.5914206">
    <ele>103</ele>
   </trkpt>
   <trkpt lat="37.8163734" lon="127.5914777">
    <ele>101</ele>
   </trkpt>
   <trkpt lat="37.8163711" lon="127.5914834">
    <ele>101</ele>
   </trkpt>
   <trkpt lat="37.8163279" lon="127.5915908">
    <ele>101</ele>
   </trkpt>
   <trkpt lat="37.8163141" lon="127.5916026">
    <ele>101</ele>
   </trkpt>
   <trkpt lat="37.8160420" lon="127.5917940">
    <ele>100</ele>
   </trkpt>
   <trkpt lat="37.8160520" lon="127.5918180">
    <ele>100</ele>
   </trkpt>
   <trkpt lat="37.8160440" lon="127.5917990">
    <ele>100</ele>
   </trkpt>
   <trkpt lat="37.8160360" lon="127.5917790">
    <ele>100</ele>
   </trkpt>
   <trkpt lat="37.8159590" lon="127.5917790">
    <ele>99</ele>
   </trkpt>
   <trkpt lat="37.8158820" lon="127.5917780">
    <ele>99</ele>
   </trkpt>
   <trkpt lat="37.8158030" lon="127.5918200">
    <ele>99</ele>
   </trkpt>
   <trkpt lat="37.8157250" lon="127.5918620">
    <ele>100</ele>
   </trkpt>
   <trkpt lat="37.8156690" lon="127.5918610">
    <ele>100</ele>
   </trkpt>
   <trkpt lat="37.8156440" lon="127.5918600">
    <ele>100</ele>
   </trkpt>
   <trkpt lat="37.8155620" lon="127.5918590">
    <ele>101</ele>
   </trkpt>
   <trkpt lat="37.8155510" lon="127.5917550">
    <ele>102</ele>
   </trkpt>
   <trkpt lat="37.8155390" lon="127.5916510">
    <ele>102</ele>
   </trkpt>
   <trkpt lat="37.8155280" lon="127.5915480">
    <ele>103</ele>
   </trkpt>
   <trkpt lat="37.8155140" lon="127.5914430">
    <ele>103</ele>
   </trkpt>
   <trkpt lat="37.8155010" lon="127.5913390">
    <ele>104</ele>
   </trkpt>
   <trkpt lat="37.8154870" lon="127.5912350">
    <ele>106</ele>
   </trkpt>
   <trkpt lat="37.8154230" lon="127.5911390">
    <ele>110</ele>
   </trkpt>
   <trkpt lat="37.8153600" lon="127.5910430">
    <ele>113</ele>
   </trkpt>
   <trkpt lat="37.8152630" lon="127.5910160">
    <ele>118</ele>
   </trkpt>
   <trkpt lat="37.8151670" lon="127.5909890">
    <ele>126</ele>
   </trkpt>
   <trkpt lat="37.8151410" lon="127.5909040">
    <ele>128</ele>
   </trkpt>
   <trkpt lat="37.8151160" lon="127.5908190">
    <ele>128</ele>
   </trkpt>
   <trkpt lat="37.8150910" lon="127.5907340">
    <ele>127</ele>
   </trkpt>
   <trkpt lat="37.8150770" lon="127.5906460">
    <ele>127</ele>
   </trkpt>
   <trkpt lat="37.8150650" lon="127.5905590">
    <ele>134</ele>
   </trkpt>
   <trkpt lat="37.8150520" lon="127.5904710">
    <ele>134</ele>
   </trkpt>
   <trkpt lat="37.8150330" lon="127.5903620">
    <ele>133</ele>
   </trkpt>
   <trkpt lat="37.8150140" lon="127.5902530">
    <ele>133</ele>
   </trkpt>
   <trkpt lat="37.8149950" lon="127.5901440">
    <ele>131</ele>
   </trkpt>
   <trkpt lat="37.8149790" lon="127.5900610">
    <ele>129</ele>
   </trkpt>
   <trkpt lat="37.8149610" lon="127.5899770">
    <ele>129</ele>
   </trkpt>
   <trkpt lat="37.8149450" lon="127.5898930">
    <ele>126</ele>
   </trkpt>
   <trkpt lat="37.8149040" lon="127.5898320">
    <ele>132</ele>
   </trkpt>
   <trkpt lat="37.8148620" lon="127.5897700">
    <ele>132</ele>
   </trkpt>
   <trkpt lat="37.8148230" lon="127.5896820">
    <ele>128</ele>
   </trkpt>
   <trkpt lat="37.8147830" lon="127.5895940">
    <ele>134</ele>
   </trkpt>
   <trkpt lat="37.8147440" lon="127.5895060">
    <ele>132</ele>
   </trkpt>
   <trkpt lat="37.8147180" lon="127.5894100">
    <ele>132</ele>
   </trkpt>
   <trkpt lat="37.8146920" lon="127.5893140">
    <ele>130</ele>
   </trkpt>
   <trkpt lat="37.8146660" lon="127.5892190">
    <ele>130</ele>
   </trkpt>
   <trkpt lat="37.8146180" lon="127.5890950">
    <ele>137</ele>
   </trkpt>
   <trkpt lat="37.8146140" lon="127.5890850">
    <ele>137</ele>
   </trkpt>
   <trkpt lat="37.8146080" lon="127.5890740">
    <ele>137</ele>
   </trkpt>
   <trkpt lat="37.8145660" lon="127.5889930">
    <ele>138</ele>
   </trkpt>
   <trkpt lat="37.8145240" lon="127.5889120">
    <ele>142</ele>
   </trkpt>
   <trkpt lat="37.8144820" lon="127.5888310">
    <ele>142</ele>
   </trkpt>
   <trkpt lat="37.8144520" lon="127.5887530">
    <ele>142</ele>
   </trkpt>
   <trkpt lat="37.8144210" lon="127.5886760">
    <ele>142</ele>
   </trkpt>
   <trkpt lat="37.8143900" lon="127.5885980">
    <ele>148</ele>
   </trkpt>
   <trkpt lat="37.8143780" lon="127.5885010">
    <ele>147</ele>
   </trkpt>
   <trkpt lat="37.8143670" lon="127.5884040">
    <ele>147</ele>
   </trkpt>
   <trkpt lat="37.8143560" lon="127.5883070">
    <ele>144</ele>
   </trkpt>
   <trkpt lat="37.8143530" lon="127.5882920">
    <ele>144</ele>
   </trkpt>
   <trkpt lat="37.8143190" lon="127.5881820">
    <ele>144</ele>
   </trkpt>
   <trkpt lat="37.8142850" lon="127.5880720">
    <ele>140</ele>
   </trkpt>
   <trkpt lat="37.8143220" lon="127.5879870">
    <ele>137</ele>
   </trkpt>
   <trkpt lat="37.8143590" lon="127.5879030">
    <ele>137</ele>
   </trkpt>
   <trkpt lat="37.8143960" lon="127.5878180">
    <ele>132</ele>
   </trkpt>
   <trkpt lat="37.8143790" lon="127.5877140">
    <ele>135</ele>
   </trkpt>
   <trkpt lat="37.8143620" lon="127.5876110">
    <ele>136</ele>
   </trkpt>
   <trkpt lat="37.8143910" lon="127.5875440">
    <ele>136</ele>
   </trkpt>
   <trkpt lat="37.8143940" lon="127.5874670">
    <ele>135</ele>
   </trkpt>
   <trkpt lat="37.8143970" lon="127.5873900">
    <ele>135</ele>
   </trkpt>
   <trkpt lat="37.8143950" lon="127.5873000">
    <ele>137</ele>
   </trkpt>
   <trkpt lat="37.8143930" lon="127.5872110">
    <ele>140</ele>
   </trkpt>
   <trkpt lat="37.8144040" lon="127.5871260">
    <ele>139</ele>
   </trkpt>
   <trkpt lat="37.8144160" lon="127.5870420">
    <ele>139</ele>
   </trkpt>
   <trkpt lat="37.8144280" lon="127.5869580">
    <ele>141</ele>
   </trkpt>
   <trkpt lat="37.8144380" lon="127.5868610">
    <ele>141</ele>
   </trkpt>
   <trkpt lat="37.8144490" lon="127.5867640">
    <ele>144</ele>
   </trkpt>
   <trkpt lat="37.8144480" lon="127.5867500">
    <ele>144</ele>
   </trkpt>
   <trkpt lat="37.8144550" lon="127.5866240">
    <ele>147</ele>
   </trkpt>
   <trkpt lat="37.8144660" lon="127.5865740">
    <ele>147</ele>
   </trkpt>
   <trkpt lat="37.8144770" lon="127.5864770">
    <ele>147</ele>
   </trkpt>
   <trkpt lat="37.8144870" lon="127.5863790">
    <ele>153</ele>
   </trkpt>
   <trkpt lat="37.8144900" lon="127.5863200">
    <ele>153</ele>
   </trkpt>
   <trkpt lat="37.8144920" lon="127.5862390">
    <ele>159</ele>
   </trkpt>
   <trkpt lat="37.8144880" lon="127.5861370">
    <ele>159</ele>
   </trkpt>
   <trkpt lat="37.8144880" lon="127.5861020">
    <ele>166</ele>
   </trkpt>
   <trkpt lat="37.8145170" lon="127.5860260">
    <ele>166</ele>
   </trkpt>
   <trkpt lat="37.8145450" lon="127.5859500">
    <ele>162</ele>
   </trkpt>
   <trkpt lat="37.8146120" lon="127.5858980">
    <ele>167</ele>
   </trkpt>
   <trkpt lat="37.8146780" lon="127.5858470">
    <ele>165</ele>
   </trkpt>
   <trkpt lat="37.8147510" lon="127.5857880">
    <ele>165</ele>
   </trkpt>
   <trkpt lat="37.8148230" lon="127.5857300">
    <ele>168</ele>
   </trkpt>
   <trkpt lat="37.8148750" lon="127.5856790">
    <ele>168</ele>
   </trkpt>
   <trkpt lat="37.8149260" lon="127.5856280">
    <ele>168</ele>
   </trkpt>
   <trkpt lat="37.8149980" lon="127.5855630">
    <ele>174</ele>
   </trkpt>
   <trkpt lat="37.8149910" lon="127.5855690">
    <ele>174</ele>
   </trkpt>
   <trkpt lat="37.8150490" lon="127.5855110">
    <ele>174</ele>
   </trkpt>
   <trkpt lat="37.8150920" lon="127.5854640">
    <ele>178</ele>
   </trkpt>
   <trkpt lat="37.8151350" lon="127.5854160">
    <ele>183</ele>
   </trkpt>
   <trkpt lat="37.8151560" lon="127.5853260">
    <ele>183</ele>
   </trkpt>
   <trkpt lat="37.8151760" lon="127.5852360">
    <ele>189</ele>
   </trkpt>
   <trkpt lat="37.8151470" lon="127.5851300">
    <ele>189</ele>
   </trkpt>
   <trkpt lat="37.8151190" lon="127.5850250">
    <ele>196</ele>
   </trkpt>
   <trkpt lat="37.8150390" lon="127.5849760">
    <ele>192</ele>
   </trkpt>
   <trkpt lat="37.8149590" lon="127.5849280">
    <ele>192</ele>
   </trkpt>
   <trkpt lat="37.8148910" lon="127.5849240">
    <ele>190</ele>
   </trkpt>
   <trkpt lat="37.8148230" lon="127.5849200">
    <ele>190</ele>
   </trkpt>
   <trkpt lat="37.8147650" lon="127.5849150">
    <ele>197</ele>
   </trkpt>
   <trkpt lat="37.8147070" lon="127.5849110">
    <ele>197</ele>
   </trkpt>
   <trkpt lat="37.8146350" lon="127.5849200">
    <ele>191</ele>
   </trkpt>
   <trkpt lat="37.8145630" lon="127.5849280">
    <ele>191</ele>
   </trkpt>
   <trkpt lat="37.8144910" lon="127.5849370">
    <ele>196</ele>
   </trkpt>
   <trkpt lat="37.8144820" lon="127.5849440">
    <ele>196</ele>
   </trkpt>
   <trkpt lat="37.8144150" lon="127.5849680">
    <ele>196</ele>
   </trkpt>
   <trkpt lat="37.8143480" lon="127.5849910">
    <ele>203</ele>
   </trkpt>
   <trkpt lat="37.8142820" lon="127.5849230">
    <ele>203</ele>
   </trkpt>
   <trkpt lat="37.8142810" lon="127.5848130">
    <ele>209</ele>
   </trkpt>
   <trkpt lat="37.8142790" lon="127.5847040">
    <ele>215</ele>
   </trkpt>
   <trkpt lat="37.8143000" lon="127.5845790">
    <ele>215</ele>
   </trkpt>
   <trkpt lat="37.8143200" lon="127.5844550">
    <ele>219</ele>
   </trkpt>
   <trkpt lat="37.8143700" lon="127.5844180">
    <ele>219</ele>
   </trkpt>
   <trkpt lat="37.8144190" lon="127.5843800">
    <ele>220</ele>
   </trkpt>
   <trkpt lat="37.8144740" lon="127.5843380">
    <ele>220</ele>
   </trkpt>
   <trkpt lat="37.8145290" lon="127.5842950">
    <ele>220</ele>
   </trkpt>
   <trkpt lat="37.8145930" lon="127.5842370">
    <ele>218</ele>
   </trkpt>
   <trkpt lat="37.8146560" lon="127.5841790">
    <ele>223</ele>
   </trkpt>
   <trkpt lat="37.8147070" lon="127.5841320">
    <ele>222</ele>
   </trkpt>
   <trkpt lat="37.8147570" lon="127.5840860">
    <ele>222</ele>
   </trkpt>
   <trkpt lat="37.8148370" lon="127.5840420">
    <ele>227</ele>
   </trkpt>
   <trkpt lat="37.8149180" lon="127.5839980">
    <ele>227</ele>
   </trkpt>
   <trkpt lat="37.8149420" lon="127.5839760">
    <ele>227</ele>
   </trkpt>
   <trkpt lat="37.8149340" lon="127.5838520">
    <ele>232</ele>
   </trkpt>
   <trkpt lat="37.8148800" lon="127.5838090">
    <ele>232</ele>
   </trkpt>
   <trkpt lat="37.8148260" lon="127.5837660">
    <ele>232</ele>
   </trkpt>
   <trkpt lat="37.8147370" lon="127.5837410">
    <ele>232</ele>
   </trkpt>
   <trkpt lat="37.8146480" lon="127.5837170">
    <ele>234</ele>
   </trkpt>
   <trkpt lat="37.8145630" lon="127.5837200">
    <ele>234</ele>
   </trkpt>
   <trkpt lat="37.8144780" lon="127.5837240">
    <ele>235</ele>
   </trkpt>
   <trkpt lat="37.8144680" lon="127.5837250">
    <ele>235</ele>
   </trkpt>
   <trkpt lat="37.8144630" lon="127.5837270">
    <ele>235</ele>
   </trkpt>
   <trkpt lat="37.8144130" lon="127.5837510">
    <ele>235</ele>
   </trkpt>
   <trkpt lat="37.8143570" lon="127.5837780">
    <ele>237</ele>
   </trkpt>
   <trkpt lat="37.8142870" lon="127.5837160">
    <ele>237</ele>
   </trkpt>
   <trkpt lat="37.8142170" lon="127.5836550">
    <ele>244</ele>
   </trkpt>
   <trkpt lat="37.8141880" lon="127.5835160">
    <ele>246</ele>
   </trkpt>
   <trkpt lat="37.8141710" lon="127.5834600">
    <ele>246</ele>
   </trkpt>
   <trkpt lat="37.8141630" lon="127.5834350">
    <ele>246</ele>
   </trkpt>
   <trkpt lat="37.8141470" lon="127.5833850">
    <ele>246</ele>
   </trkpt>
   <trkpt lat="37.8140830" lon="127.5833740">
    <ele>246</ele>
   </trkpt>
   <trkpt lat="37.8140430" lon="127.5833960">
    <ele>246</ele>
   </trkpt>
   <trkpt lat="37.8141840" lon="127.5832360">
    <ele>247</ele>
   </trkpt>
   <trkpt lat="37.8143370" lon="127.5829950">
    <ele>251</ele>
   </trkpt>
   <trkpt lat="37.8144330" lon="127.5828770">
    <ele>255</ele>
   </trkpt>
   <trkpt lat="37.8144860" lon="127.5828120">
    <ele>255</ele>
   </trkpt>
   <trkpt lat="37.8147370" lon="127.5824880">
    <ele>265</ele>
   </trkpt>
   <trkpt lat="37.8149980" lon="127.5821230">
    <ele>273</ele>
   </trkpt>
   <trkpt lat="37.8150260" lon="127.5819410">
    <ele>275</ele>
   </trkpt>
   <trkpt lat="37.8150950" lon="127.5815170">
    <ele>281</ele>
   </trkpt>
   <trkpt lat="37.8150720" lon="127.5808870">
    <ele>287</ele>
   </trkpt>
   <trkpt lat="37.8151750" lon="127.5806750">
    <ele>287</ele>
   </trkpt>
   <trkpt lat="37.8153510" lon="127.5803460">
    <ele>283</ele>
   </trkpt>
   <trkpt lat="37.8155420" lon="127.5801870">
    <ele>280</ele>
   </trkpt>
   <trkpt lat="37.8157880" lon="127.5800810">
    <ele>275</ele>
   </trkpt>
   <trkpt lat="37.8162530" lon="127.5799860">
    <ele>265</ele>
   </trkpt>
   <trkpt lat="37.8164720" lon="127.5799810">
    <ele>253</ele>
   </trkpt>
   <trkpt lat="37.8167140" lon="127.5800220">
    <ele>249</ele>
   </trkpt>
   <trkpt lat="37.8167980" lon="127.5799980">
    <ele>249</ele>
   </trkpt>
   <trkpt lat="37.8168810" lon="127.5798330">
    <ele>247</ele>
   </trkpt>
   <trkpt lat="37.8171740" lon="127.5795570">
    <ele>243</ele>
   </trkpt>
   <trkpt lat="37.8174020" lon="127.5793510">
    <ele>242</ele>
   </trkpt>
   <trkpt lat="37.8178070" lon="127.5792620">
    <ele>244</ele>
   </trkpt>
   <trkpt lat="37.8178950" lon="127.5792390">
    <ele>249</ele>
   </trkpt>
   <trkpt lat="37.8181090" lon="127.5789150">
    <ele>252</ele>
   </trkpt>
   <trkpt lat="37.8181650" lon="127.5789150">
    <ele>252</ele>
   </trkpt>
   <trkpt lat="37.8183650" lon="127.5788740">
    <ele>253</ele>
   </trkpt>
   <trkpt lat="37.8184670" lon="127.5788090">
    <ele>254</ele>
   </trkpt>
   <trkpt lat="37.8186440" lon="127.5787440">
    <ele>255</ele>
   </trkpt>
   <trkpt lat="37.8187460" lon="127.5786680">
    <ele>255</ele>
   </trkpt>
   <trkpt lat="37.8191040" lon="127.5782150">
    <ele>259</ele>
   </trkpt>
   <trkpt lat="37.8191690" lon="127.5780260">
    <ele>265</ele>
   </trkpt>
   <trkpt lat="37.8192390" lon="127.5778260">
    <ele>264</ele>
   </trkpt>
   <trkpt lat="37.8193370" lon="127.5777200">
    <ele>272</ele>
   </trkpt>
   <trkpt lat="37.8195230" lon="127.5776140">
    <ele>277</ele>
   </trkpt>
   <trkpt lat="37.8197090" lon="127.5775850">
    <ele>281</ele>
   </trkpt>
   <trkpt lat="37.8199780" lon="127.5776080">
    <ele>276</ele>
   </trkpt>
   <trkpt lat="37.8201270" lon="127.5775380">
    <ele>274</ele>
   </trkpt>
   <trkpt lat="37.8202810" lon="127.5774790">
    <ele>274</ele>
   </trkpt>
   <trkpt lat="37.8204480" lon="127.5774320">
    <ele>275</ele>
   </trkpt>
   <trkpt lat="37.8205410" lon="127.5774430">
    <ele>276</ele>
   </trkpt>
   <trkpt lat="37.8206430" lon="127.5775140">
    <ele>278</ele>
   </trkpt>
   <trkpt lat="37.8208340" lon="127.5775020">
    <ele>280</ele>
   </trkpt>
   <trkpt lat="37.8209320" lon="127.5774370">
    <ele>283</ele>
   </trkpt>
   <trkpt lat="37.8211320" lon="127.5772940">
    <ele>285</ele>
   </trkpt>
   <trkpt lat="37.8211950" lon="127.5771310">
    <ele>283</ele>
   </trkpt>
   <trkpt lat="37.8212270" lon="127.5770510">
    <ele>283</ele>
   </trkpt>
   <trkpt lat="37.8212150" lon="127.5764960">
    <ele>271</ele>
   </trkpt>
   <trkpt lat="37.8212530" lon="127.5764190">
    <ele>271</ele>
   </trkpt>
   <trkpt lat="37.8214110" lon="127.5763190">
    <ele>271</ele>
   </trkpt>
   <trkpt lat="37.8214660" lon="127.5762310">
    <ele>273</ele>
   </trkpt>
   <trkpt lat="37.8216340" lon="127.5759770">
    <ele>268</ele>
   </trkpt>
   <trkpt lat="37.8217360" lon="127.5758070">
    <ele>263</ele>
   </trkpt>
   <trkpt lat="37.8218250" lon="127.5757540">
    <ele>263</ele>
   </trkpt>
   <trkpt lat="37.8221730" lon="127.5756830">
    <ele>243</ele>
   </trkpt>
   <trkpt lat="37.8222290" lon="127.5756480">
    <ele>243</ele>
   </trkpt>
   <trkpt lat="37.8222800" lon="127.5754240">
    <ele>239</ele>
   </trkpt>
   <trkpt lat="37.8223550" lon="127.5753950">
    <ele>239</ele>
   </trkpt>
   <trkpt lat="37.8225780" lon="127.5754480">
    <ele>229</ele>
   </trkpt>
   <trkpt lat="37.8227730" lon="127.5752830">
    <ele>225</ele>
   </trkpt>
   <trkpt lat="37.8233170" lon="127.5750000">
    <ele>211</ele>
   </trkpt>
   <trkpt lat="37.8237080" lon="127.5747590">
    <ele>201</ele>
   </trkpt>
   <trkpt lat="37.8239030" lon="127.5746240">
    <ele>198</ele>
   </trkpt>
   <trkpt lat="37.8240100" lon="127.5744230">
    <ele>197</ele>
   </trkpt>
   <trkpt lat="37.8241080" lon="127.5743640">
    <ele>194</ele>
   </trkpt>
   <trkpt lat="37.8241820" lon="127.5741110">
    <ele>188</ele>
   </trkpt>
   <trkpt lat="37.8241680" lon="127.5739940">
    <ele>186</ele>
   </trkpt>
   <trkpt lat="37.8242380" lon="127.5738880">
    <ele>186</ele>
   </trkpt>
   <trkpt lat="37.8242290" lon="127.5737930">
    <ele>186</ele>
   </trkpt>
   <trkpt lat="37.8243020" lon="127.5736210">
    <ele>182</ele>
   </trkpt>
   <trkpt lat="37.8242820" lon="127.5734120">
    <ele>189</ele>
   </trkpt>
   <trkpt lat="37.8243700" lon="127.5728230">
    <ele>179</ele>
   </trkpt>
   <trkpt lat="37.8244910" lon="127.5724550">
    <ele>168</ele>
   </trkpt>
   <trkpt lat="37.8246700" lon="127.5721980">
    <ele>161</ele>
   </trkpt>
   <trkpt lat="37.8247330" lon="127.5720440">
    <ele>159</ele>
   </trkpt>
   <trkpt lat="37.8247860" lon="127.5717440">
    <ele>157</ele>
   </trkpt>
   <trkpt lat="37.8247670" lon="127.5714490">
    <ele>155</ele>
   </trkpt>
   <trkpt lat="37.8248110" lon="127.5712810">
    <ele>154</ele>
   </trkpt>
   <trkpt lat="37.8246720" lon="127.5708920">
    <ele>157</ele>
   </trkpt>
   <trkpt lat="37.8245430" lon="127.5704680">
    <ele>154</ele>
   </trkpt>
   <trkpt lat="37.8244620" lon="127.5699870">
    <ele>150</ele>
   </trkpt>
   <trkpt lat="37.8243640" lon="127.5692630">
    <ele>150</ele>
   </trkpt>
   <trkpt lat="37.8245260" lon="127.5689570">
    <ele>141</ele>
   </trkpt>
   <trkpt lat="37.8245500" lon="127.5687460">
    <ele>136</ele>
   </trkpt>
   <trkpt lat="37.8244890" lon="127.5683540">
    <ele>131</ele>
   </trkpt>
   <trkpt lat="37.8244040" lon="127.5680570">
    <ele>130</ele>
   </trkpt>
   <trkpt lat="37.8242710" lon="127.5675720">
    <ele>129</ele>
   </trkpt>
   <trkpt lat="37.8242790" lon="127.5671790">
    <ele>125</ele>
   </trkpt>
   <trkpt lat="37.8243460" lon="127.5666350">
    <ele>112</ele>
   </trkpt>
   <trkpt lat="37.8243220" lon="127.5661780">
    <ele>107</ele>
   </trkpt>
   <trkpt lat="37.8242710" lon="127.5658120">
    <ele>106</ele>
   </trkpt>
   <trkpt lat="37.8242020" lon="127.5654670">
    <ele>95</ele>
   </trkpt>
   <trkpt lat="37.8241540" lon="127.5652220">
    <ele>95</ele>
   </trkpt>
   <trkpt lat="37.8240280" lon="127.5647800">
    <ele>92</ele>
   </trkpt>
   <trkpt lat="37.8240040" lon="127.5646940">
    <ele>92</ele>
   </trkpt>
   <trkpt lat="37.8239510" lon="127.5645890">
    <ele>91</ele>
   </trkpt>
   <trkpt lat="37.8239350" lon="127.5645070">
    <ele>91</ele>
   </trkpt>
   <trkpt lat="37.8237520" lon="127.5640640">
    <ele>86</ele>
   </trkpt>
   <trkpt lat="37.8237120" lon="127.5639980">
    <ele>86</ele>
   </trkpt>
   <trkpt lat="37.8236540" lon="127.5639030">
    <ele>85</ele>
   </trkpt>
   <trkpt lat="37.8236730" lon="127.5636260">
    <ele>86</ele>
   </trkpt>
   <trkpt lat="37.8236790" lon="127.5634900">
    <ele>86</ele>
   </trkpt>
   <trkpt lat="37.8236810" lon="127.5633550">
    <ele>88</ele>
   </trkpt>
   <trkpt lat="37.8236700" lon="127.5632960">
    <ele>88</ele>
   </trkpt>
   <trkpt lat="37.8236140" lon="127.5629920">
    <ele>96</ele>
   </trkpt>
   <trkpt lat="37.8236050" lon="127.5629400">
    <ele>100</ele>
   </trkpt>
   <trkpt lat="37.8236500" lon="127.5629210">
    <ele>99</ele>
   </trkpt>
   <trkpt lat="37.8241160" lon="127.5627220">
    <ele>95</ele>
   </trkpt>
   <trkpt lat="37.8245940" lon="127.5625270">
    <ele>85</ele>
   </trkpt>
   <trkpt lat="37.8244800" lon="127.5622710">
    <ele>87</ele>
   </trkpt>
   <trkpt lat="37.8243790" lon="127.5620310">
    <ele>86</ele>
   </trkpt>
   <trkpt lat="37.8242540" lon="127.5618300">
    <ele>86</ele>
   </trkpt>
   <trkpt lat="37.8241260" lon="127.5616690">
    <ele>87</ele>
   </trkpt>
   <trkpt lat="37.8239620" lon="127.5615260">
    <ele>88</ele>
   </trkpt>
   <trkpt lat="37.8237830" lon="127.5614030">
    <ele>90</ele>
   </trkpt>
   <trkpt lat="37.8236920" lon="127.5611450">
    <ele>91</ele>
   </trkpt>
   <trkpt lat="37.8234550" lon="127.5610430">
    <ele>93</ele>
   </trkpt>
   <trkpt lat="37.8232220" lon="127.5609090">
    <ele>93</ele>
   </trkpt>
   <trkpt lat="37.8231500" lon="127.5608180">
    <ele>94</ele>
   </trkpt>
   <trkpt lat="37.8229930" lon="127.5607540">
    <ele>93</ele>
   </trkpt>
   <trkpt lat="37.8228200" lon="127.5606680">
    <ele>93</ele>
   </trkpt>
   <trkpt lat="37.8226920" lon="127.5606300">
    <ele>92</ele>
   </trkpt>
   <trkpt lat="37.8223340" lon="127.5605880">
    <ele>95</ele>
   </trkpt>
   <trkpt lat="37.8222010" lon="127.5603820">
    <ele>97</ele>
   </trkpt>
   <trkpt lat="37.8220590" lon="127.5600600">
    <ele>101</ele>
   </trkpt>
   <trkpt lat="37.8219690" lon="127.5599130">
    <ele>107</ele>
   </trkpt>
   <trkpt lat="37.8218930" lon="127.5598930">
    <ele>107</ele>
   </trkpt>
   <trkpt lat="37.8217300" lon="127.5598770">
    <ele>111</ele>
   </trkpt>
   <trkpt lat="37.8216170" lon="127.5598410">
    <ele>110</ele>
   </trkpt>
   <trkpt lat="37.8215190" lon="127.5597290">
    <ele>113</ele>
   </trkpt>
   <trkpt lat="37.8212590" lon="127.5594790">
    <ele>110</ele>
   </trkpt>
   <trkpt lat="37.8211630" lon="127.5593610">
    <ele>114</ele>
   </trkpt>
   <trkpt lat="37.8210720" lon="127.5592820">
    <ele>109</ele>
   </trkpt>
   <trkpt lat="37.8210030" lon="127.5592140">
    <ele>115</ele>
   </trkpt>
   <trkpt lat="37.8208790" lon="127.5591100">
    <ele>114</ele>
   </trkpt>
   <trkpt lat="37.8207270" lon="127.5589620">
    <ele>114</ele>
   </trkpt>
   <trkpt lat="37.8206180" lon="127.5588550">
    <ele>119</ele>
   </trkpt>
   <trkpt lat="37.8205050" lon="127.5586700">
    <ele>113</ele>
   </trkpt>
   <trkpt lat="37.8204150" lon="127.5585220">
    <ele>113</ele>
   </trkpt>
   <trkpt lat="37.8203620" lon="127.5584160">
    <ele>110</ele>
   </trkpt>
   <trkpt lat="37.8202900" lon="127.5582070">
    <ele>111</ele>
   </trkpt>
   <trkpt lat="37.8202240" lon="127.5580620">
    <ele>113</ele>
   </trkpt>
   <trkpt lat="37.8201630" lon="127.5579530">
    <ele>112</ele>
   </trkpt>
   <trkpt lat="37.8201010" lon="127.5578680">
    <ele>112</ele>
   </trkpt>
   <trkpt lat="37.8199380" lon="127.5577030">
    <ele>115</ele>
   </trkpt>
   <trkpt lat="37.8196610" lon="127.5574050">
    <ele>114</ele>
   </trkpt>
   <trkpt lat="37.8195040" lon="127.5571910">
    <ele>120</ele>
   </trkpt>
   <trkpt lat="37.8193810" lon="127.5570140">
    <ele>125</ele>
   </trkpt>
   <trkpt lat="37.8192580" lon="127.5568480">
    <ele>127</ele>
   </trkpt>
   <trkpt lat="37.8191310" lon="127.5566920">
    <ele>128</ele>
   </trkpt>
   <trkpt lat="37.8190330" lon="127.5564830">
    <ele>128</ele>
   </trkpt>
   <trkpt lat="37.8189610" lon="127.5563540">
    <ele>127</ele>
   </trkpt>
   <trkpt lat="37.8188660" lon="127.5562410">
    <ele>125</ele>
   </trkpt>
   <trkpt lat="37.8187430" lon="127.5560510">
    <ele>126</ele>
   </trkpt>
   <trkpt lat="37.8185060" lon="127.5555950">
    <ele>119</ele>
   </trkpt>
   <trkpt lat="37.8183830" lon="127.5554340">
    <ele>116</ele>
   </trkpt>
   <trkpt lat="37.8181010" lon="127.5550690">
    <ele>121</ele>
   </trkpt>
   <trkpt lat="37.8180040" lon="127.5548980">
    <ele>123</ele>
   </trkpt>
   <trkpt lat="37.8179000" lon="127.5547850">
    <ele>127</ele>
   </trkpt>
   <trkpt lat="37.8178220" lon="127.5546620">
    <ele>131</ele>
   </trkpt>
   <trkpt lat="37.8175100" lon="127.5543910">
    <ele>130</ele>
   </trkpt>
   <trkpt lat="37.8172900" lon="127.5541120">
    <ele>134</ele>
   </trkpt>
   <trkpt lat="37.8171800" lon="127.5539560">
    <ele>136</ele>
   </trkpt>
   <trkpt lat="37.8171100" lon="127.5538330">
    <ele>139</ele>
   </trkpt>
   <trkpt lat="37.8169630" lon="127.5535480">
    <ele>139</ele>
   </trkpt>
   <trkpt lat="37.8168910" lon="127.5532270">
    <ele>147</ele>
   </trkpt>
   <trkpt lat="37.8168190" lon="127.5530390">
    <ele>146</ele>
   </trkpt>
   <trkpt lat="37.8167640" lon="127.5528220">
    <ele>145</ele>
   </trkpt>
   <trkpt lat="37.8167130" lon="127.5525960">
    <ele>146</ele>
   </trkpt>
   <trkpt lat="37.8166410" lon="127.5524620">
    <ele>144</ele>
   </trkpt>
   <trkpt lat="37.8165520" lon="127.5522960">
    <ele>142</ele>
   </trkpt>
   <trkpt lat="37.8164460" lon="127.5520200">
    <ele>145</ele>
   </trkpt>
   <trkpt lat="37.8163980" lon="127.5518830">
    <ele>149</ele>
   </trkpt>
   <trkpt lat="37.8162980" lon="127.5516440">
    <ele>153</ele>
   </trkpt>
   <trkpt lat="37.8162530" lon="127.5514460">
    <ele>158</ele>
   </trkpt>
   <trkpt lat="37.8161900" lon="127.5513650">
    <ele>160</ele>
   </trkpt>
   <trkpt lat="37.8161310" lon="127.5513600">
    <ele>167</ele>
   </trkpt>
   <trkpt lat="37.8160670" lon="127.5513920">
    <ele>167</ele>
   </trkpt>
   <trkpt lat="37.8159970" lon="127.5515130">
    <ele>169</ele>
   </trkpt>
   <trkpt lat="37.8159670" lon="127.5516520">
    <ele>166</ele>
   </trkpt>
   <trkpt lat="37.8159550" lon="127.5519580">
    <ele>160</ele>
   </trkpt>
   <trkpt lat="37.8158950" lon="127.5521720">
    <ele>157</ele>
   </trkpt>
   <trkpt lat="37.8158150" lon="127.5523070">
    <ele>156</ele>
   </trkpt>
   <trkpt lat="37.8156880" lon="127.5523920">
    <ele>159</ele>
   </trkpt>
   <trkpt lat="37.8155520" lon="127.5523820">
    <ele>161</ele>
   </trkpt>
   <trkpt lat="37.8154000" lon="127.5523120">
    <ele>162</ele>
   </trkpt>
   <trkpt lat="37.8153060" lon="127.5522480">
    <ele>167</ele>
   </trkpt>
   <trkpt lat="37.8152340" lon="127.5522690">
    <ele>167</ele>
   </trkpt>
   <trkpt lat="37.8151500" lon="127.5523390">
    <ele>164</ele>
   </trkpt>
   <trkpt lat="37.8150900" lon="127.5524410">
    <ele>164</ele>
   </trkpt>
   <trkpt lat="37.8150350" lon="127.5524730">
    <ele>161</ele>
   </trkpt>
   <trkpt lat="37.8149720" lon="127.5524510">
    <ele>165</ele>
   </trkpt>
   <trkpt lat="37.8141540" lon="127.5518180">
    <ele>181</ele>
   </trkpt>
   <trkpt lat="37.8139670" lon="127.5516900">
    <ele>184</ele>
   </trkpt>
   <trkpt lat="37.8138740" lon="127.5516200">
    <ele>184</ele>
   </trkpt>
   <trkpt lat="37.8137430" lon="127.5515390">
    <ele>187</ele>
   </trkpt>
   <trkpt lat="37.8136200" lon="127.5515070">
    <ele>189</ele>
   </trkpt>
   <trkpt lat="37.8135260" lon="127.5514480">
    <ele>191</ele>
   </trkpt>
   <trkpt lat="37.8134330" lon="127.5513410">
    <ele>193</ele>
   </trkpt>
   <trkpt lat="37.8133310" lon="127.5512770">
    <ele>193</ele>
   </trkpt>
   <trkpt lat="37.8132550" lon="127.5512930">
    <ele>196</ele>
   </trkpt>
   <trkpt lat="37.8132300" lon="127.5514000">
    <ele>196</ele>
   </trkpt>
   <trkpt lat="37.8132510" lon="127.5515070">
    <ele>198</ele>
   </trkpt>
   <trkpt lat="37.8133700" lon="127.5517430">
    <ele>195</ele>
   </trkpt>
   <trkpt lat="37.8134630" lon="127.5518770">
    <ele>193</ele>
   </trkpt>
   <trkpt lat="37.8135900" lon="127.5520330">
    <ele>190</ele>
   </trkpt>
   <trkpt lat="37.8136410" lon="127.5521400">
    <ele>193</ele>
   </trkpt>
   <trkpt lat="37.8136750" lon="127.5523440">
    <ele>196</ele>
   </trkpt>
   <trkpt lat="37.8137090" lon="127.5524730">
    <ele>198</ele>
   </trkpt>
   <trkpt lat="37.8137930" lon="127.5526390">
    <ele>190</ele>
   </trkpt>
   <trkpt lat="37.8138320" lon="127.5527790">
    <ele>190</ele>
   </trkpt>
   <trkpt lat="37.8138320" lon="127.5529180">
    <ele>190</ele>
   </trkpt>
   <trkpt lat="37.8137300" lon="127.5530520">
    <ele>187</ele>
   </trkpt>
   <trkpt lat="37.8136030" lon="127.5532080">
    <ele>188</ele>
   </trkpt>
   <trkpt lat="37.8135180" lon="127.5532510">
    <ele>192</ele>
   </trkpt>
   <trkpt lat="37.8133570" lon="127.5532610">
    <ele>195</ele>
   </trkpt>
   <trkpt lat="37.8131620" lon="127.5532020">
    <ele>198</ele>
   </trkpt>
   <trkpt lat="37.8129970" lon="127.5531810">
    <ele>199</ele>
   </trkpt>
   <trkpt lat="37.8128400" lon="127.5531490">
    <ele>206</ele>
   </trkpt>
   <trkpt lat="37.8127040" lon="127.5531540">
    <ele>205</ele>
   </trkpt>
   <trkpt lat="37.8125260" lon="127.5531490">
    <ele>205</ele>
   </trkpt>
   <trkpt lat="37.8124250" lon="127.5530840">
    <ele>206</ele>
   </trkpt>
   <trkpt lat="37.8123140" lon="127.5529770">
    <ele>213</ele>
   </trkpt>
   <trkpt lat="37.8122210" lon="127.5528590">
    <ele>214</ele>
   </trkpt>
   <trkpt lat="37.8121240" lon="127.5527890">
    <ele>219</ele>
   </trkpt>
   <trkpt lat="37.8120520" lon="127.5528320">
    <ele>216</ele>
   </trkpt>
   <trkpt lat="37.8120270" lon="127.5528930">
    <ele>216</ele>
   </trkpt>
   <trkpt lat="37.8119920" lon="127.5529770">
    <ele>216</ele>
   </trkpt>
   <trkpt lat="37.8119460" lon="127.5530470">
    <ele>213</ele>
   </trkpt>
   <trkpt lat="37.8118310" lon="127.5530900">
    <ele>213</ele>
   </trkpt>
   <trkpt lat="37.8116070" lon="127.5530680">
    <ele>216</ele>
   </trkpt>
   <trkpt lat="37.8114580" lon="127.5530200">
    <ele>218</ele>
   </trkpt>
   <trkpt lat="37.8113940" lon="127.5529760">
    <ele>225</ele>
   </trkpt>
   <trkpt lat="37.8113650" lon="127.5529560">
    <ele>225</ele>
   </trkpt>
   <trkpt lat="37.8112170" lon="127.5528640">
    <ele>227</ele>
   </trkpt>
   <trkpt lat="37.8110130" lon="127.5527140">
    <ele>234</ele>
   </trkpt>
   <trkpt lat="37.8109330" lon="127.5526340">
    <ele>239</ele>
   </trkpt>
   <trkpt lat="37.8108950" lon="127.5525270">
    <ele>239</ele>
   </trkpt>
   <trkpt lat="37.8107970" lon="127.5524030">
    <ele>244</ele>
   </trkpt>
   <trkpt lat="37.8107420" lon="127.5522800">
    <ele>247</ele>
   </trkpt>
   <trkpt lat="37.8106360" lon="127.5521720">
    <ele>249</ele>
   </trkpt>
   <trkpt lat="37.8105430" lon="127.5520970">
    <ele>255</ele>
   </trkpt>
   <trkpt lat="37.8104750" lon="127.5521080">
    <ele>255</ele>
   </trkpt>
   <trkpt lat="37.8104240" lon="127.5521830">
    <ele>256</ele>
   </trkpt>
   <trkpt lat="37.8103100" lon="127.5525480">
    <ele>255</ele>
   </trkpt>
   <trkpt lat="37.8102420" lon="127.5526930">
    <ele>252</ele>
   </trkpt>
   <trkpt lat="37.8101910" lon="127.5527410">
    <ele>252</ele>
   </trkpt>
   <trkpt lat="37.8100720" lon="127.5527460">
    <ele>257</ele>
   </trkpt>
   <trkpt lat="37.8099750" lon="127.5527460">
    <ele>264</ele>
   </trkpt>
   <trkpt lat="37.8099110" lon="127.5527090">
    <ele>270</ele>
   </trkpt>
   <trkpt lat="37.8098900" lon="127.5526230">
    <ele>274</ele>
   </trkpt>
   <trkpt lat="37.8099370" lon="127.5525530">
    <ele>268</ele>
   </trkpt>
   <trkpt lat="37.8100300" lon="127.5524510">
    <ele>271</ele>
   </trkpt>
   <trkpt lat="37.8101110" lon="127.5523010">
    <ele>264</ele>
   </trkpt>
   <trkpt lat="37.8101280" lon="127.5521510">
    <ele>267</ele>
   </trkpt>
   <trkpt lat="37.8100810" lon="127.5520280">
    <ele>269</ele>
   </trkpt>
   <trkpt lat="37.8099580" lon="127.5517860">
    <ele>278</ele>
   </trkpt>
   <trkpt lat="37.8099280" lon="127.5516630">
    <ele>280</ele>
   </trkpt>
   <trkpt lat="37.8099580" lon="127.5515770">
    <ele>284</ele>
   </trkpt>
   <trkpt lat="37.8100390" lon="127.5515020">
    <ele>284</ele>
   </trkpt>
   <trkpt lat="37.8100980" lon="127.5514000">
    <ele>283</ele>
   </trkpt>
   <trkpt lat="37.8103180" lon="127.5508740">
    <ele>294</ele>
   </trkpt>
   <trkpt lat="37.8103900" lon="127.5507670">
    <ele>287</ele>
   </trkpt>
   <trkpt lat="37.8104450" lon="127.5506760">
    <ele>291</ele>
   </trkpt>
   <trkpt lat="37.8104450" lon="127.5505790">
    <ele>295</ele>
   </trkpt>
   <trkpt lat="37.8104030" lon="127.5505310">
    <ele>295</ele>
   </trkpt>
   <trkpt lat="37.8103520" lon="127.5505360">
    <ele>295</ele>
   </trkpt>
   <trkpt lat="37.8102890" lon="127.5506600">
    <ele>298</ele>
   </trkpt>
   <trkpt lat="37.8099750" lon="127.5511480">
    <ele>294</ele>
   </trkpt>
   <trkpt lat="37.8099110" lon="127.5512010">
    <ele>300</ele>
   </trkpt>
   <trkpt lat="37.8098440" lon="127.5512440">
    <ele>300</ele>
   </trkpt>
   <trkpt lat="37.8097380" lon="127.5512610">
    <ele>307</ele>
   </trkpt>
   <trkpt lat="37.8096570" lon="127.5512930">
    <ele>302</ele>
   </trkpt>
   <trkpt lat="37.8095980" lon="127.5513680">
    <ele>309</ele>
   </trkpt>
   <trkpt lat="37.8095600" lon="127.5514640">
    <ele>304</ele>
   </trkpt>
   <trkpt lat="37.8094920" lon="127.5516250">
    <ele>305</ele>
   </trkpt>
   <trkpt lat="37.8093820" lon="127.5517330">
    <ele>305</ele>
   </trkpt>
   <trkpt lat="37.8092160" lon="127.5518670">
    <ele>311</ele>
   </trkpt>
   <trkpt lat="37.8091190" lon="127.5518770">
    <ele>311</ele>
   </trkpt>
   <trkpt lat="37.8090130" lon="127.5519420">
    <ele>316</ele>
   </trkpt>
   <trkpt lat="37.8089110" lon="127.5520650">
    <ele>317</ele>
   </trkpt>
   <trkpt lat="37.8088350" lon="127.5521560">
    <ele>312</ele>
   </trkpt>
   <trkpt lat="37.8088090" lon="127.5523390">
    <ele>317</ele>
   </trkpt>
   <trkpt lat="37.8087590" lon="127.5524410">
    <ele>317</ele>
   </trkpt>
   <trkpt lat="37.8086610" lon="127.5525270">
    <ele>322</ele>
   </trkpt>
   <trkpt lat="37.8085510" lon="127.5526180">
    <ele>331</ele>
   </trkpt>
   <trkpt lat="37.8084450" lon="127.5527680">
    <ele>328</ele>
   </trkpt>
   <trkpt lat="37.8083560" lon="127.5528810">
    <ele>332</ele>
   </trkpt>
   <trkpt lat="37.8079830" lon="127.5530150">
    <ele>345</ele>
   </trkpt>
   <trkpt lat="37.8078470" lon="127.5531000">
    <ele>349</ele>
   </trkpt>
   <trkpt lat="37.8077710" lon="127.5532020">
    <ele>349</ele>
   </trkpt>
   <trkpt lat="37.8077710" lon="127.5532940">
    <ele>349</ele>
   </trkpt>
   <trkpt lat="37.8078260" lon="127.5533530">
    <ele>349</ele>
   </trkpt>
   <trkpt lat="37.8080340" lon="127.5535080">
    <ele>337</ele>
   </trkpt>
   <trkpt lat="37.8081100" lon="127.5536100">
    <ele>337</ele>
   </trkpt>
   <trkpt lat="37.8081530" lon="127.5537280">
    <ele>339</ele>
   </trkpt>
   <trkpt lat="37.8081310" lon="127.5538520">
    <ele>344</ele>
   </trkpt>
   <trkpt lat="37.8080760" lon="127.5539750">
    <ele>344</ele>
   </trkpt>
   <trkpt lat="37.8080340" lon="127.5541040">
    <ele>349</ele>
   </trkpt>
   <trkpt lat="37.8080640" lon="127.5542540">
    <ele>352</ele>
   </trkpt>
   <trkpt lat="37.8081400" lon="127.5544680">
    <ele>355</ele>
   </trkpt>
   <trkpt lat="37.8081610" lon="127.5546510">
    <ele>349</ele>
   </trkpt>
   <trkpt lat="37.8081740" lon="127.5548980">
    <ele>352</ele>
   </trkpt>
   <trkpt lat="37.8081820" lon="127.5550850">
    <ele>354</ele>
   </trkpt>
   <trkpt lat="37.8082540" lon="127.5552300">
    <ele>357</ele>
   </trkpt>
   <trkpt lat="37.8083220" lon="127.5554070">
    <ele>351</ele>
   </trkpt>
   <trkpt lat="37.8083390" lon="127.5555520">
    <ele>351</ele>
   </trkpt>
   <trkpt lat="37.8083220" lon="127.5556650">
    <ele>352</ele>
   </trkpt>
   <trkpt lat="37.8083940" lon="127.5559280">
    <ele>352</ele>
   </trkpt>
   <trkpt lat="37.8084240" lon="127.5560940">
    <ele>352</ele>
   </trkpt>
   <trkpt lat="37.8084240" lon="127.5562600">
    <ele>351</ele>
   </trkpt>
   <trkpt lat="37.8083730" lon="127.5563410">
    <ele>351</ele>
   </trkpt>
   <trkpt lat="37.8082880" lon="127.5563940">
    <ele>352</ele>
   </trkpt>
   <trkpt lat="37.8081910" lon="127.5563940">
    <ele>352</ele>
   </trkpt>
   <trkpt lat="37.8081020" lon="127.5563140">
    <ele>353</ele>
   </trkpt>
   <trkpt lat="37.8080300" lon="127.5561960">
    <ele>355</ele>
   </trkpt>
   <trkpt lat="37.8078640" lon="127.5560290">
    <ele>358</ele>
   </trkpt>
   <trkpt lat="37.8077710" lon="127.5558790">
    <ele>362</ele>
   </trkpt>
   <trkpt lat="37.8077120" lon="127.5558150">
    <ele>361</ele>
   </trkpt>
   <trkpt lat="37.8076310" lon="127.5557770">
    <ele>361</ele>
   </trkpt>
   <trkpt lat="37.8075250" lon="127.5557510">
    <ele>360</ele>
   </trkpt>
   <trkpt lat="37.8074490" lon="127.5556590">
    <ele>363</ele>
   </trkpt>
   <trkpt lat="37.8073900" lon="127.5554820">
    <ele>368</ele>
   </trkpt>
   <trkpt lat="37.8072750" lon="127.5553000">
    <ele>370</ele>
   </trkpt>
   <trkpt lat="37.8071950" lon="127.5552570">
    <ele>369</ele>
   </trkpt>
   <trkpt lat="37.8071100" lon="127.5552620">
    <ele>369</ele>
   </trkpt>
   <trkpt lat="37.8070210" lon="127.5552620">
    <ele>369</ele>
   </trkpt>
   <trkpt lat="37.8069490" lon="127.5551930">
    <ele>375</ele>
   </trkpt>
   <trkpt lat="37.8068010" lon="127.5550690">
    <ele>376</ele>
   </trkpt>
   <trkpt lat="37.8067070" lon="127.5550370">
    <ele>385</ele>
   </trkpt>
   <trkpt lat="37.8066270" lon="127.5550910">
    <ele>381</ele>
   </trkpt>
   <trkpt lat="37.8065380" lon="127.5551930">
    <ele>381</ele>
   </trkpt>
   <trkpt lat="37.8064660" lon="127.5552300">
    <ele>377</ele>
   </trkpt>
   <trkpt lat="37.8063940" lon="127.5552300">
    <ele>377</ele>
   </trkpt>
   <trkpt lat="37.8062710" lon="127.5552030">
    <ele>386</ele>
   </trkpt>
   <trkpt lat="37.8061180" lon="127.5552140">
    <ele>391</ele>
   </trkpt>
   <trkpt lat="37.8059990" lon="127.5552460">
    <ele>384</ele>
   </trkpt>
   <trkpt lat="37.8058940" lon="127.5553050">
    <ele>386</ele>
   </trkpt>
   <trkpt lat="37.8058300" lon="127.5554230">
    <ele>383</ele>
   </trkpt>
   <trkpt lat="37.8057710" lon="127.5555230">
    <ele>383</ele>
   </trkpt>
   <trkpt lat="37.8057540" lon="127.5555520">
    <ele>383</ele>
   </trkpt>
   <trkpt lat="37.8057030" lon="127.5555840">
    <ele>380</ele>
   </trkpt>
   <trkpt lat="37.8056220" lon="127.5555730">
    <ele>380</ele>
   </trkpt>
   <trkpt lat="37.8055080" lon="127.5555520">
    <ele>389</ele>
   </trkpt>
   <trkpt lat="37.8053810" lon="127.5555790">
    <ele>389</ele>
   </trkpt>
   <trkpt lat="37.8052450" lon="127.5556700">
    <ele>394</ele>
   </trkpt>
   <trkpt lat="37.8051430" lon="127.5557990">
    <ele>395</ele>
   </trkpt>
   <trkpt lat="37.8050590" lon="127.5559060">
    <ele>390</ele>
   </trkpt>
   <trkpt lat="37.8049650" lon="127.5559440">
    <ele>391</ele>
   </trkpt>
   <trkpt lat="37.8048380" lon="127.5559440">
    <ele>392</ele>
   </trkpt>
   <trkpt lat="37.8046220" lon="127.5559540">
    <ele>389</ele>
   </trkpt>
   <trkpt lat="37.8045080" lon="127.5559380">
    <ele>389</ele>
   </trkpt>
   <trkpt lat="37.8043970" lon="127.5558790">
    <ele>395</ele>
   </trkpt>
   <trkpt lat="37.8042960" lon="127.5558040">
    <ele>394</ele>
   </trkpt>
   <trkpt lat="37.8042360" lon="127.5557610">
    <ele>394</ele>
   </trkpt>
   <trkpt lat="37.8041640" lon="127.5557450">
    <ele>394</ele>
   </trkpt>
   <trkpt lat="37.8040410" lon="127.5557880">
    <ele>394</ele>
   </trkpt>
   <trkpt lat="37.8039100" lon="127.5558420">
    <ele>393</ele>
   </trkpt>
   <trkpt lat="37.8037870" lon="127.5557880">
    <ele>391</ele>
   </trkpt>
   <trkpt lat="37.8036900" lon="127.5557670">
    <ele>391</ele>
   </trkpt>
   <trkpt lat="37.8035500" lon="127.5557290">
    <ele>394</ele>
   </trkpt>
   <trkpt lat="37.8034650" lon="127.5556430">
    <ele>391</ele>
   </trkpt>
   <trkpt lat="37.8033590" lon="127.5554720">
    <ele>394</ele>
   </trkpt>
   <trkpt lat="37.8032570" lon="127.5553160">
    <ele>400</ele>
   </trkpt>
   <trkpt lat="37.8031770" lon="127.5551980">
    <ele>405</ele>
   </trkpt>
   <trkpt lat="37.8030880" lon="127.5551820">
    <ele>406</ele>
   </trkpt>
   <trkpt lat="37.8029560" lon="127.5551500">
    <ele>409</ele>
   </trkpt>
   <trkpt lat="37.8028500" lon="127.5551230">
    <ele>414</ele>
   </trkpt>
   <trkpt lat="37.8027910" lon="127.5551660">
    <ele>414</ele>
   </trkpt>
   <trkpt lat="37.8027570" lon="127.5552460">
    <ele>410</ele>
   </trkpt>
   <trkpt lat="37.8027660" lon="127.5554340">
    <ele>408</ele>
   </trkpt>
   <trkpt lat="37.8028080" lon="127.5556160">
    <ele>406</ele>
   </trkpt>
   <trkpt lat="37.8027950" lon="127.5557400">
    <ele>405</ele>
   </trkpt>
   <trkpt lat="37.8027570" lon="127.5558630">
    <ele>405</ele>
   </trkpt>
   <trkpt lat="37.8026680" lon="127.5559440">
    <ele>410</ele>
   </trkpt>
   <trkpt lat="37.8025240" lon="127.5560400">
    <ele>417</ele>
   </trkpt>
   <trkpt lat="37.8024180" lon="127.5560880">
    <ele>422</ele>
   </trkpt>
   <trkpt lat="37.8023500" lon="127.5561850">
    <ele>422</ele>
   </trkpt>
   <trkpt lat="37.8023420" lon="127.5563140">
    <ele>420</ele>
   </trkpt>
   <trkpt lat="37.8024180" lon="127.5564210">
    <ele>419</ele>
   </trkpt>
   <trkpt lat="37.8025620" lon="127.5564850">
    <ele>411</ele>
   </trkpt>
   <trkpt lat="37.8027230" lon="127.5565870">
    <ele>405</ele>
   </trkpt>
   <trkpt lat="37.8028080" lon="127.5566950">
    <ele>399</ele>
   </trkpt>
   <trkpt lat="37.8028160" lon="127.5568450">
    <ele>398</ele>
   </trkpt>
   <trkpt lat="37.8027570" lon="127.5569950">
    <ele>398</ele>
   </trkpt>
   <trkpt lat="37.8026810" lon="127.5571080">
    <ele>403</ele>
   </trkpt>
   <trkpt lat="37.8025540" lon="127.5572100">
    <ele>411</ele>
   </trkpt>
   <trkpt lat="37.8022270" lon="127.5574080">
    <ele>427</ele>
   </trkpt>
   <trkpt lat="37.8021170" lon="127.5575100">
    <ele>432</ele>
   </trkpt>
   <trkpt lat="37.8020660" lon="127.5576390">
    <ele>429</ele>
   </trkpt>
   <trkpt lat="37.8021000" lon="127.5577840">
    <ele>429</ele>
   </trkpt>
   <trkpt lat="37.8021930" lon="127.5578910">
    <ele>418</ele>
   </trkpt>
   <trkpt lat="37.8022610" lon="127.5580460">
    <ele>415</ele>
   </trkpt>
   <trkpt lat="37.8022400" lon="127.5581750">
    <ele>411</ele>
   </trkpt>
   <trkpt lat="37.8021380" lon="127.5582930">
    <ele>419</ele>
   </trkpt>
   <trkpt lat="37.8018160" lon="127.5586200">
    <ele>430</ele>
   </trkpt>
   <trkpt lat="37.8017550" lon="127.5586760">
    <ele>438</ele>
   </trkpt>
   <trkpt lat="37.8017100" lon="127.5587550">
    <ele>438</ele>
   </trkpt>
   <trkpt lat="37.8016900" lon="127.5588210">
    <ele>438</ele>
   </trkpt>
   <trkpt lat="37.8016850" lon="127.5589100">
    <ele>437</ele>
   </trkpt>
   <trkpt lat="37.8017360" lon="127.5590340">
    <ele>438</ele>
   </trkpt>
   <trkpt lat="37.8018250" lon="127.5591140">
    <ele>427</ele>
   </trkpt>
   <trkpt lat="37.8018900" lon="127.5591350">
    <ele>427</ele>
   </trkpt>
   <trkpt lat="37.8019730" lon="127.5591620">
    <ele>417</ele>
   </trkpt>
   <trkpt lat="37.8020280" lon="127.5591680">
    <ele>422</ele>
   </trkpt>
   <trkpt lat="37.8020870" lon="127.5592270">
    <ele>415</ele>
   </trkpt>
   <trkpt lat="37.8021330" lon="127.5592580">
    <ele>415</ele>
   </trkpt>
   <trkpt lat="37.8021850" lon="127.5592910">
    <ele>415</ele>
   </trkpt>
   <trkpt lat="37.8022470" lon="127.5592920">
    <ele>409</ele>
   </trkpt>
   <trkpt lat="37.8023550" lon="127.5592660">
    <ele>405</ele>
   </trkpt>
   <trkpt lat="37.8024160" lon="127.5593040">
    <ele>405</ele>
   </trkpt>
   <trkpt lat="37.8024820" lon="127.5594090">
    <ele>411</ele>
   </trkpt>
   <trkpt lat="37.8026300" lon="127.5597090">
    <ele>423</ele>
   </trkpt>
   <trkpt lat="37.8027570" lon="127.5598010">
    <ele>418</ele>
   </trkpt>
   <trkpt lat="37.8028930" lon="127.5598010">
    <ele>413</ele>
   </trkpt>
   <trkpt lat="37.8030240" lon="127.5597850">
    <ele>410</ele>
   </trkpt>
   <trkpt lat="37.8030960" lon="127.5598760">
    <ele>412</ele>
   </trkpt>
   <trkpt lat="37.8030790" lon="127.5600260">
    <ele>411</ele>
   </trkpt>
   <trkpt lat="37.8030450" lon="127.5601820">
    <ele>411</ele>
   </trkpt>
   <trkpt lat="37.8030240" lon="127.5603590">
    <ele>409</ele>
   </trkpt>
   <trkpt lat="37.8029310" lon="127.5604770">
    <ele>410</ele>
   </trkpt>
   <trkpt lat="37.8027740" lon="127.5605520">
    <ele>410</ele>
   </trkpt>
   <trkpt lat="37.8025370" lon="127.5607020">
    <ele>420</ele>
   </trkpt>
   <trkpt lat="37.8019520" lon="127.5609060">
    <ele>433</ele>
   </trkpt>
   <trkpt lat="37.8018200" lon="127.5610080">
    <ele>442</ele>
   </trkpt>
   <trkpt lat="37.8017690" lon="127.5611790">
    <ele>446</ele>
   </trkpt>
   <trkpt lat="37.8017910" lon="127.5613240">
    <ele>433</ele>
   </trkpt>
   <trkpt lat="37.8018710" lon="127.5614690">
    <ele>428</ele>
   </trkpt>
   <trkpt lat="37.8019640" lon="127.5616510">
    <ele>417</ele>
   </trkpt>
   <trkpt lat="37.8020110" lon="127.5617910">
    <ele>414</ele>
   </trkpt>
   <trkpt lat="37.8020030" lon="127.5618930">
    <ele>414</ele>
   </trkpt>
   <trkpt lat="37.8019140" lon="127.5619520">
    <ele>417</ele>
   </trkpt>
   <trkpt lat="37.8017570" lon="127.5620380">
    <ele>424</ele>
   </trkpt>
   <trkpt lat="37.8016470" lon="127.5621990">
    <ele>421</ele>
   </trkpt>
   <trkpt lat="37.8015740" lon="127.5623650">
    <ele>425</ele>
   </trkpt>
   <trkpt lat="37.8016250" lon="127.5625260">
    <ele>422</ele>
   </trkpt>
   <trkpt lat="37.8017230" lon="127.5626810">
    <ele>415</ele>
   </trkpt>
   <trkpt lat="37.8018800" lon="127.5628850">
    <ele>406</ele>
   </trkpt>
   <trkpt lat="37.8019690" lon="127.5630300">
    <ele>398</ele>
   </trkpt>
   <trkpt lat="37.8019600" lon="127.5631530">
    <ele>395</ele>
   </trkpt>
   <trkpt lat="37.8018710" lon="127.5632450">
    <ele>399</ele>
   </trkpt>
   <trkpt lat="37.8017490" lon="127.5632800">
    <ele>403</ele>
   </trkpt>
   <trkpt lat="37.8015020" lon="127.5633520">
    <ele>399</ele>
   </trkpt>
   <trkpt lat="37.8013750" lon="127.5633630">
    <ele>399</ele>
   </trkpt>
   <trkpt lat="37.8012780" lon="127.5632980">
    <ele>397</ele>
   </trkpt>
   <trkpt lat="37.8011040" lon="127.5631120">
    <ele>406</ele>
   </trkpt>
   <trkpt lat="37.8009510" lon="127.5629500">
    <ele>401</ele>
   </trkpt>
   <trkpt lat="37.8008280" lon="127.5628800">
    <ele>407</ele>
   </trkpt>
   <trkpt lat="37.8007140" lon="127.5628640">
    <ele>407</ele>
   </trkpt>
   <trkpt lat="37.8005610" lon="127.5628800">
    <ele>408</ele>
   </trkpt>
   <trkpt lat="37.8004090" lon="127.5628640">
    <ele>410</ele>
   </trkpt>
   <trkpt lat="37.8002560" lon="127.5628640">
    <ele>412</ele>
   </trkpt>
   <trkpt lat="37.7999300" lon="127.5629500">
    <ele>410</ele>
   </trkpt>
   <trkpt lat="37.7998070" lon="127.5630510">
    <ele>414</ele>
   </trkpt>
   <trkpt lat="37.7997430" lon="127.5632020">
    <ele>413</ele>
   </trkpt>
   <trkpt lat="37.7997260" lon="127.5633360">
    <ele>406</ele>
   </trkpt>
   <trkpt lat="37.7997090" lon="127.5635500">
    <ele>400</ele>
   </trkpt>
   <trkpt lat="37.7996460" lon="127.5636150">
    <ele>400</ele>
   </trkpt>
   <trkpt lat="37.7995310" lon="127.5636630">
    <ele>398</ele>
   </trkpt>
   <trkpt lat="37.7993960" lon="127.5637010">
    <ele>403</ele>
   </trkpt>
   <trkpt lat="37.7992940" lon="127.5638030">
    <ele>397</ele>
   </trkpt>
   <trkpt lat="37.7991750" lon="127.5639900">
    <ele>387</ele>
   </trkpt>
   <trkpt lat="37.7991430" lon="127.5640590">
    <ele>387</ele>
   </trkpt>
   <trkpt lat="37.7990890" lon="127.5640840">
    <ele>387</ele>
   </trkpt>
   <trkpt lat="37.7990090" lon="127.5640770">
    <ele>385</ele>
   </trkpt>
   <trkpt lat="37.7989250" lon="127.5640280">
    <ele>382</ele>
   </trkpt>
   <trkpt lat="37.7987770" lon="127.5639040">
    <ele>389</ele>
   </trkpt>
   <trkpt lat="37.7985400" lon="127.5637220">
    <ele>398</ele>
   </trkpt>
   <trkpt lat="37.7984840" lon="127.5636790">
    <ele>399</ele>
   </trkpt>
   <trkpt lat="37.7984000" lon="127.5636680">
    <ele>399</ele>
   </trkpt>
   <trkpt lat="37.7983020" lon="127.5636980">
    <ele>401</ele>
   </trkpt>
   <trkpt lat="37.7982420" lon="127.5637460">
    <ele>404</ele>
   </trkpt>
   <trkpt lat="37.7981810" lon="127.5638000">
    <ele>404</ele>
   </trkpt>
   <trkpt lat="37.7981230" lon="127.5638910">
    <ele>393</ele>
   </trkpt>
   <trkpt lat="37.7980820" lon="127.5639930">
    <ele>389</ele>
   </trkpt>
   <trkpt lat="37.7979740" lon="127.5641320">
    <ele>392</ele>
   </trkpt>
   <trkpt lat="37.7978630" lon="127.5642070">
    <ele>384</ele>
   </trkpt>
   <trkpt lat="37.7977320" lon="127.5643280">
    <ele>381</ele>
   </trkpt>
   <trkpt lat="37.7976620" lon="127.5643710">
    <ele>386</ele>
   </trkpt>
   <trkpt lat="37.7975960" lon="127.5643770">
    <ele>386</ele>
   </trkpt>
   <trkpt lat="37.7973650" lon="127.5643200">
    <ele>396</ele>
   </trkpt>
   <trkpt lat="37.7972810" lon="127.5643340">
    <ele>401</ele>
   </trkpt>
   <trkpt lat="37.7972420" lon="127.5643740">
    <ele>401</ele>
   </trkpt>
   <trkpt lat="37.7971960" lon="127.5645320">
    <ele>392</ele>
   </trkpt>
   <trkpt lat="37.7971620" lon="127.5647410">
    <ele>392</ele>
   </trkpt>
   <trkpt lat="37.7970560" lon="127.5649880">
    <ele>387</ele>
   </trkpt>
   <trkpt lat="37.7969710" lon="127.5652290">
    <ele>385</ele>
   </trkpt>
   <trkpt lat="37.7969800" lon="127.5654060">
    <ele>380</ele>
   </trkpt>
   <trkpt lat="37.7969750" lon="127.5655730">
    <ele>376</ele>
   </trkpt>
   <trkpt lat="37.7969410" lon="127.5656640">
    <ele>376</ele>
   </trkpt>
   <trkpt lat="37.7968310" lon="127.5657550">
    <ele>380</ele>
   </trkpt>
   <trkpt lat="37.7967470" lon="127.5658460">
    <ele>388</ele>
   </trkpt>
   <trkpt lat="37.7966960" lon="127.5660070">
    <ele>386</ele>
   </trkpt>
   <trkpt lat="37.7967380" lon="127.5661410">
    <ele>383</ele>
   </trkpt>
   <trkpt lat="37.7967970" lon="127.5662300">
    <ele>373</ele>
   </trkpt>
   <trkpt lat="37.7967760" lon="127.5663640">
    <ele>373</ele>
   </trkpt>
   <trkpt lat="37.7967210" lon="127.5664550">
    <ele>379</ele>
   </trkpt>
   <trkpt lat="37.7966700" lon="127.5664870">
    <ele>379</ele>
   </trkpt>
   <trkpt lat="37.7965070" lon="127.5665330">
    <ele>386</ele>
   </trkpt>
   <trkpt lat="37.7963560" lon="127.5666300">
    <ele>391</ele>
   </trkpt>
   <trkpt lat="37.7963140" lon="127.5668310">
    <ele>397</ele>
   </trkpt>
   <trkpt lat="37.7962840" lon="127.5670350">
    <ele>395</ele>
   </trkpt>
   <trkpt lat="37.7962720" lon="127.5673560">
    <ele>391</ele>
   </trkpt>
   <trkpt lat="37.7962930" lon="127.5674960">
    <ele>390</ele>
   </trkpt>
   <trkpt lat="37.7964580" lon="127.5676170">
    <ele>383</ele>
   </trkpt>
   <trkpt lat="37.7966240" lon="127.5676860">
    <ele>374</ele>
   </trkpt>
   <trkpt lat="37.7967800" lon="127.5678200">
    <ele>366</ele>
   </trkpt>
   <trkpt lat="37.7968990" lon="127.5679710">
    <ele>365</ele>
   </trkpt>
   <trkpt lat="37.7969840" lon="127.5680990">
    <ele>371</ele>
   </trkpt>
   <trkpt lat="37.7970980" lon="127.5681960">
    <ele>362</ele>
   </trkpt>
   <trkpt lat="37.7971280" lon="127.5683090">
    <ele>365</ele>
   </trkpt>
   <trkpt lat="37.7971320" lon="127.5685020">
    <ele>368</ele>
   </trkpt>
   <trkpt lat="37.7971580" lon="127.5686840">
    <ele>369</ele>
   </trkpt>
   <trkpt lat="37.7971660" lon="127.5688500">
    <ele>369</ele>
   </trkpt>
   <trkpt lat="37.7971240" lon="127.5689900">
    <ele>370</ele>
   </trkpt>
   <trkpt lat="37.7970090" lon="127.5693010">
    <ele>375</ele>
   </trkpt>
   <trkpt lat="37.7970110" lon="127.5695100">
    <ele>374</ele>
   </trkpt>
   <trkpt lat="37.7971390" lon="127.5697520">
    <ele>369</ele>
   </trkpt>
   <trkpt lat="37.7972830" lon="127.5699880">
    <ele>363</ele>
   </trkpt>
   <trkpt lat="37.7974400" lon="127.5701320">
    <ele>348</ele>
   </trkpt>
   <trkpt lat="37.7975840" lon="127.5703520">
    <ele>346</ele>
   </trkpt>
   <trkpt lat="37.7977190" lon="127.5704810">
    <ele>337</ele>
   </trkpt>
   <trkpt lat="37.7977530" lon="127.5706530">
    <ele>340</ele>
   </trkpt>
   <trkpt lat="37.7977450" lon="127.5708780">
    <ele>348</ele>
   </trkpt>
   <trkpt lat="37.7978420" lon="127.5711460">
    <ele>349</ele>
   </trkpt>
   <trkpt lat="37.7979100" lon="127.5714090">
    <ele>346</ele>
   </trkpt>
   <trkpt lat="37.7979250" lon="127.5715030">
    <ele>346</ele>
   </trkpt>
   <trkpt lat="37.7980050" lon="127.5716210">
    <ele>338</ele>
   </trkpt>
   <trkpt lat="37.7979760" lon="127.5717820">
    <ele>347</ele>
   </trkpt>
   <trkpt lat="37.7978870" lon="127.5719000">
    <ele>346</ele>
   </trkpt>
   <trkpt lat="37.7977810" lon="127.5720340">
    <ele>351</ele>
   </trkpt>
   <trkpt lat="37.7977300" lon="127.5722330">
    <ele>345</ele>
   </trkpt>
   <trkpt lat="37.7977040" lon="127.5723780">
    <ele>349</ele>
   </trkpt>
   <trkpt lat="37.7977530" lon="127.5726560">
    <ele>335</ele>
   </trkpt>
   <trkpt lat="37.7977430" lon="127.5728580">
    <ele>330</ele>
   </trkpt>
   <trkpt lat="37.7976030" lon="127.5730130">
    <ele>330</ele>
   </trkpt>
   <trkpt lat="37.7974760" lon="127.5731880">
    <ele>325</ele>
   </trkpt>
   <trkpt lat="37.7974230" lon="127.5731970">
    <ele>324</ele>
   </trkpt>
   <trkpt lat="37.7973800" lon="127.5731580">
    <ele>324</ele>
   </trkpt>
   <trkpt lat="37.7973400" lon="127.5730780">
    <ele>324</ele>
   </trkpt>
   <trkpt lat="37.7972810" lon="127.5729430">
    <ele>324</ele>
   </trkpt>
   <trkpt lat="37.7971870" lon="127.5728420">
    <ele>331</ele>
   </trkpt>
   <trkpt lat="37.7970730" lon="127.5727990">
    <ele>325</ele>
   </trkpt>
   <trkpt lat="37.7969120" lon="127.5727830">
    <ele>320</ele>
   </trkpt>
   <trkpt lat="37.7967170" lon="127.5727880">
    <ele>308</ele>
   </trkpt>
   <trkpt lat="37.7965150" lon="127.5727690">
    <ele>301</ele>
   </trkpt>
   <trkpt lat="37.7964220" lon="127.5726400">
    <ele>295</ele>
   </trkpt>
   <trkpt lat="37.7964140" lon="127.5724530">
    <ele>295</ele>
   </trkpt>
   <trkpt lat="37.7964600" lon="127.5722330">
    <ele>294</ele>
   </trkpt>
   <trkpt lat="37.7965430" lon="127.5720150">
    <ele>301</ele>
   </trkpt>
   <trkpt lat="37.7966680" lon="127.5718090">
    <ele>310</ele>
   </trkpt>
   <trkpt lat="37.7967630" lon="127.5716190">
    <ele>320</ele>
   </trkpt>
   <trkpt lat="37.7967770" lon="127.5715180">
    <ele>323</ele>
   </trkpt>
   <trkpt lat="37.7967570" lon="127.5714440">
    <ele>317</ele>
   </trkpt>
   <trkpt lat="37.7967000" lon="127.5712970">
    <ele>322</ele>
   </trkpt>
   <trkpt lat="37.7965640" lon="127.5711410">
    <ele>323</ele>
   </trkpt>
   <trkpt lat="37.7965030" lon="127.5711160">
    <ele>323</ele>
   </trkpt>
   <trkpt lat="37.7964370" lon="127.5711170">
    <ele>319</ele>
   </trkpt>
   <trkpt lat="37.7962120" lon="127.5712640">
    <ele>304</ele>
   </trkpt>
   <trkpt lat="37.7960220" lon="127.5713230">
    <ele>300</ele>
   </trkpt>
   <trkpt lat="37.7959110" lon="127.5712700">
    <ele>295</ele>
   </trkpt>
   <trkpt lat="37.7958390" lon="127.5711250">
    <ele>299</ele>
   </trkpt>
   <trkpt lat="37.7957460" lon="127.5708300">
    <ele>301</ele>
   </trkpt>
   <trkpt lat="37.7956950" lon="127.5705400">
    <ele>305</ele>
   </trkpt>
   <trkpt lat="37.7956400" lon="127.5703470">
    <ele>305</ele>
   </trkpt>
   <trkpt lat="37.7955600" lon="127.5702830">
    <ele>310</ele>
   </trkpt>
   <trkpt lat="37.7954540" lon="127.5703200">
    <ele>307</ele>
   </trkpt>
   <trkpt lat="37.7953650" lon="127.5703360">
    <ele>299</ele>
   </trkpt>
   <trkpt lat="37.7952710" lon="127.5702610">
    <ele>304</ele>
   </trkpt>
   <trkpt lat="37.7951950" lon="127.5701540">
    <ele>301</ele>
   </trkpt>
   <trkpt lat="37.7951100" lon="127.5700790">
    <ele>309</ele>
   </trkpt>
   <trkpt lat="37.7950210" lon="127.5700680">
    <ele>309</ele>
   </trkpt>
   <trkpt lat="37.7949320" lon="127.5702180">
    <ele>311</ele>
   </trkpt>
   <trkpt lat="37.7948520" lon="127.5707390">
    <ele>316</ele>
   </trkpt>
   <trkpt lat="37.7947540" lon="127.5708730">
    <ele>314</ele>
   </trkpt>
   <trkpt lat="37.7946860" lon="127.5710820">
    <ele>320</ele>
   </trkpt>
   <trkpt lat="37.7947540" lon="127.5713290">
    <ele>309</ele>
   </trkpt>
   <trkpt lat="37.7947500" lon="127.5715380">
    <ele>300</ele>
   </trkpt>
   <trkpt lat="37.7946780" lon="127.5716940">
    <ele>306</ele>
   </trkpt>
   <trkpt lat="37.7945300" lon="127.5718710">
    <ele>299</ele>
   </trkpt>
   <trkpt lat="37.7944410" lon="127.5720370">
    <ele>301</ele>
   </trkpt>
   <trkpt lat="37.7943300" lon="127.5720420">
    <ele>294</ele>
   </trkpt>
   <trkpt lat="37.7942330" lon="127.5719830">
    <ele>302</ele>
   </trkpt>
   <trkpt lat="37.7941230" lon="127.5718870">
    <ele>301</ele>
   </trkpt>
   <trkpt lat="37.7940380" lon="127.5718380">
    <ele>308</ele>
   </trkpt>
   <trkpt lat="37.7939400" lon="127.5718170">
    <ele>308</ele>
   </trkpt>
   <trkpt lat="37.7938340" lon="127.5717530">
    <ele>306</ele>
   </trkpt>
   <trkpt lat="37.7935330" lon="127.5714900">
    <ele>318</ele>
   </trkpt>
   <trkpt lat="37.7933930" lon="127.5713770">
    <ele>319</ele>
   </trkpt>
   <trkpt lat="37.7932710" lon="127.5712700">
    <ele>324</ele>
   </trkpt>
   <trkpt lat="37.7931430" lon="127.5712380">
    <ele>328</ele>
   </trkpt>
   <trkpt lat="37.7930970" lon="127.5713930">
    <ele>333</ele>
   </trkpt>
   <trkpt lat="37.7930800" lon="127.5716720">
    <ele>334</ele>
   </trkpt>
   <trkpt lat="37.7931050" lon="127.5719030">
    <ele>329</ele>
   </trkpt>
   <trkpt lat="37.7932320" lon="127.5723370">
    <ele>329</ele>
   </trkpt>
   <trkpt lat="37.7933600" lon="127.5726480">
    <ele>316</ele>
   </trkpt>
   <trkpt lat="37.7933380" lon="127.5728150">
    <ele>316</ele>
   </trkpt>
   <trkpt lat="37.7932320" lon="127.5729270">
    <ele>330</ele>
   </trkpt>
   <trkpt lat="37.7931430" lon="127.5730610">
    <ele>330</ele>
   </trkpt>
   <trkpt lat="37.7931090" lon="127.5732010">
    <ele>331</ele>
   </trkpt>
   <trkpt lat="37.7931690" lon="127.5733350">
    <ele>330</ele>
   </trkpt>
   <trkpt lat="37.7933930" lon="127.5735660">
    <ele>311</ele>
   </trkpt>
   <trkpt lat="37.7934020" lon="127.5737270">
    <ele>310</ele>
   </trkpt>
   <trkpt lat="37.7933260" lon="127.5738070">
    <ele>313</ele>
   </trkpt>
   <trkpt lat="37.7926130" lon="127.5742580">
    <ele>350</ele>
   </trkpt>
   <trkpt lat="37.7925540" lon="127.5743600">
    <ele>355</ele>
   </trkpt>
   <trkpt lat="37.7925120" lon="127.5745050">
    <ele>350</ele>
   </trkpt>
   <trkpt lat="37.7925410" lon="127.5746650">
    <ele>343</ele>
   </trkpt>
   <trkpt lat="37.7928720" lon="127.5750300">
    <ele>309</ele>
   </trkpt>
   <trkpt lat="37.7929360" lon="127.5751430">
    <ele>308</ele>
   </trkpt>
   <trkpt lat="37.7929230" lon="127.5752660">
    <ele>308</ele>
   </trkpt>
   <trkpt lat="37.7928170" lon="127.5753360">
    <ele>312</ele>
   </trkpt>
   <trkpt lat="37.7924570" lon="127.5754750">
    <ele>321</ele>
   </trkpt>
   <trkpt lat="37.7923380" lon="127.5755510">
    <ele>328</ele>
   </trkpt>
   <trkpt lat="37.7922740" lon="127.5757440">
    <ele>334</ele>
   </trkpt>
   <trkpt lat="37.7923210" lon="127.5758670">
    <ele>324</ele>
   </trkpt>
   <trkpt lat="37.7926300" lon="127.5762590">
    <ele>307</ele>
   </trkpt>
   <trkpt lat="37.7927110" lon="127.5764250">
    <ele>299</ele>
   </trkpt>
   <trkpt lat="37.7926520" lon="127.5766400">
    <ele>303</ele>
   </trkpt>
   <trkpt lat="37.7925750" lon="127.5767630">
    <ele>301</ele>
   </trkpt>
   <trkpt lat="37.7924570" lon="127.5768220">
    <ele>303</ele>
   </trkpt>
   <trkpt lat="37.7923340" lon="127.5767740">
    <ele>304</ele>
   </trkpt>
   <trkpt lat="37.7922320" lon="127.5767310">
    <ele>308</ele>
   </trkpt>
   <trkpt lat="37.7921050" lon="127.5767150">
    <ele>312</ele>
   </trkpt>
   <trkpt lat="37.7920110" lon="127.5767740">
    <ele>321</ele>
   </trkpt>
   <trkpt lat="37.7919310" lon="127.5769080">
    <ele>312</ele>
   </trkpt>
   <trkpt lat="37.7918670" lon="127.5770850">
    <ele>311</ele>
   </trkpt>
   <trkpt lat="37.7917780" lon="127.5771810">
    <ele>311</ele>
   </trkpt>
   <trkpt lat="37.7916380" lon="127.5772400">
    <ele>312</ele>
   </trkpt>
   <trkpt lat="37.7913760" lon="127.5773210">
    <ele>324</ele>
   </trkpt>
   <trkpt lat="37.7912610" lon="127.5774230">
    <ele>319</ele>
   </trkpt>
   <trkpt lat="37.7911810" lon="127.5776110">
    <ele>313</ele>
   </trkpt>
   <trkpt lat="37.7911550" lon="127.5778040">
    <ele>306</ele>
   </trkpt>
   <trkpt lat="37.7911640" lon="127.5780400">
    <ele>298</ele>
   </trkpt>
   <trkpt lat="37.7910870" lon="127.5781680">
    <ele>291</ele>
   </trkpt>
   <trkpt lat="37.7909690" lon="127.5781630">
    <ele>293</ele>
   </trkpt>
   <trkpt lat="37.7908290" lon="127.5780880">
    <ele>295</ele>
   </trkpt>
   <trkpt lat="37.7905830" lon="127.5779380">
    <ele>307</ele>
   </trkpt>
   <trkpt lat="37.7904600" lon="127.5779380">
    <ele>310</ele>
   </trkpt>
   <trkpt lat="37.7903620" lon="127.5779810">
    <ele>312</ele>
   </trkpt>
   <trkpt lat="37.7902100" lon="127.5781360">
    <ele>306</ele>
   </trkpt>
   <trkpt lat="37.7901120" lon="127.5783080">
    <ele>298</ele>
   </trkpt>
   <trkpt lat="37.7900870" lon="127.5784800">
    <ele>291</ele>
   </trkpt>
   <trkpt lat="37.7901340" lon="127.5786400">
    <ele>284</ele>
   </trkpt>
   <trkpt lat="37.7901380" lon="127.5787640">
    <ele>276</ele>
   </trkpt>
   <trkpt lat="37.7900870" lon="127.5788440">
    <ele>276</ele>
   </trkpt>
   <trkpt lat="37.7897770" lon="127.5789190">
    <ele>264</ele>
   </trkpt>
   <trkpt lat="37.7896930" lon="127.5788980">
    <ele>266</ele>
   </trkpt>
   <trkpt lat="37.7896290" lon="127.5788340">
    <ele>266</ele>
   </trkpt>
   <trkpt lat="37.7895320" lon="127.5786570">
    <ele>271</ele>
   </trkpt>
   <trkpt lat="37.7894680" lon="127.5785390">
    <ele>278</ele>
   </trkpt>
   <trkpt lat="37.7893150" lon="127.5784370">
    <ele>275</ele>
   </trkpt>
   <trkpt lat="37.7892140" lon="127.5784100">
    <ele>271</ele>
   </trkpt>
   <trkpt lat="37.7891160" lon="127.5784210">
    <ele>267</ele>
   </trkpt>
   <trkpt lat="37.7890060" lon="127.5784800">
    <ele>262</ele>
   </trkpt>
   <trkpt lat="37.7888830" lon="127.5784900">
    <ele>256</ele>
   </trkpt>
   <trkpt lat="37.7887900" lon="127.5783780">
    <ele>259</ele>
   </trkpt>
   <trkpt lat="37.7887390" lon="127.5781630">
    <ele>253</ele>
   </trkpt>
   <trkpt lat="37.7887560" lon="127.5779970">
    <ele>257</ele>
   </trkpt>
   <trkpt lat="37.7888660" lon="127.5777610">
    <ele>269</ele>
   </trkpt>
   <trkpt lat="37.7888910" lon="127.5776210">
    <ele>272</ele>
   </trkpt>
   <trkpt lat="37.7888660" lon="127.5775190">
    <ele>274</ele>
   </trkpt>
   <trkpt lat="37.7886030" lon="127.5772190">
    <ele>259</ele>
   </trkpt>
   <trkpt lat="37.7885100" lon="127.5770420">
    <ele>259</ele>
   </trkpt>
   <trkpt lat="37.7885140" lon="127.5768970">
    <ele>257</ele>
   </trkpt>
   <trkpt lat="37.7885950" lon="127.5766450">
    <ele>251</ele>
   </trkpt>
   <trkpt lat="37.7887180" lon="127.5764360">
    <ele>251</ele>
   </trkpt>
   <trkpt lat="37.7887560" lon="127.5763850">
    <ele>251</ele>
   </trkpt>
   <trkpt lat="37.7888150" lon="127.5763070">
    <ele>252</ele>
   </trkpt>
   <trkpt lat="37.7889760" lon="127.5761350">
    <ele>253</ele>
   </trkpt>
   <trkpt lat="37.7890610" lon="127.5759370">
    <ele>255</ele>
   </trkpt>
   <trkpt lat="37.7892050" lon="127.5756870">
    <ele>257</ele>
   </trkpt>
   <trkpt lat="37.7892690" lon="127.5755770">
    <ele>257</ele>
   </trkpt>
   <trkpt lat="37.7893450" lon="127.5754000">
    <ele>261</ele>
   </trkpt>
   <trkpt lat="37.7892980" lon="127.5752560">
    <ele>265</ele>
   </trkpt>
   <trkpt lat="37.7892140" lon="127.5752340">
    <ele>265</ele>
   </trkpt>
   <trkpt lat="37.7889680" lon="127.5751970">
    <ele>267</ele>
   </trkpt>
   <trkpt lat="37.7887180" lon="127.5751860">
    <ele>270</ele>
   </trkpt>
   <trkpt lat="37.7885350" lon="127.5751590">
    <ele>274</ele>
   </trkpt>
   <trkpt lat="37.7883870" lon="127.5752180">
    <ele>277</ele>
   </trkpt>
   <trkpt lat="37.7882050" lon="127.5754270">
    <ele>273</ele>
   </trkpt>
   <trkpt lat="37.7878570" lon="127.5756360">
    <ele>261</ele>
   </trkpt>
   <trkpt lat="37.7877380" lon="127.5756530">
    <ele>253</ele>
   </trkpt>
   <trkpt lat="37.7876320" lon="127.5755670">
    <ele>257</ele>
   </trkpt>
   <trkpt lat="37.7875180" lon="127.5753520">
    <ele>260</ele>
   </trkpt>
   <trkpt lat="37.7874420" lon="127.5751380">
    <ele>263</ele>
   </trkpt>
   <trkpt lat="37.7873570" lon="127.5748850">
    <ele>270</ele>
   </trkpt>
   <trkpt lat="37.7872680" lon="127.5747780">
    <ele>273</ele>
   </trkpt>
   <trkpt lat="37.7871150" lon="127.5746760">
    <ele>275</ele>
   </trkpt>
   <trkpt lat="37.7869880" lon="127.5745640">
    <ele>283</ele>
   </trkpt>
   <trkpt lat="37.7869030" lon="127.5745420">
    <ele>283</ele>
   </trkpt>
   <trkpt lat="37.7867720" lon="127.5745370">
    <ele>288</ele>
   </trkpt>
   <trkpt lat="37.7866780" lon="127.5745690">
    <ele>292</ele>
   </trkpt>
   <trkpt lat="37.7866230" lon="127.5746600">
    <ele>289</ele>
   </trkpt>
   <trkpt lat="37.7866910" lon="127.5749710">
    <ele>285</ele>
   </trkpt>
   <trkpt lat="37.7866830" lon="127.5751210">
    <ele>285</ele>
   </trkpt>
   <trkpt lat="37.7866400" lon="127.5752610">
    <ele>285</ele>
   </trkpt>
   <trkpt lat="37.7865770" lon="127.5754000">
    <ele>297</ele>
   </trkpt>
   <trkpt lat="37.7865940" lon="127.5755560">
    <ele>288</ele>
   </trkpt>
   <trkpt lat="37.7867340" lon="127.5757600">
    <ele>280</ele>
   </trkpt>
   <trkpt lat="37.7868230" lon="127.5759640">
    <ele>281</ele>
   </trkpt>
   <trkpt lat="37.7868270" lon="127.5761620">
    <ele>282</ele>
   </trkpt>
   <trkpt lat="37.7867890" lon="127.5763180">
    <ele>282</ele>
   </trkpt>
   <trkpt lat="37.7868610" lon="127.5765810">
    <ele>273</ele>
   </trkpt>
   <trkpt lat="37.7868730" lon="127.5767360">
    <ele>273</ele>
   </trkpt>
   <trkpt lat="37.7867930" lon="127.5768600">
    <ele>285</ele>
   </trkpt>
   <trkpt lat="37.7866870" lon="127.5769350">
    <ele>298</ele>
   </trkpt>
   <trkpt lat="37.7866440" lon="127.5770690">
    <ele>297</ele>
   </trkpt>
   <trkpt lat="37.7866780" lon="127.5772830">
    <ele>295</ele>
   </trkpt>
   <trkpt lat="37.7867340" lon="127.5775250">
    <ele>282</ele>
   </trkpt>
   <trkpt lat="37.7867040" lon="127.5777550">
    <ele>292</ele>
   </trkpt>
   <trkpt lat="37.7866780" lon="127.5779750">
    <ele>292</ele>
   </trkpt>
   <trkpt lat="37.7867380" lon="127.5782810">
    <ele>279</ele>
   </trkpt>
   <trkpt lat="37.7868060" lon="127.5784800">
    <ele>276</ele>
   </trkpt>
   <trkpt lat="37.7867590" lon="127.5786300">
    <ele>272</ele>
   </trkpt>
   <trkpt lat="37.7866700" lon="127.5786730">
    <ele>275</ele>
   </trkpt>
   <trkpt lat="37.7864490" lon="127.5786400">
    <ele>274</ele>
   </trkpt>
   <trkpt lat="37.7862840" lon="127.5785440">
    <ele>280</ele>
   </trkpt>
   <trkpt lat="37.7860510" lon="127.5783350">
    <ele>287</ele>
   </trkpt>
   <trkpt lat="37.7859150" lon="127.5782700">
    <ele>285</ele>
   </trkpt>
   <trkpt lat="37.7857880" lon="127.5782920">
    <ele>281</ele>
   </trkpt>
   <trkpt lat="37.7856820" lon="127.5783240">
    <ele>276</ele>
   </trkpt>
   <trkpt lat="37.7855040" lon="127.5782760">
    <ele>271</ele>
   </trkpt>
   <trkpt lat="37.7853770" lon="127.5782170">
    <ele>275</ele>
   </trkpt>
   <trkpt lat="37.7852280" lon="127.5781470">
    <ele>268</ele>
   </trkpt>
   <trkpt lat="37.7850630" lon="127.5779480">
    <ele>271</ele>
   </trkpt>
   <trkpt lat="37.7848850" lon="127.5775300">
    <ele>281</ele>
   </trkpt>
   <trkpt lat="37.7847880" lon="127.5773910">
    <ele>280</ele>
   </trkpt>
   <trkpt lat="37.7846140" lon="127.5773420">
    <ele>283</ele>
   </trkpt>
   <trkpt lat="37.7845040" lon="127.5773580">
    <ele>287</ele>
   </trkpt>
   <trkpt lat="37.7844650" lon="127.5774600">
    <ele>286</ele>
   </trkpt>
   <trkpt lat="37.7845290" lon="127.5776370">
    <ele>287</ele>
   </trkpt>
   <trkpt lat="37.7845970" lon="127.5778890">
    <ele>287</ele>
   </trkpt>
   <trkpt lat="37.7846480" lon="127.5782060">
    <ele>289</ele>
   </trkpt>
   <trkpt lat="37.7847200" lon="127.5784040">
    <ele>282</ele>
   </trkpt>
   <trkpt lat="37.7847880" lon="127.5786460">
    <ele>284</ele>
   </trkpt>
   <trkpt lat="37.7848470" lon="127.5789780">
    <ele>277</ele>
   </trkpt>
   <trkpt lat="37.7850120" lon="127.5792410">
    <ele>269</ele>
   </trkpt>
   <trkpt lat="37.7852240" lon="127.5795150">
    <ele>266</ele>
   </trkpt>
   <trkpt lat="37.7852790" lon="127.5796440">
    <ele>257</ele>
   </trkpt>
   <trkpt lat="37.7852450" lon="127.5797560">
    <ele>257</ele>
   </trkpt>
   <trkpt lat="37.7851180" lon="127.5798850">
    <ele>260</ele>
   </trkpt>
   <trkpt lat="37.7850120" lon="127.5800670">
    <ele>259</ele>
   </trkpt>
   <trkpt lat="37.7848640" lon="127.5802610">
    <ele>256</ele>
   </trkpt>
   <trkpt lat="37.7847620" lon="127.5802820">
    <ele>252</ele>
   </trkpt>
   <trkpt lat="37.7845970" lon="127.5802070">
    <ele>258</ele>
   </trkpt>
   <trkpt lat="37.7844020" lon="127.5800780">
    <ele>264</ele>
   </trkpt>
   <trkpt lat="37.7842830" lon="127.5799120">
    <ele>275</ele>
   </trkpt>
   <trkpt lat="37.7841810" lon="127.5798470">
    <ele>273</ele>
   </trkpt>
   <trkpt lat="37.7840630" lon="127.5798420">
    <ele>272</ele>
   </trkpt>
   <trkpt lat="37.7839180" lon="127.5798420">
    <ele>272</ele>
   </trkpt>
   <trkpt lat="37.7837870" lon="127.5797940">
    <ele>273</ele>
   </trkpt>
   <trkpt lat="37.7836560" lon="127.5797510">
    <ele>281</ele>
   </trkpt>
   <trkpt lat="37.7835710" lon="127.5798260">
    <ele>278</ele>
   </trkpt>
   <trkpt lat="37.7835750" lon="127.5799760">
    <ele>276</ele>
   </trkpt>
   <trkpt lat="37.7837020" lon="127.5802440">
    <ele>269</ele>
   </trkpt>
   <trkpt lat="37.7841220" lon="127.5809040">
    <ele>254</ele>
   </trkpt>
   <trkpt lat="37.7841810" lon="127.5810540">
    <ele>249</ele>
   </trkpt>
   <trkpt lat="37.7841810" lon="127.5812150">
    <ele>247</ele>
   </trkpt>
   <trkpt lat="37.7840710" lon="127.5814090">
    <ele>248</ele>
   </trkpt>
   <trkpt lat="37.7839100" lon="127.5815590">
    <ele>249</ele>
   </trkpt>
   <trkpt lat="37.7837790" lon="127.5817410">
    <ele>251</ele>
   </trkpt>
   <trkpt lat="37.7836090" lon="127.5818270">
    <ele>252</ele>
   </trkpt>
   <trkpt lat="37.7834050" lon="127.5818970">
    <ele>258</ele>
   </trkpt>
   <trkpt lat="37.7832530" lon="127.5820420">
    <ele>257</ele>
   </trkpt>
   <trkpt lat="37.7830660" lon="127.5822020">
    <ele>258</ele>
   </trkpt>
   <trkpt lat="37.7830370" lon="127.5823630">
    <ele>264</ele>
   </trkpt>
   <trkpt lat="37.7831090" lon="127.5824550">
    <ele>260</ele>
   </trkpt>
   <trkpt lat="37.7834730" lon="127.5825670">
    <ele>253</ele>
   </trkpt>
   <trkpt lat="37.7835880" lon="127.5826530">
    <ele>253</ele>
   </trkpt>
   <trkpt lat="37.7836260" lon="127.5828090">
    <ele>254</ele>
   </trkpt>
   <trkpt lat="37.7836260" lon="127.5829640">
    <ele>258</ele>
   </trkpt>
   <trkpt lat="37.7836810" lon="127.5831090">
    <ele>261</ele>
   </trkpt>
   <trkpt lat="37.7837740" lon="127.5831140">
    <ele>260</ele>
   </trkpt>
   <trkpt lat="37.7839140" lon="127.5829800">
    <ele>256</ele>
   </trkpt>
   <trkpt lat="37.7840920" lon="127.5827230">
    <ele>250</ele>
   </trkpt>
   <trkpt lat="37.7841860" lon="127.5825460">
    <ele>245</ele>
   </trkpt>
   <trkpt lat="37.7842960" lon="127.5824870">
    <ele>240</ele>
   </trkpt>
   <trkpt lat="37.7844100" lon="127.5825140">
    <ele>245</ele>
   </trkpt>
   <trkpt lat="37.7846990" lon="127.5827230">
    <ele>262</ele>
   </trkpt>
   <trkpt lat="37.7848130" lon="127.5827440">
    <ele>262</ele>
   </trkpt>
   <trkpt lat="37.7848890" lon="127.5826320">
    <ele>259</ele>
   </trkpt>
   <trkpt lat="37.7849110" lon="127.5824490">
    <ele>251</ele>
   </trkpt>
   <trkpt lat="37.7849320" lon="127.5823420">
    <ele>251</ele>
   </trkpt>
   <trkpt lat="37.7849910" lon="127.5823370">
    <ele>245</ele>
   </trkpt>
   <trkpt lat="37.7849870" lon="127.5824120">
    <ele>253</ele>
   </trkpt>
   <trkpt lat="37.7849660" lon="127.5825830">
    <ele>261</ele>
   </trkpt>
   <trkpt lat="37.7849490" lon="127.5827930">
    <ele>265</ele>
   </trkpt>
   <trkpt lat="37.7849530" lon="127.5830290">
    <ele>280</ele>
   </trkpt>
   <trkpt lat="37.7848810" lon="127.5831790">
    <ele>280</ele>
   </trkpt>
   <trkpt lat="37.7847790" lon="127.5832000">
    <ele>284</ele>
   </trkpt>
   <trkpt lat="37.7846990" lon="127.5831090">
    <ele>276</ele>
   </trkpt>
   <trkpt lat="37.7845250" lon="127.5829590">
    <ele>261</ele>
   </trkpt>
   <trkpt lat="37.7843890" lon="127.5829160">
    <ele>259</ele>
   </trkpt>
   <trkpt lat="37.7842620" lon="127.5829800">
    <ele>258</ele>
   </trkpt>
   <trkpt lat="37.7841860" lon="127.5831630">
    <ele>264</ele>
   </trkpt>
   <trkpt lat="37.7841560" lon="127.5834200">
    <ele>275</ele>
   </trkpt>
   <trkpt lat="37.7841730" lon="127.5836620">
    <ele>280</ele>
   </trkpt>
   <trkpt lat="37.7841640" lon="127.5838710">
    <ele>284</ele>
   </trkpt>
   <trkpt lat="37.7842190" lon="127.5840640">
    <ele>291</ele>
   </trkpt>
   <trkpt lat="37.7842490" lon="127.5842890">
    <ele>295</ele>
   </trkpt>
   <trkpt lat="37.7841980" lon="127.5844070">
    <ele>299</ele>
   </trkpt>
   <trkpt lat="37.7840710" lon="127.5844390">
    <ele>294</ele>
   </trkpt>
   <trkpt lat="37.7839740" lon="127.5844560">
    <ele>292</ele>
   </trkpt>
   <trkpt lat="37.7838510" lon="127.5845740">
    <ele>296</ele>
   </trkpt>
   <trkpt lat="37.7837280" lon="127.5848260">
    <ele>306</ele>
   </trkpt>
   <trkpt lat="37.7836220" lon="127.5850940">
    <ele>318</ele>
   </trkpt>
   <trkpt lat="37.7834860" lon="127.5853890">
    <ele>326</ele>
   </trkpt>
   <trkpt lat="37.7833670" lon="127.5853670">
    <ele>329</ele>
   </trkpt>
   <trkpt lat="37.7832510" lon="127.5852150">
    <ele>328</ele>
   </trkpt>
   <trkpt lat="37.7831740" lon="127.5850160">
    <ele>328</ele>
   </trkpt>
   <trkpt lat="37.7831070" lon="127.5847480">
    <ele>324</ele>
   </trkpt>
   <trkpt lat="37.7830770" lon="127.5845550">
    <ele>312</ele>
   </trkpt>
   <trkpt lat="37.7829960" lon="127.5844690">
    <ele>313</ele>
   </trkpt>
   <trkpt lat="37.7828520" lon="127.5844640">
    <ele>313</ele>
   </trkpt>
   <trkpt lat="37.7827530" lon="127.5845790">
    <ele>318</ele>
   </trkpt>
   <trkpt lat="37.7825070" lon="127.5848950">
    <ele>326</ele>
   </trkpt>
   <trkpt lat="37.7823540" lon="127.5850240">
    <ele>335</ele>
   </trkpt>
   <trkpt lat="37.7821990" lon="127.5850750">
    <ele>345</ele>
   </trkpt>
   <trkpt lat="37.7820760" lon="127.5849680">
    <ele>352</ele>
   </trkpt>
   <trkpt lat="37.7820190" lon="127.5847480">
    <ele>350</ele>
   </trkpt>
   <trkpt lat="37.7819720" lon="127.5844420">
    <ele>346</ele>
   </trkpt>
   <trkpt lat="37.7819510" lon="127.5842220">
    <ele>333</ele>
   </trkpt>
   <trkpt lat="37.7818830" lon="127.5840930">
    <ele>333</ele>
   </trkpt>
   <trkpt lat="37.7818200" lon="127.5840590">
    <ele>330</ele>
   </trkpt>
   <trkpt lat="37.7816970" lon="127.5840910">
    <ele>328</ele>
   </trkpt>
   <trkpt lat="37.7811800" lon="127.5843430">
    <ele>340</ele>
   </trkpt>
   <trkpt lat="37.7810060" lon="127.5843430">
    <ele>358</ele>
   </trkpt>
   <trkpt lat="37.7809250" lon="127.5842840">
    <ele>358</ele>
   </trkpt>
   <trkpt lat="37.7808830" lon="127.5841070">
    <ele>360</ele>
   </trkpt>
   <trkpt lat="37.7808530" lon="127.5838870">
    <ele>353</ele>
   </trkpt>
   <trkpt lat="37.7807940" lon="127.5837260">
    <ele>346</ele>
   </trkpt>
   <trkpt lat="37.7807430" lon="127.5836030">
    <ele>351</ele>
   </trkpt>
   <trkpt lat="37.7807170" lon="127.5833990">
    <ele>348</ele>
   </trkpt>
   <trkpt lat="37.7807510" lon="127.5831680">
    <ele>345</ele>
   </trkpt>
   <trkpt lat="37.7807130" lon="127.5830340">
    <ele>345</ele>
   </trkpt>
   <trkpt lat="37.7805520" lon="127.5828520">
    <ele>355</ele>
   </trkpt>
   <trkpt lat="37.7803530" lon="127.5826260">
    <ele>371</ele>
   </trkpt>
   <trkpt lat="37.7803020" lon="127.5824920">
    <ele>376</ele>
   </trkpt>
   <trkpt lat="37.7803230" lon="127.5823370">
    <ele>376</ele>
   </trkpt>
   <trkpt lat="37.7803760" lon="127.5820980">
    <ele>375</ele>
   </trkpt>
   <trkpt lat="37.7804930" lon="127.5819290">
    <ele>366</ele>
   </trkpt>
   <trkpt lat="37.7805690" lon="127.5817250">
    <ele>369</ele>
   </trkpt>
   <trkpt lat="37.7805140" lon="127.5814090">
    <ele>371</ele>
   </trkpt>
   <trkpt lat="37.7804420" lon="127.5812530">
    <ele>382</ele>
   </trkpt>
   <trkpt lat="37.7802900" lon="127.5811380">
    <ele>393</ele>
   </trkpt>
   <trkpt lat="37.7802370" lon="127.5810050">
    <ele>393</ele>
   </trkpt>
   <trkpt lat="37.7802640" lon="127.5807430">
    <ele>391</ele>
   </trkpt>
   <trkpt lat="37.7803050" lon="127.5803030">
    <ele>385</ele>
   </trkpt>
   <trkpt lat="37.7803850" lon="127.5798340">
    <ele>385</ele>
   </trkpt>
   <trkpt lat="37.7803990" lon="127.5796700">
    <ele>388</ele>
   </trkpt>
   <trkpt lat="37.7802930" lon="127.5795420">
    <ele>387</ele>
   </trkpt>
   <trkpt lat="37.7801670" lon="127.5796820">
    <ele>380</ele>
   </trkpt>
   <trkpt lat="37.7801230" lon="127.5797810">
    <ele>379</ele>
   </trkpt>
   <trkpt lat="37.7801230" lon="127.5800420">
    <ele>380</ele>
   </trkpt>
   <trkpt lat="37.7800590" lon="127.5803560">
    <ele>383</ele>
   </trkpt>
   <trkpt lat="37.7798840" lon="127.5806890">
    <ele>389</ele>
   </trkpt>
   <trkpt lat="37.7798470" lon="127.5808850">
    <ele>390</ele>
   </trkpt>
   <trkpt lat="37.7798160" lon="127.5810460">
    <ele>390</ele>
   </trkpt>
   <trkpt lat="37.7798650" lon="127.5811630">
    <ele>387</ele>
   </trkpt>
   <trkpt lat="37.7799810" lon="127.5814400">
    <ele>388</ele>
   </trkpt>
   <trkpt lat="37.7799810" lon="127.5824510">
    <ele>371</ele>
   </trkpt>
   <trkpt lat="37.7799620" lon="127.5835110">
    <ele>389</ele>
   </trkpt>
   <trkpt lat="37.7798940" lon="127.5841890">
    <ele>398</ele>
   </trkpt>
   <trkpt lat="37.7797180" lon="127.5847060">
    <ele>409</ele>
   </trkpt>
   <trkpt lat="37.7797570" lon="127.5849770">
    <ele>417</ele>
   </trkpt>
   <trkpt lat="37.7799420" lon="127.5851130">
    <ele>420</ele>
   </trkpt>
   <trkpt lat="37.7804200" lon="127.5854950">
    <ele>410</ele>
   </trkpt>
   <trkpt lat="37.7806920" lon="127.5856920">
    <ele>405</ele>
   </trkpt>
   <trkpt lat="37.7811110" lon="127.5857410">
    <ele>400</ele>
   </trkpt>
   <trkpt lat="37.7814810" lon="127.5859390">
    <ele>395</ele>
   </trkpt>
   <trkpt lat="37.7817540" lon="127.5861600">
    <ele>393</ele>
   </trkpt>
   <trkpt lat="37.7820560" lon="127.5863700">
    <ele>392</ele>
   </trkpt>
   <trkpt lat="37.7825920" lon="127.5866410">
    <ele>404</ele>
   </trkpt>
   <trkpt lat="37.7829230" lon="127.5872570">
    <ele>396</ele>
   </trkpt>
   <trkpt lat="37.7830300" lon="127.5876890">
    <ele>397</ele>
   </trkpt>
   <trkpt lat="37.7831270" lon="127.5884900">
    <ele>410</ele>
   </trkpt>
   <trkpt lat="37.7831370" lon="127.5889330">
    <ele>415</ele>
   </trkpt>
   <trkpt lat="37.7833130" lon="127.5891180">
    <ele>410</ele>
   </trkpt>
   <trkpt lat="37.7835070" lon="127.5893030">
    <ele>399</ele>
   </trkpt>
   <trkpt lat="37.7836920" lon="127.5895990">
    <ele>387</ele>
   </trkpt>
   <trkpt lat="37.7837900" lon="127.5900060">
    <ele>385</ele>
   </trkpt>
   <trkpt lat="37.7839070" lon="127.5903010">
    <ele>386</ele>
   </trkpt>
   <trkpt lat="37.7842480" lon="127.5906220">
    <ele>383</ele>
   </trkpt>
   <trkpt lat="37.7847540" lon="127.5909420">
    <ele>384</ele>
   </trkpt>
   <trkpt lat="37.7848710" lon="127.5910650">
    <ele>385</ele>
   </trkpt>
   <trkpt lat="37.7850660" lon="127.5914110">
    <ele>387</ele>
   </trkpt>
   <trkpt lat="37.7852610" lon="127.5915830">
    <ele>390</ele>
   </trkpt>
   <trkpt lat="37.7855530" lon="127.5917560">
    <ele>394</ele>
   </trkpt>
   <trkpt lat="37.7858250" lon="127.5920510">
    <ele>401</ele>
   </trkpt>
   <trkpt lat="37.7859520" lon="127.5922980">
    <ele>399</ele>
   </trkpt>
   <trkpt lat="37.7862440" lon="127.5924460">
    <ele>396</ele>
   </trkpt>
   <trkpt lat="37.7866050" lon="127.5927660">
    <ele>410</ele>
   </trkpt>
   <trkpt lat="37.7869460" lon="127.5931850">
    <ele>427</ele>
   </trkpt>
   <trkpt lat="37.7871010" lon="127.5933950">
    <ele>438</ele>
   </trkpt>
   <trkpt lat="37.7872370" lon="127.5936510">
    <ele>446</ele>
   </trkpt>
   <trkpt lat="37.7872980" lon="127.5936900">
    <ele>449</ele>
   </trkpt>
   <trkpt lat="37.7874380" lon="127.5937120">
    <ele>450</ele>
   </trkpt>
   <trkpt lat="37.7877630" lon="127.5939910">
    <ele>445</ele>
   </trkpt>
   <trkpt lat="37.7881460" lon="127.5941010">
    <ele>440</ele>
   </trkpt>
   <trkpt lat="37.7883840" lon="127.5941750">
    <ele>444</ele>
   </trkpt>
   <trkpt lat="37.7886110" lon="127.5945420">
    <ele>448</ele>
   </trkpt>
   <trkpt lat="37.7886700" lon="127.5946130">
    <ele>451</ele>
   </trkpt>
   <trkpt lat="37.7887210" lon="127.5946750">
    <ele>451</ele>
   </trkpt>
   <trkpt lat="37.7889590" lon="127.5947480">
    <ele>451</ele>
   </trkpt>
   <trkpt lat="37.7892260" lon="127.5946670">
    <ele>444</ele>
   </trkpt>
   <trkpt lat="37.7895750" lon="127.5946670">
    <ele>430</ele>
   </trkpt>
   <trkpt lat="37.7897550" lon="127.5947480">
    <ele>427</ele>
   </trkpt>
   <trkpt lat="37.7900340" lon="127.5950570">
    <ele>426</ele>
   </trkpt>
   <trkpt lat="37.7906320" lon="127.5952330">
    <ele>416</ele>
   </trkpt>
   <trkpt lat="37.7906920" lon="127.5952890">
    <ele>413</ele>
   </trkpt>
   <trkpt lat="37.7907420" lon="127.5953360">
    <ele>413</ele>
   </trkpt>
   <trkpt lat="37.7908500" lon="127.5956350">
    <ele>412</ele>
   </trkpt>
   <trkpt lat="37.7908520" lon="127.5960190">
    <ele>407</ele>
   </trkpt>
   <trkpt lat="37.7908330" lon="127.5961740">
    <ele>405</ele>
   </trkpt>
   <trkpt lat="37.7907910" lon="127.5964480">
    <ele>399</ele>
   </trkpt>
   <trkpt lat="37.7907310" lon="127.5968350">
    <ele>395</ele>
   </trkpt>
   <trkpt lat="37.7907150" lon="127.5969490">
    <ele>393</ele>
   </trkpt>
   <trkpt lat="37.7908310" lon="127.5971890">
    <ele>392</ele>
   </trkpt>
   <trkpt lat="37.7908320" lon="127.5972150">
    <ele>392</ele>
   </trkpt>
   <trkpt lat="37.7908470" lon="127.5975850">
    <ele>390</ele>
   </trkpt>
   <trkpt lat="37.7908760" lon="127.5977210">
    <ele>389</ele>
   </trkpt>
   <trkpt lat="37.7908990" lon="127.5978270">
    <ele>387</ele>
   </trkpt>
   <trkpt lat="37.7910560" lon="127.5979960">
    <ele>388</ele>
   </trkpt>
   <trkpt lat="37.7912180" lon="127.5983120">
    <ele>388</ele>
   </trkpt>
   <trkpt lat="37.7912760" lon="127.5984520">
    <ele>388</ele>
   </trkpt>
   <trkpt lat="37.7915320" lon="127.5984740">
    <ele>389</ele>
   </trkpt>
   <trkpt lat="37.7917000" lon="127.5985550">
    <ele>388</ele>
   </trkpt>
   <trkpt lat="37.7917030" lon="127.5985660">
    <ele>388</ele>
   </trkpt>
   <trkpt lat="37.7917580" lon="127.5987680">
    <ele>389</ele>
   </trkpt>
   <trkpt lat="37.7918310" lon="127.5989220">
    <ele>389</ele>
   </trkpt>
   <trkpt lat="37.7919150" lon="127.5991570">
    <ele>388</ele>
   </trkpt>
   <trkpt lat="37.7918950" lon="127.5994140">
    <ele>385</ele>
   </trkpt>
   <trkpt lat="37.7918920" lon="127.5994510">
    <ele>385</ele>
   </trkpt>
   <trkpt lat="37.7920540" lon="127.5999780">
    <ele>381</ele>
   </trkpt>
   <trkpt lat="37.7922290" lon="127.6006920">
    <ele>383</ele>
   </trkpt>
   <trkpt lat="37.7922910" lon="127.6008430">
    <ele>384</ele>
   </trkpt>
   <trkpt lat="37.7924860" lon="127.6009550">
    <ele>382</ele>
   </trkpt>
   <trkpt lat="37.7925660" lon="127.6010900">
    <ele>377</ele>
   </trkpt>
   <trkpt lat="37.7927730" lon="127.6011170">
    <ele>374</ele>
   </trkpt>
   <trkpt lat="37.7928360" lon="127.6011970">
    <ele>371</ele>
   </trkpt>
   <trkpt lat="37.7928370" lon="127.6011980">
    <ele>371</ele>
   </trkpt>
   <trkpt lat="37.7928940" lon="127.6012390">
    <ele>373</ele>
   </trkpt>
   <trkpt lat="37.7929850" lon="127.6012490">
    <ele>372</ele>
   </trkpt>
   <trkpt lat="37.7930770" lon="127.6012580">
    <ele>372</ele>
   </trkpt>
   <trkpt lat="37.7931520" lon="127.6013400">
    <ele>371</ele>
   </trkpt>
   <trkpt lat="37.7932270" lon="127.6014210">
    <ele>375</ele>
   </trkpt>
   <trkpt lat="37.7932540" lon="127.6015060">
    <ele>375</ele>
   </trkpt>
   <trkpt lat="37.7932810" lon="127.6015910">
    <ele>380</ele>
   </trkpt>
   <trkpt lat="37.7933590" lon="127.6016900">
    <ele>380</ele>
   </trkpt>
   <trkpt lat="37.7934070" lon="127.6017680">
    <ele>385</ele>
   </trkpt>
   <trkpt lat="37.7934560" lon="127.6018470">
    <ele>385</ele>
   </trkpt>
   <trkpt lat="37.7935040" lon="127.6019260">
    <ele>389</ele>
   </trkpt>
   <trkpt lat="37.7935560" lon="127.6020320">
    <ele>385</ele>
   </trkpt>
   <trkpt lat="37.7936090" lon="127.6021380">
    <ele>388</ele>
   </trkpt>
   <trkpt lat="37.7936630" lon="127.6022160">
    <ele>382</ele>
   </trkpt>
   <trkpt lat="37.7937180" lon="127.6022940">
    <ele>381</ele>
   </trkpt>
   <trkpt lat="37.7938160" lon="127.6023340">
    <ele>376</ele>
   </trkpt>
   <trkpt lat="37.7939060" lon="127.6023200">
    <ele>376</ele>
   </trkpt>
   <trkpt lat="37.7939960" lon="127.6023050">
    <ele>371</ele>
   </trkpt>
   <trkpt lat="37.7940850" lon="127.6022910">
    <ele>368</ele>
   </trkpt>
   <trkpt lat="37.7941450" lon="127.6022680">
    <ele>368</ele>
   </trkpt>
   <trkpt lat="37.7942050" lon="127.6022450">
    <ele>364</ele>
   </trkpt>
   <trkpt lat="37.7942530" lon="127.6021700">
    <ele>364</ele>
   </trkpt>
   <trkpt lat="37.7945010" lon="127.6019670">
    <ele>358</ele>
   </trkpt>
   <trkpt lat="37.7946290" lon="127.6019380">
    <ele>357</ele>
   </trkpt>
   <trkpt lat="37.7953630" lon="127.6018910">
    <ele>354</ele>
   </trkpt>
   <trkpt lat="37.7956430" lon="127.6019640">
    <ele>354</ele>
   </trkpt>
   <trkpt lat="37.7958540" lon="127.6020340">
    <ele>357</ele>
   </trkpt>
   <trkpt lat="37.7959700" lon="127.6021200">
    <ele>360</ele>
   </trkpt>
   <trkpt lat="37.7962630" lon="127.6022110">
    <ele>368</ele>
   </trkpt>
   <trkpt lat="37.7964040" lon="127.6022950">
    <ele>372</ele>
   </trkpt>
   <trkpt lat="37.7967280" lon="127.6023840">
    <ele>380</ele>
   </trkpt>
   <trkpt lat="37.7969800" lon="127.6025160">
    <ele>385</ele>
   </trkpt>
   <trkpt lat="37.7970410" lon="127.6025110">
    <ele>386</ele>
   </trkpt>
   <trkpt lat="37.7971570" lon="127.6025730">
    <ele>386</ele>
   </trkpt>
   <trkpt lat="37.7974410" lon="127.6028970">
    <ele>396</ele>
   </trkpt>
   <trkpt lat="37.7976920" lon="127.6031040">
    <ele>402</ele>
   </trkpt>
   <trkpt lat="37.7977580" lon="127.6030840">
    <ele>406</ele>
   </trkpt>
   <trkpt lat="37.7978400" lon="127.6030370">
    <ele>406</ele>
   </trkpt>
   <trkpt lat="37.7979210" lon="127.6029910">
    <ele>407</ele>
   </trkpt>
   <trkpt lat="37.7980010" lon="127.6029290">
    <ele>409</ele>
   </trkpt>
   <trkpt lat="37.7980820" lon="127.6028670">
    <ele>409</ele>
   </trkpt>
   <trkpt lat="37.7981630" lon="127.6028060">
    <ele>406</ele>
   </trkpt>
   <trkpt lat="37.7982300" lon="127.6028060">
    <ele>406</ele>
   </trkpt>
   <trkpt lat="37.7982970" lon="127.6028070">
    <ele>402</ele>
   </trkpt>
   <trkpt lat="37.7983840" lon="127.6028580">
    <ele>402</ele>
   </trkpt>
   <trkpt lat="37.7984430" lon="127.6028460">
    <ele>397</ele>
   </trkpt>
   <trkpt lat="37.7985030" lon="127.6028150">
    <ele>397</ele>
   </trkpt>
   <trkpt lat="37.7985620" lon="127.6028220">
    <ele>392</ele>
   </trkpt>
   <trkpt lat="37.7986560" lon="127.6028080">
    <ele>392</ele>
   </trkpt>
   <trkpt lat="37.7986690" lon="127.6027190">
    <ele>389</ele>
   </trkpt>
   <trkpt lat="37.7986710" lon="127.6026140">
    <ele>389</ele>
   </trkpt>
   <trkpt lat="37.7986740" lon="127.6025080">
    <ele>387</ele>
   </trkpt>
   <trkpt lat="37.7986760" lon="127.6024020">
    <ele>383</ele>
   </trkpt>
   <trkpt lat="37.7987590" lon="127.6023750">
    <ele>383</ele>
   </trkpt>
   <trkpt lat="37.7988650" lon="127.6023800">
    <ele>379</ele>
   </trkpt>
   <trkpt lat="37.7995350" lon="127.6026150">
    <ele>367</ele>
   </trkpt>
   <trkpt lat="37.7998080" lon="127.6026680">
    <ele>364</ele>
   </trkpt>
   <trkpt lat="37.8000020" lon="127.6026320">
    <ele>363</ele>
   </trkpt>
   <trkpt lat="37.8000250" lon="127.6026650">
    <ele>362</ele>
   </trkpt>
   <trkpt lat="37.8001150" lon="127.6026720">
    <ele>362</ele>
   </trkpt>
   <trkpt lat="37.8003750" lon="127.6026170">
    <ele>362</ele>
   </trkpt>
   <trkpt lat="37.8006430" lon="127.6025310">
    <ele>364</ele>
   </trkpt>
   <trkpt lat="37.8007570" lon="127.6024460">
    <ele>366</ele>
   </trkpt>
   <trkpt lat="37.8009360" lon="127.6022100">
    <ele>360</ele>
   </trkpt>
   <trkpt lat="37.8011460" lon="127.6019880">
    <ele>357</ele>
   </trkpt>
   <trkpt lat="37.8014860" lon="127.6019430">
    <ele>363</ele>
   </trkpt>
   <trkpt lat="37.8016360" lon="127.6018730">
    <ele>367</ele>
   </trkpt>
   <trkpt lat="37.8017400" lon="127.6017670">
    <ele>368</ele>
   </trkpt>
   <trkpt lat="37.8020090" lon="127.6015470">
    <ele>367</ele>
   </trkpt>
   <trkpt lat="37.8022710" lon="127.6015390">
    <ele>364</ele>
   </trkpt>
   <trkpt lat="37.8024030" lon="127.6015430">
    <ele>363</ele>
   </trkpt>
   <trkpt lat="37.8025880" lon="127.6014890">
    <ele>363</ele>
   </trkpt>
   <trkpt lat="37.8027380" lon="127.6014510">
    <ele>364</ele>
   </trkpt>
   <trkpt lat="37.8028510" lon="127.6013650">
    <ele>365</ele>
   </trkpt>
   <trkpt lat="37.8030140" lon="127.6013200">
    <ele>366</ele>
   </trkpt>
   <trkpt lat="37.8032330" lon="127.6013480">
    <ele>367</ele>
   </trkpt>
   <trkpt lat="37.8033490" lon="127.6012860">
    <ele>367</ele>
   </trkpt>
   <trkpt lat="37.8033720" lon="127.6013210">
    <ele>367</ele>
   </trkpt>
   <trkpt lat="37.8034080" lon="127.6013500">
    <ele>368</ele>
   </trkpt>
   <trkpt lat="37.8034730" lon="127.6013940">
    <ele>368</ele>
   </trkpt>
   <trkpt lat="37.8035490" lon="127.6014300">
    <ele>374</ele>
   </trkpt>
   <trkpt lat="37.8037490" lon="127.6011690">
    <ele>369</ele>
   </trkpt>
   <trkpt lat="37.8039770" lon="127.6007400">
    <ele>355</ele>
   </trkpt>
   <trkpt lat="37.8040200" lon="127.6004930">
    <ele>341</ele>
   </trkpt>
   <trkpt lat="37.8039690" lon="127.6002250">
    <ele>334</ele>
   </trkpt>
   <trkpt lat="37.8041050" lon="127.6000640">
    <ele>329</ele>
   </trkpt>
   <trkpt lat="37.8039770" lon="127.5999250">
    <ele>319</ele>
   </trkpt>
   <trkpt lat="37.8037320" lon="127.5999140">
    <ele>321</ele>
   </trkpt>
   <trkpt lat="37.8035870" lon="127.5997960">
    <ele>323</ele>
   </trkpt>
   <trkpt lat="37.8037060" lon="127.5994100">
    <ele>308</ele>
   </trkpt>
   <trkpt lat="37.8039690" lon="127.5989590">
    <ele>287</ele>
   </trkpt>
   <trkpt lat="37.8044610" lon="127.5984660">
    <ele>266</ele>
   </trkpt>
   <trkpt lat="37.8047230" lon="127.5982190">
    <ele>247</ele>
   </trkpt>
   <trkpt lat="37.8049860" lon="127.5975210">
    <ele>235</ele>
   </trkpt>
   <trkpt lat="37.8051730" lon="127.5968880">
    <ele>214</ele>
   </trkpt>
   <trkpt lat="37.8055120" lon="127.5962660">
    <ele>209</ele>
   </trkpt>
   <trkpt lat="37.8059190" lon="127.5959230">
    <ele>196</ele>
   </trkpt>
   <trkpt lat="37.8061980" lon="127.5954620">
    <ele>183</ele>
   </trkpt>
   <trkpt lat="37.8063170" lon="127.5949470">
    <ele>173</ele>
   </trkpt>
   <trkpt lat="37.8065710" lon="127.5946030">
    <ele>173</ele>
   </trkpt>
   <trkpt lat="37.8067750" lon="127.5944960">
    <ele>175</ele>
   </trkpt>
   <trkpt lat="37.8071390" lon="127.5945280">
    <ele>170</ele>
   </trkpt>
   <trkpt lat="37.8075630" lon="127.5944320">
    <ele>171</ele>
   </trkpt>
   <trkpt lat="37.8084090" lon="127.5946000">
    <ele>167</ele>
   </trkpt>
   <trkpt lat="37.8084790" lon="127.5946140">
    <ele>169</ele>
   </trkpt>
   <trkpt lat="37.8087350" lon="127.5946570">
    <ele>167</ele>
   </trkpt>
   <trkpt lat="37.8096310" lon="127.5948070">
    <ele>156</ele>
   </trkpt>
   <trkpt lat="37.8099870" lon="127.5947530">
    <ele>146</ele>
   </trkpt>
   <trkpt lat="37.8103010" lon="127.5946140">
    <ele>146</ele>
   </trkpt>
   <trkpt lat="37.8106820" lon="127.5947110">
    <ele>140</ele>
   </trkpt>
   <trkpt lat="37.8109370" lon="127.5945390">
    <ele>139</ele>
   </trkpt>
   <trkpt lat="37.8110810" lon="127.5944740">
    <ele>138</ele>
   </trkpt>
   <trkpt lat="37.8112310" lon="127.5945120">
    <ele>138</ele>
   </trkpt>
   <trkpt lat="37.8113880" lon="127.5947050">
    <ele>138</ele>
   </trkpt>
   <trkpt lat="37.8116300" lon="127.5948530">
    <ele>136</ele>
   </trkpt>
   <trkpt lat="37.8118860" lon="127.5949280">
    <ele>135</ele>
   </trkpt>
   <trkpt lat="37.8121830" lon="127.5949440">
    <ele>128</ele>
   </trkpt>
   <trkpt lat="37.8126910" lon="127.5946620">
    <ele>119</ele>
   </trkpt>
   <trkpt lat="37.8132590" lon="127.5942330">
    <ele>117</ele>
   </trkpt>
   <trkpt lat="37.8137760" lon="127.5937450">
    <ele>118</ele>
   </trkpt>
   <trkpt lat="37.8139970" lon="127.5936000">
    <ele>114</ele>
   </trkpt>
   <trkpt lat="37.8141790" lon="127.5935040">
    <ele>116</ele>
   </trkpt>
   <trkpt lat="37.8145480" lon="127.5932160">
    <ele>111</ele>
   </trkpt>
   <trkpt lat="37.8146530" lon="127.5931280">
    <ele>108</ele>
   </trkpt>
   <trkpt lat="37.8162140" lon="127.5921140">
    <ele>103</ele>
   </trkpt>
   <trkpt lat="37.8160710" lon="127.5918670">
    <ele>100</ele>
   </trkpt>
   <trkpt lat="37.8160410" lon="127.5917910">
    <ele>100</ele>
   </trkpt>
   <trkpt lat="37.8160543" lon="127.5917817">
    <ele>100</ele>
   </trkpt>
   <trkpt lat="37.8163079" lon="127.5916042">
    <ele>101</ele>
   </trkpt>
   <trkpt lat="37.8163112" lon="127.5915974">
    <ele>101</ele>
   </trkpt>
   <trkpt lat="37.8163736" lon="127.5914684">
    <ele>101</ele>
   </trkpt>
   <trkpt lat="37.8163836" lon="127.5914610">
    <ele>101</ele>
   </trkpt>
   <trkpt lat="37.8165730" lon="127.5913195">
    <ele>102</ele>
   </trkpt>
   <trkpt lat="37.8167724" lon="127.5911706">
    <ele>106</ele>
   </trkpt>
   <trkpt lat="37.8167825" lon="127.5911628">
    <ele>106</ele>
   </trkpt>
   <trkpt lat="37.8169739" lon="127.5910141">
    <ele>109</ele>
   </trkpt>
   <trkpt lat="37.8171755" lon="127.5908576">
    <ele>111</ele>
   </trkpt>
   <trkpt lat="37.8171888" lon="127.5908449">
    <ele>111</ele>
   </trkpt>
   <trkpt lat="37.8174414" lon="127.5906026">
    <ele>108</ele>
   </trkpt>
   <trkpt lat="37.8174552" lon="127.5905882">
    <ele>108</ele>
   </trkpt>
   <trkpt lat="37.8177168" lon="127.5903137">
    <ele>108</ele>
   </trkpt>
   <trkpt lat="37.8179921" lon="127.5900247">
    <ele>113</ele>
   </trkpt>
   <trkpt lat="37.8180053" lon="127.5900188">
    <ele>113</ele>
   </trkpt>
   <trkpt lat="37.8182569" lon="127.5899066">
    <ele>108</ele>
   </trkpt>
   <trkpt lat="37.8182700" lon="127.5899041">
    <ele>108</ele>
   </trkpt>
   <trkpt lat="37.8185179" lon="127.5898572">
    <ele>107</ele>
   </trkpt>
   <trkpt lat="37.8185391" lon="127.5898540">
    <ele>107</ele>
   </trkpt>
   <trkpt lat="37.8189423" lon="127.5897940">
    <ele>99</ele>
   </trkpt>
   <trkpt lat="37.8189637" lon="127.5897876">
    <ele>99</ele>
   </trkpt>
   <trkpt lat="37.8193695" lon="127.5896658">
    <ele>95</ele>
   </trkpt>
   <trkpt lat="37.8193829" lon="127.5896629">
    <ele>95</ele>
   </trkpt>
   <trkpt lat="37.8196368" lon="127.5896071">
    <ele>91</ele>
   </trkpt>
   <trkpt lat="37.8196530" lon="127.5896091">
    <ele>91</ele>
   </trkpt>
   <trkpt lat="37.8199602" lon="127.5896469">
    <ele>88</ele>
   </trkpt>
   <trkpt lat="37.8202837" lon="127.5896867">
    <ele>86</ele>
   </trkpt>
  </trkseg>
 </trk>
</gpx>
