<?xml version="1.0" encoding="UTF-8"?>
<gpx xmlns="http://www.topografix.com/GPX/1/1" xmlns:gpxdata="http://www.cluetrust.com/XML/GPXDATA/1/0" xmlns:xsi="http://www.w3.org/2001/XMLSchema-instance" xsi:schemaLocation="http://www.topografix.com/GPX/1/1 https://www.topografix.com/GPX/1/1/gpx.xsd http://www.cluetrust.com/XML/GPXDATA/1/0 https://www.cluetrust.com/Schemas/gpxdata10.xsd" creator="COROS Wearables" version="1.1">
 <metadata>
  <link href="https://www.coros.com">
   <text>COROS</text>
  </link>
  <time>2024-07-18T13:22:23Z</time>
  <coros_edit>1</coros_edit>
 </metadata>
 <trk>
  <name>CHUNCHEON11</name>
  <type>running</type>
  <trkseg>
   <trkpt lat="37.8203357" lon="127.5896123">
    <ele>86</ele>
   </trkpt>
   <trkpt lat="37.8200039" lon="127.5895908">
    <ele>88</ele>
   </trkpt>
   <trkpt lat="37.8196722" lon="127.5895694">
    <ele>91</ele>
   </trkpt>
   <trkpt lat="37.8196558" lon="127.5895740">
    <ele>91</ele>
   </trkpt>
   <trkpt lat="37.8193441" lon="127.5896607">
    <ele>95</ele>
   </trkpt>
   <trkpt lat="37.8193264" lon="127.5896671">
    <ele>95</ele>
   </trkpt>
   <trkpt lat="37.8189910" lon="127.5897887">
    <ele>99</ele>
   </trkpt>
   <trkpt lat="37.8189788" lon="127.5897911">
    <ele>99</ele>
   </trkpt>
   <trkpt lat="37.8187473" lon="127.5898376">
    <ele>101</ele>
   </trkpt>
   <trkpt lat="37.8185036" lon="127.5898865">
    <ele>107</ele>
   </trkpt>
   <trkpt lat="37.8184903" lon="127.5898880">
    <ele>107</ele>
   </trkpt>
   <trkpt lat="37.8182384" lon="127.5899162">
    <ele>108</ele>
   </trkpt>
   <trkpt lat="37.8182339" lon="127.5899190">
    <ele>108</ele>
   </trkpt>
   <trkpt lat="37.8181484" lon="127.5899729">
    <ele>112</ele>
   </trkpt>
   <trkpt lat="37.8181409" lon="127.5899751">
    <ele>112</ele>
   </trkpt>
   <trkpt lat="37.8179994" lon="127.5900173">
    <ele>113</ele>
   </trkpt>
   <trkpt lat="37.8179884" lon="127.5900263">
    <ele>113</ele>
   </trkpt>
   <trkpt lat="37.8177798" lon="127.5901974">
    <ele>112</ele>
   </trkpt>
   <trkpt lat="37.8177706" lon="127.5902084">
    <ele>112</ele>
   </trkpt>
   <trkpt lat="37.8175967" lon="127.5904167">
    <ele>108</ele>
   </trkpt>
   <trkpt lat="37.8174136" lon="127.5906360">
    <ele>108</ele>
   </trkpt>
   <trkpt lat="37.8174046" lon="127.5906447">
    <ele>108</ele>
   </trkpt>
   <trkpt lat="37.8172337" lon="127.5908099">
    <ele>111</ele>
   </trkpt>
   <trkpt lat="37.8170538" lon="127.5909838">
    <ele>109</ele>
   </trkpt>
   <trkpt lat="37.8170385" lon="127.5909955">
    <ele>109</ele>
   </trkpt>
   <trkpt lat="37.8167476" lon="127.5912182">
    <ele>106</ele>
   </trkpt>
   <trkpt lat="37.8167293" lon="127.5912295">
    <ele>106</ele>
   </trkpt>
   <trkpt lat="37.8163815" lon="127.5914435">
    <ele>101</ele>
   </trkpt>
   <trkpt lat="37.8163802" lon="127.5914498">
    <ele>101</ele>
   </trkpt>
   <trkpt lat="37.8163558" lon="127.5915691">
    <ele>101</ele>
   </trkpt>
   <trkpt lat="37.8163401" lon="127.5915811">
    <ele>101</ele>
   </trkpt>
   <trkpt lat="37.8160420" lon="127.5917940">
    <ele>100</ele>
   </trkpt>
   <trkpt lat="37.8160450" lon="127.5918030">
    <ele>100</ele>
   </trkpt>
   <trkpt lat="37.8160360" lon="127.5917790">
    <ele>100</ele>
   </trkpt>
   <trkpt lat="37.8160290" lon="127.5917790">
    <ele>100</ele>
   </trkpt>
   <trkpt lat="37.8159590" lon="127.5917790">
    <ele>99</ele>
   </trkpt>
   <trkpt lat="37.8158820" lon="127.5917780">
    <ele>99</ele>
   </trkpt>
   <trkpt lat="37.8158030" lon="127.5918200">
    <ele>99</ele>
   </trkpt>
   <trkpt lat="37.8157250" lon="127.5918620">
    <ele>100</ele>
   </trkpt>
   <trkpt lat="37.8156650" lon="127.5918610">
    <ele>100</ele>
   </trkpt>
   <trkpt lat="37.8156440" lon="127.5918600">
    <ele>100</ele>
   </trkpt>
   <trkpt lat="37.8155620" lon="127.5918590">
    <ele>101</ele>
   </trkpt>
   <trkpt lat="37.8155510" lon="127.5917550">
    <ele>102</ele>
   </trkpt>
   <trkpt lat="37.8155390" lon="127.5916510">
    <ele>102</ele>
   </trkpt>
   <trkpt lat="37.8155280" lon="127.5915480">
    <ele>103</ele>
   </trkpt>
   <trkpt lat="37.8155140" lon="127.5914430">
    <ele>103</ele>
   </trkpt>
   <trkpt lat="37.8155010" lon="127.5913390">
    <ele>104</ele>
   </trkpt>
   <trkpt lat="37.8154870" lon="127.5912350">
    <ele>106</ele>
   </trkpt>
   <trkpt lat="37.8154230" lon="127.5911390">
    <ele>110</ele>
   </trkpt>
   <trkpt lat="37.8153600" lon="127.5910430">
    <ele>113</ele>
   </trkpt>
   <trkpt lat="37.8152630" lon="127.5910160">
    <ele>118</ele>
   </trkpt>
   <trkpt lat="37.8151670" lon="127.5909890">
    <ele>126</ele>
   </trkpt>
   <trkpt lat="37.8151410" lon="127.5909040">
    <ele>128</ele>
   </trkpt>
   <trkpt lat="37.8151160" lon="127.5908190">
    <ele>128</ele>
   </trkpt>
   <trkpt lat="37.8150910" lon="127.5907340">
    <ele>127</ele>
   </trkpt>
   <trkpt lat="37.8150770" lon="127.5906460">
    <ele>127</ele>
   </trkpt>
   <trkpt lat="37.8150650" lon="127.5905590">
    <ele>134</ele>
   </trkpt>
   <trkpt lat="37.8150520" lon="127.5904710">
    <ele>134</ele>
   </trkpt>
   <trkpt lat="37.8150330" lon="127.5903620">
    <ele>133</ele>
   </trkpt>
   <trkpt lat="37.8150140" lon="127.5902530">
    <ele>133</ele>
   </trkpt>
   <trkpt lat="37.8149950" lon="127.5901440">
    <ele>131</ele>
   </trkpt>
   <trkpt lat="37.8149790" lon="127.5900610">
    <ele>129</ele>
   </trkpt>
   <trkpt lat="37.8149610" lon="127.5899770">
    <ele>129</ele>
   </trkpt>
   <trkpt lat="37.8149450" lon="127.5898930">
    <ele>126</ele>
   </trkpt>
   <trkpt lat="37.8149040" lon="127.5898320">
    <ele>132</ele>
   </trkpt>
   <trkpt lat="37.8148620" lon="127.5897700">
    <ele>132</ele>
   </trkpt>
   <trkpt lat="37.8148230" lon="127.5896820">
    <ele>128</ele>
   </trkpt>
   <trkpt lat="37.8147830" lon="127.5895940">
    <ele>134</ele>
   </trkpt>
   <trkpt lat="37.8147440" lon="127.5895060">
    <ele>132</ele>
   </trkpt>
   <trkpt lat="37.8147180" lon="127.5894100">
    <ele>132</ele>
   </trkpt>
   <trkpt lat="37.8146920" lon="127.5893140">
    <ele>130</ele>
   </trkpt>
   <trkpt lat="37.8146660" lon="127.5892190">
    <ele>130</ele>
   </trkpt>
   <trkpt lat="37.8146180" lon="127.5890950">
    <ele>137</ele>
   </trkpt>
   <trkpt lat="37.8146140" lon="127.5890850">
    <ele>137</ele>
   </trkpt>
   <trkpt lat="37.8146080" lon="127.5890740">
    <ele>137</ele>
   </trkpt>
   <trkpt lat="37.8145660" lon="127.5889930">
    <ele>138</ele>
   </trkpt>
   <trkpt lat="37.8145240" lon="127.5889120">
    <ele>142</ele>
   </trkpt>
   <trkpt lat="37.8144820" lon="127.5888310">
    <ele>142</ele>
   </trkpt>
   <trkpt lat="37.8144520" lon="127.5887530">
    <ele>142</ele>
   </trkpt>
   <trkpt lat="37.8144210" lon="127.5886760">
    <ele>142</ele>
   </trkpt>
   <trkpt lat="37.8143900" lon="127.5885980">
    <ele>148</ele>
   </trkpt>
   <trkpt lat="37.8143780" lon="127.5885010">
    <ele>147</ele>
   </trkpt>
   <trkpt lat="37.8143670" lon="127.5884040">
    <ele>147</ele>
   </trkpt>
   <trkpt lat="37.8143560" lon="127.5883070">
    <ele>144</ele>
   </trkpt>
   <trkpt lat="37.8143530" lon="127.5882920">
    <ele>144</ele>
   </trkpt>
   <trkpt lat="37.8143190" lon="127.5881820">
    <ele>144</ele>
   </trkpt>
   <trkpt lat="37.8142850" lon="127.5880720">
    <ele>140</ele>
   </trkpt>
   <trkpt lat="37.8143220" lon="127.5879870">
    <ele>137</ele>
   </trkpt>
   <trkpt lat="37.8143590" lon="127.5879030">
    <ele>137</ele>
   </trkpt>
   <trkpt lat="37.8143960" lon="127.5878180">
    <ele>132</ele>
   </trkpt>
   <trkpt lat="37.8143790" lon="127.5877140">
    <ele>135</ele>
   </trkpt>
   <trkpt lat="37.8143620" lon="127.5876110">
    <ele>136</ele>
   </trkpt>
   <trkpt lat="37.8143910" lon="127.5875440">
    <ele>136</ele>
   </trkpt>
   <trkpt lat="37.8143940" lon="127.5874670">
    <ele>135</ele>
   </trkpt>
   <trkpt lat="37.8143970" lon="127.5873900">
    <ele>135</ele>
   </trkpt>
   <trkpt lat="37.8143950" lon="127.5873000">
    <ele>137</ele>
   </trkpt>
   <trkpt lat="37.8143930" lon="127.5872110">
    <ele>140</ele>
   </trkpt>
   <trkpt lat="37.8144040" lon="127.5871260">
    <ele>139</ele>
   </trkpt>
   <trkpt lat="37.8144160" lon="127.5870420">
    <ele>139</ele>
   </trkpt>
   <trkpt lat="37.8144280" lon="127.5869580">
    <ele>141</ele>
   </trkpt>
   <trkpt lat="37.8144380" lon="127.5868610">
    <ele>141</ele>
   </trkpt>
   <trkpt lat="37.8144490" lon="127.5867640">
    <ele>144</ele>
   </trkpt>
   <trkpt lat="37.8144480" lon="127.5867500">
    <ele>144</ele>
   </trkpt>
   <trkpt lat="37.8144550" lon="127.5866240">
    <ele>147</ele>
   </trkpt>
   <trkpt lat="37.8144660" lon="127.5865740">
    <ele>147</ele>
   </trkpt>
   <trkpt lat="37.8144770" lon="127.5864770">
    <ele>147</ele>
   </trkpt>
   <trkpt lat="37.8144870" lon="127.5863790">
    <ele>153</ele>
   </trkpt>
   <trkpt lat="37.8144900" lon="127.5863200">
    <ele>153</ele>
   </trkpt>
   <trkpt lat="37.8144920" lon="127.5862390">
    <ele>159</ele>
   </trkpt>
   <trkpt lat="37.8144880" lon="127.5861370">
    <ele>159</ele>
   </trkpt>
   <trkpt lat="37.8144880" lon="127.5861020">
    <ele>166</ele>
   </trkpt>
   <trkpt lat="37.8145170" lon="127.5860260">
    <ele>166</ele>
   </trkpt>
   <trkpt lat="37.8145450" lon="127.5859500">
    <ele>162</ele>
   </trkpt>
   <trkpt lat="37.8146120" lon="127.5858980">
    <ele>167</ele>
   </trkpt>
   <trkpt lat="37.8146780" lon="127.5858470">
    <ele>165</ele>
   </trkpt>
   <trkpt lat="37.8147510" lon="127.5857880">
    <ele>165</ele>
   </trkpt>
   <trkpt lat="37.8148230" lon="127.5857300">
    <ele>168</ele>
   </trkpt>
   <trkpt lat="37.8148750" lon="127.5856790">
    <ele>168</ele>
   </trkpt>
   <trkpt lat="37.8149260" lon="127.5856280">
    <ele>168</ele>
   </trkpt>
   <trkpt lat="37.8149980" lon="127.5855630">
    <ele>174</ele>
   </trkpt>
   <trkpt lat="37.8149910" lon="127.5855690">
    <ele>174</ele>
   </trkpt>
   <trkpt lat="37.8150490" lon="127.5855110">
    <ele>174</ele>
   </trkpt>
   <trkpt lat="37.8150920" lon="127.5854640">
    <ele>178</ele>
   </trkpt>
   <trkpt lat="37.8151350" lon="127.5854160">
    <ele>183</ele>
   </trkpt>
   <trkpt lat="37.8151560" lon="127.5853260">
    <ele>183</ele>
   </trkpt>
   <trkpt lat="37.8151760" lon="127.5852360">
    <ele>189</ele>
   </trkpt>
   <trkpt lat="37.8151470" lon="127.5851300">
    <ele>189</ele>
   </trkpt>
   <trkpt lat="37.8151190" lon="127.5850250">
    <ele>196</ele>
   </trkpt>
   <trkpt lat="37.8150390" lon="127.5849760">
    <ele>192</ele>
   </trkpt>
   <trkpt lat="37.8149590" lon="127.5849280">
    <ele>192</ele>
   </trkpt>
   <trkpt lat="37.8148910" lon="127.5849240">
    <ele>190</ele>
   </trkpt>
   <trkpt lat="37.8148230" lon="127.5849200">
    <ele>190</ele>
   </trkpt>
   <trkpt lat="37.8147650" lon="127.5849150">
    <ele>197</ele>
   </trkpt>
   <trkpt lat="37.8147070" lon="127.5849110">
    <ele>197</ele>
   </trkpt>
   <trkpt lat="37.8146350" lon="127.5849200">
    <ele>191</ele>
   </trkpt>
   <trkpt lat="37.8145630" lon="127.5849280">
    <ele>191</ele>
   </trkpt>
   <trkpt lat="37.8144910" lon="127.5849370">
    <ele>196</ele>
   </trkpt>
   <trkpt lat="37.8144820" lon="127.5849440">
    <ele>196</ele>
   </trkpt>
   <trkpt lat="37.8144150" lon="127.5849680">
    <ele>196</ele>
   </trkpt>
   <trkpt lat="37.8143480" lon="127.5849910">
    <ele>203</ele>
   </trkpt>
   <trkpt lat="37.8142820" lon="127.5849230">
    <ele>203</ele>
   </trkpt>
   <trkpt lat="37.8142810" lon="127.5848130">
    <ele>209</ele>
   </trkpt>
   <trkpt lat="37.8142790" lon="127.5847040">
    <ele>215</ele>
   </trkpt>
   <trkpt lat="37.8143000" lon="127.5845790">
    <ele>215</ele>
   </trkpt>
   <trkpt lat="37.8143200" lon="127.5844550">
    <ele>219</ele>
   </trkpt>
   <trkpt lat="37.8143700" lon="127.5844180">
    <ele>219</ele>
   </trkpt>
   <trkpt lat="37.8144190" lon="127.5843800">
    <ele>220</ele>
   </trkpt>
   <trkpt lat="37.8144740" lon="127.5843380">
    <ele>220</ele>
   </trkpt>
   <trkpt lat="37.8145290" lon="127.5842950">
    <ele>220</ele>
   </trkpt>
   <trkpt lat="37.8145930" lon="127.5842370">
    <ele>218</ele>
   </trkpt>
   <trkpt lat="37.8146560" lon="127.5841790">
    <ele>223</ele>
   </trkpt>
   <trkpt lat="37.8147070" lon="127.5841320">
    <ele>222</ele>
   </trkpt>
   <trkpt lat="37.8147570" lon="127.5840860">
    <ele>222</ele>
   </trkpt>
   <trkpt lat="37.8148370" lon="127.5840420">
    <ele>227</ele>
   </trkpt>
   <trkpt lat="37.8149180" lon="127.5839980">
    <ele>227</ele>
   </trkpt>
   <trkpt lat="37.8149420" lon="127.5839760">
    <ele>227</ele>
   </trkpt>
   <trkpt lat="37.8149340" lon="127.5838520">
    <ele>232</ele>
   </trkpt>
   <trkpt lat="37.8148800" lon="127.5838090">
    <ele>232</ele>
   </trkpt>
   <trkpt lat="37.8148260" lon="127.5837660">
    <ele>232</ele>
   </trkpt>
   <trkpt lat="37.8147370" lon="127.5837410">
    <ele>232</ele>
   </trkpt>
   <trkpt lat="37.8146480" lon="127.5837170">
    <ele>234</ele>
   </trkpt>
   <trkpt lat="37.8145630" lon="127.5837200">
    <ele>234</ele>
   </trkpt>
   <trkpt lat="37.8144780" lon="127.5837240">
    <ele>235</ele>
   </trkpt>
   <trkpt lat="37.8144680" lon="127.5837250">
    <ele>235</ele>
   </trkpt>
   <trkpt lat="37.8144130" lon="127.5837510">
    <ele>235</ele>
   </trkpt>
   <trkpt lat="37.8143870" lon="127.5837630">
    <ele>237</ele>
   </trkpt>
   <trkpt lat="37.8143570" lon="127.5837780">
    <ele>237</ele>
   </trkpt>
   <trkpt lat="37.8142870" lon="127.5837160">
    <ele>237</ele>
   </trkpt>
   <trkpt lat="37.8142170" lon="127.5836550">
    <ele>244</ele>
   </trkpt>
   <trkpt lat="37.8141940" lon="127.5835360">
    <ele>246</ele>
   </trkpt>
   <trkpt lat="37.8141710" lon="127.5834600">
    <ele>246</ele>
   </trkpt>
   <trkpt lat="37.8141470" lon="127.5833850">
    <ele>246</ele>
   </trkpt>
   <trkpt lat="37.8140830" lon="127.5833740">
    <ele>246</ele>
   </trkpt>
   <trkpt lat="37.8140430" lon="127.5833960">
    <ele>246</ele>
   </trkpt>
   <trkpt lat="37.8140240" lon="127.5834270">
    <ele>246</ele>
   </trkpt>
   <trkpt lat="37.8139640" lon="127.5834630">
    <ele>244</ele>
   </trkpt>
   <trkpt lat="37.8138910" lon="127.5835160">
    <ele>244</ele>
   </trkpt>
   <trkpt lat="37.8138600" lon="127.5835560">
    <ele>244</ele>
   </trkpt>
   <trkpt lat="37.8138190" lon="127.5836080">
    <ele>242</ele>
   </trkpt>
   <trkpt lat="37.8137770" lon="127.5836590">
    <ele>242</ele>
   </trkpt>
   <trkpt lat="37.8137490" lon="127.5836930">
    <ele>242</ele>
   </trkpt>
   <trkpt lat="37.8137320" lon="127.5837690">
    <ele>243</ele>
   </trkpt>
   <trkpt lat="37.8137140" lon="127.5838440">
    <ele>240</ele>
   </trkpt>
   <trkpt lat="37.8136880" lon="127.5839770">
    <ele>240</ele>
   </trkpt>
   <trkpt lat="37.8136100" lon="127.5840300">
    <ele>240</ele>
   </trkpt>
   <trkpt lat="37.8135410" lon="127.5840680">
    <ele>238</ele>
   </trkpt>
   <trkpt lat="37.8134790" lon="127.5841020">
    <ele>238</ele>
   </trkpt>
   <trkpt lat="37.8133730" lon="127.5841280">
    <ele>237</ele>
   </trkpt>
   <trkpt lat="37.8132690" lon="127.5841830">
    <ele>236</ele>
   </trkpt>
   <trkpt lat="37.8132000" lon="127.5842350">
    <ele>235</ele>
   </trkpt>
   <trkpt lat="37.8131300" lon="127.5842870">
    <ele>236</ele>
   </trkpt>
   <trkpt lat="37.8130700" lon="127.5843190">
    <ele>236</ele>
   </trkpt>
   <trkpt lat="37.8130110" lon="127.5843520">
    <ele>236</ele>
   </trkpt>
   <trkpt lat="37.8129190" lon="127.5843910">
    <ele>236</ele>
   </trkpt>
   <trkpt lat="37.8128280" lon="127.5844300">
    <ele>237</ele>
   </trkpt>
   <trkpt lat="37.8127410" lon="127.5844540">
    <ele>239</ele>
   </trkpt>
   <trkpt lat="37.8126710" lon="127.5844800">
    <ele>239</ele>
   </trkpt>
   <trkpt lat="37.8126020" lon="127.5845060">
    <ele>240</ele>
   </trkpt>
   <trkpt lat="37.8125180" lon="127.5845230">
    <ele>240</ele>
   </trkpt>
   <trkpt lat="37.8124930" lon="127.5845470">
    <ele>239</ele>
   </trkpt>
   <trkpt lat="37.8124120" lon="127.5845790">
    <ele>242</ele>
   </trkpt>
   <trkpt lat="37.8123060" lon="127.5846120">
    <ele>241</ele>
   </trkpt>
   <trkpt lat="37.8122090" lon="127.5846180">
    <ele>240</ele>
   </trkpt>
   <trkpt lat="37.8121780" lon="127.5846320">
    <ele>240</ele>
   </trkpt>
   <trkpt lat="37.8120880" lon="127.5846880">
    <ele>240</ele>
   </trkpt>
   <trkpt lat="37.8120720" lon="127.5847050">
    <ele>237</ele>
   </trkpt>
   <trkpt lat="37.8119950" lon="127.5846850">
    <ele>237</ele>
   </trkpt>
   <trkpt lat="37.8119680" lon="127.5847050">
    <ele>237</ele>
   </trkpt>
   <trkpt lat="37.8119150" lon="127.5847310">
    <ele>235</ele>
   </trkpt>
   <trkpt lat="37.8118460" lon="127.5848010">
    <ele>236</ele>
   </trkpt>
   <trkpt lat="37.8117770" lon="127.5848700">
    <ele>233</ele>
   </trkpt>
   <trkpt lat="37.8117120" lon="127.5849180">
    <ele>234</ele>
   </trkpt>
   <trkpt lat="37.8116470" lon="127.5849670">
    <ele>232</ele>
   </trkpt>
   <trkpt lat="37.8116380" lon="127.5849710">
    <ele>232</ele>
   </trkpt>
   <trkpt lat="37.8115750" lon="127.5850470">
    <ele>232</ele>
   </trkpt>
   <trkpt lat="37.8115150" lon="127.5850970">
    <ele>232</ele>
   </trkpt>
   <trkpt lat="37.8114550" lon="127.5851470">
    <ele>232</ele>
   </trkpt>
   <trkpt lat="37.8114000" lon="127.5851940">
    <ele>231</ele>
   </trkpt>
   <trkpt lat="37.8113450" lon="127.5852400">
    <ele>231</ele>
   </trkpt>
   <trkpt lat="37.8113000" lon="127.5852880">
    <ele>234</ele>
   </trkpt>
   <trkpt lat="37.8112560" lon="127.5853370">
    <ele>234</ele>
   </trkpt>
   <trkpt lat="37.8112230" lon="127.5853400">
    <ele>234</ele>
   </trkpt>
   <trkpt lat="37.8111740" lon="127.5853850">
    <ele>234</ele>
   </trkpt>
   <trkpt lat="37.8111250" lon="127.5854300">
    <ele>232</ele>
   </trkpt>
   <trkpt lat="37.8110860" lon="127.5855170">
    <ele>237</ele>
   </trkpt>
   <trkpt lat="37.8110140" lon="127.5855600">
    <ele>237</ele>
   </trkpt>
   <trkpt lat="37.8109660" lon="127.5855920">
    <ele>236</ele>
   </trkpt>
   <trkpt lat="37.8109280" lon="127.5856840">
    <ele>241</ele>
   </trkpt>
   <trkpt lat="37.8107880" lon="127.5860060">
    <ele>250</ele>
   </trkpt>
   <trkpt lat="37.8105510" lon="127.5863990">
    <ele>261</ele>
   </trkpt>
   <trkpt lat="37.8104990" lon="127.5865760">
    <ele>269</ele>
   </trkpt>
   <trkpt lat="37.8104990" lon="127.5866710">
    <ele>273</ele>
   </trkpt>
   <trkpt lat="37.8101580" lon="127.5869020">
    <ele>280</ele>
   </trkpt>
   <trkpt lat="37.8100290" lon="127.5869330">
    <ele>280</ele>
   </trkpt>
   <trkpt lat="37.8098830" lon="127.5870600">
    <ele>288</ele>
   </trkpt>
   <trkpt lat="37.8094760" lon="127.5875140">
    <ele>310</ele>
   </trkpt>
   <trkpt lat="37.8093570" lon="127.5875380">
    <ele>308</ele>
   </trkpt>
   <trkpt lat="37.8093020" lon="127.5875910">
    <ele>308</ele>
   </trkpt>
   <trkpt lat="37.8090350" lon="127.5880010">
    <ele>321</ele>
   </trkpt>
   <trkpt lat="37.8088690" lon="127.5884050">
    <ele>341</ele>
   </trkpt>
   <trkpt lat="37.8088480" lon="127.5885250">
    <ele>347</ele>
   </trkpt>
   <trkpt lat="37.8087540" lon="127.5887090">
    <ele>350</ele>
   </trkpt>
   <trkpt lat="37.8087250" lon="127.5889190">
    <ele>352</ele>
   </trkpt>
   <trkpt lat="37.8085630" lon="127.5890050">
    <ele>348</ele>
   </trkpt>
   <trkpt lat="37.8085140" lon="127.5890160">
    <ele>344</ele>
   </trkpt>
   <trkpt lat="37.8082430" lon="127.5888600">
    <ele>336</ele>
   </trkpt>
   <trkpt lat="37.8078650" lon="127.5888060">
    <ele>326</ele>
   </trkpt>
   <trkpt lat="37.8078190" lon="127.5887690">
    <ele>326</ele>
   </trkpt>
   <trkpt lat="37.8077200" lon="127.5885400">
    <ele>324</ele>
   </trkpt>
   <trkpt lat="37.8075830" lon="127.5883580">
    <ele>319</ele>
   </trkpt>
   <trkpt lat="37.8075240" lon="127.5882290">
    <ele>318</ele>
   </trkpt>
   <trkpt lat="37.8074970" lon="127.5882170">
    <ele>318</ele>
   </trkpt>
   <trkpt lat="37.8071450" lon="127.5880650">
    <ele>304</ele>
   </trkpt>
   <trkpt lat="37.8068290" lon="127.5880660">
    <ele>301</ele>
   </trkpt>
   <trkpt lat="37.8065370" lon="127.5881410">
    <ele>306</ele>
   </trkpt>
   <trkpt lat="37.8064180" lon="127.5881210">
    <ele>309</ele>
   </trkpt>
   <trkpt lat="37.8062960" lon="127.5881530">
    <ele>312</ele>
   </trkpt>
   <trkpt lat="37.8059860" lon="127.5881460">
    <ele>321</ele>
   </trkpt>
   <trkpt lat="37.8057150" lon="127.5881540">
    <ele>328</ele>
   </trkpt>
   <trkpt lat="37.8056520" lon="127.5881760">
    <ele>330</ele>
   </trkpt>
   <trkpt lat="37.8056500" lon="127.5881860">
    <ele>334</ele>
   </trkpt>
   <trkpt lat="37.8056260" lon="127.5881990">
    <ele>334</ele>
   </trkpt>
   <trkpt lat="37.8054560" lon="127.5884130">
    <ele>339</ele>
   </trkpt>
   <trkpt lat="37.8051280" lon="127.5886140">
    <ele>351</ele>
   </trkpt>
   <trkpt lat="37.8049530" lon="127.5888080">
    <ele>359</ele>
   </trkpt>
   <trkpt lat="37.8048700" lon="127.5888580">
    <ele>364</ele>
   </trkpt>
   <trkpt lat="37.8047260" lon="127.5888840">
    <ele>364</ele>
   </trkpt>
   <trkpt lat="37.8046230" lon="127.5889780">
    <ele>362</ele>
   </trkpt>
   <trkpt lat="37.8045320" lon="127.5889260">
    <ele>362</ele>
   </trkpt>
   <trkpt lat="37.8046030" lon="127.5891260">
    <ele>361</ele>
   </trkpt>
   <trkpt lat="37.8045940" lon="127.5892000">
    <ele>361</ele>
   </trkpt>
   <trkpt lat="37.8046250" lon="127.5892800">
    <ele>360</ele>
   </trkpt>
   <trkpt lat="37.8046930" lon="127.5898630">
    <ele>350</ele>
   </trkpt>
   <trkpt lat="37.8046650" lon="127.5900600">
    <ele>345</ele>
   </trkpt>
   <trkpt lat="37.8045980" lon="127.5902100">
    <ele>337</ele>
   </trkpt>
   <trkpt lat="37.8045500" lon="127.5905520">
    <ele>327</ele>
   </trkpt>
   <trkpt lat="37.8045070" lon="127.5906320">
    <ele>322</ele>
   </trkpt>
   <trkpt lat="37.8044330" lon="127.5906760">
    <ele>320</ele>
   </trkpt>
   <trkpt lat="37.8043860" lon="127.5907520">
    <ele>316</ele>
   </trkpt>
   <trkpt lat="37.8043670" lon="127.5907830">
    <ele>316</ele>
   </trkpt>
   <trkpt lat="37.8042700" lon="127.5910200">
    <ele>310</ele>
   </trkpt>
   <trkpt lat="37.8039400" lon="127.5914550">
    <ele>303</ele>
   </trkpt>
   <trkpt lat="37.8038170" lon="127.5916170">
    <ele>305</ele>
   </trkpt>
   <trkpt lat="37.8037730" lon="127.5917530">
    <ele>302</ele>
   </trkpt>
   <trkpt lat="37.8034560" lon="127.5919330">
    <ele>300</ele>
   </trkpt>
   <trkpt lat="37.8033330" lon="127.5920560">
    <ele>299</ele>
   </trkpt>
   <trkpt lat="37.8030220" lon="127.5926590">
    <ele>298</ele>
   </trkpt>
   <trkpt lat="37.8029630" lon="127.5928130">
    <ele>295</ele>
   </trkpt>
   <trkpt lat="37.8027170" lon="127.5932510">
    <ele>291</ele>
   </trkpt>
   <trkpt lat="37.8026900" lon="127.5933830">
    <ele>294</ele>
   </trkpt>
   <trkpt lat="37.8026220" lon="127.5935210">
    <ele>297</ele>
   </trkpt>
   <trkpt lat="37.8023460" lon="127.5939790">
    <ele>303</ele>
   </trkpt>
   <trkpt lat="37.8023320" lon="127.5942790">
    <ele>306</ele>
   </trkpt>
   <trkpt lat="37.8023860" lon="127.5943870">
    <ele>305</ele>
   </trkpt>
   <trkpt lat="37.8024170" lon="127.5945430">
    <ele>304</ele>
   </trkpt>
   <trkpt lat="37.8025800" lon="127.5948890">
    <ele>308</ele>
   </trkpt>
   <trkpt lat="37.8025810" lon="127.5952050">
    <ele>309</ele>
   </trkpt>
   <trkpt lat="37.8025620" lon="127.5957370">
    <ele>316</ele>
   </trkpt>
   <trkpt lat="37.8025210" lon="127.5960510">
    <ele>320</ele>
   </trkpt>
   <trkpt lat="37.8025180" lon="127.5964570">
    <ele>327</ele>
   </trkpt>
   <trkpt lat="37.8023370" lon="127.5968700">
    <ele>325</ele>
   </trkpt>
   <trkpt lat="37.8023540" lon="127.5970270">
    <ele>323</ele>
   </trkpt>
   <trkpt lat="37.8023370" lon="127.5971410">
    <ele>319</ele>
   </trkpt>
   <trkpt lat="37.8023670" lon="127.5973130">
    <ele>315</ele>
   </trkpt>
   <trkpt lat="37.8024840" lon="127.5974320">
    <ele>317</ele>
   </trkpt>
   <trkpt lat="37.8025700" lon="127.5976720">
    <ele>310</ele>
   </trkpt>
   <trkpt lat="37.8027660" lon="127.5980220">
    <ele>316</ele>
   </trkpt>
   <trkpt lat="37.8028010" lon="127.5981420">
    <ele>317</ele>
   </trkpt>
   <trkpt lat="37.8029460" lon="127.5983350">
    <ele>326</ele>
   </trkpt>
   <trkpt lat="37.8028710" lon="127.5988820">
    <ele>327</ele>
   </trkpt>
   <trkpt lat="37.8028400" lon="127.5994600">
    <ele>325</ele>
   </trkpt>
   <trkpt lat="37.8028540" lon="127.5997930">
    <ele>333</ele>
   </trkpt>
   <trkpt lat="37.8028800" lon="127.5999280">
    <ele>342</ele>
   </trkpt>
   <trkpt lat="37.8028600" lon="127.6000610">
    <ele>341</ele>
   </trkpt>
   <trkpt lat="37.8028730" lon="127.6002170">
    <ele>349</ele>
   </trkpt>
   <trkpt lat="37.8029910" lon="127.6005350">
    <ele>354</ele>
   </trkpt>
   <trkpt lat="37.8030600" lon="127.6008810">
    <ele>367</ele>
   </trkpt>
   <trkpt lat="37.8030500" lon="127.6009850">
    <ele>367</ele>
   </trkpt>
   <trkpt lat="37.8031060" lon="127.6011100">
    <ele>367</ele>
   </trkpt>
   <trkpt lat="37.8031890" lon="127.6012250">
    <ele>367</ele>
   </trkpt>
   <trkpt lat="37.8033490" lon="127.6012860">
    <ele>367</ele>
   </trkpt>
   <trkpt lat="37.8033720" lon="127.6013210">
    <ele>367</ele>
   </trkpt>
   <trkpt lat="37.8034080" lon="127.6013500">
    <ele>368</ele>
   </trkpt>
   <trkpt lat="37.8034730" lon="127.6013940">
    <ele>368</ele>
   </trkpt>
   <trkpt lat="37.8035490" lon="127.6014300">
    <ele>374</ele>
   </trkpt>
   <trkpt lat="37.8037490" lon="127.6011690">
    <ele>369</ele>
   </trkpt>
   <trkpt lat="37.8039770" lon="127.6007400">
    <ele>355</ele>
   </trkpt>
   <trkpt lat="37.8040200" lon="127.6004930">
    <ele>341</ele>
   </trkpt>
   <trkpt lat="37.8039690" lon="127.6002250">
    <ele>334</ele>
   </trkpt>
   <trkpt lat="37.8041050" lon="127.6000640">
    <ele>329</ele>
   </trkpt>
   <trkpt lat="37.8039770" lon="127.5999250">
    <ele>319</ele>
   </trkpt>
   <trkpt lat="37.8037320" lon="127.5999140">
    <ele>321</ele>
   </trkpt>
   <trkpt lat="37.8035870" lon="127.5997960">
    <ele>323</ele>
   </trkpt>
   <trkpt lat="37.8037060" lon="127.5994100">
    <ele>308</ele>
   </trkpt>
   <trkpt lat="37.8039690" lon="127.5989590">
    <ele>287</ele>
   </trkpt>
   <trkpt lat="37.8044610" lon="127.5984660">
    <ele>266</ele>
   </trkpt>
   <trkpt lat="37.8047230" lon="127.5982190">
    <ele>247</ele>
   </trkpt>
   <trkpt lat="37.8049860" lon="127.5975210">
    <ele>235</ele>
   </trkpt>
   <trkpt lat="37.8051730" lon="127.5968880">
    <ele>214</ele>
   </trkpt>
   <trkpt lat="37.8055120" lon="127.5962660">
    <ele>209</ele>
   </trkpt>
   <trkpt lat="37.8059190" lon="127.5959230">
    <ele>196</ele>
   </trkpt>
   <trkpt lat="37.8061980" lon="127.5954620">
    <ele>183</ele>
   </trkpt>
   <trkpt lat="37.8063170" lon="127.5949470">
    <ele>173</ele>
   </trkpt>
   <trkpt lat="37.8065710" lon="127.5946030">
    <ele>173</ele>
   </trkpt>
   <trkpt lat="37.8067750" lon="127.5944960">
    <ele>175</ele>
   </trkpt>
   <trkpt lat="37.8071390" lon="127.5945280">
    <ele>170</ele>
   </trkpt>
   <trkpt lat="37.8075630" lon="127.5944320">
    <ele>171</ele>
   </trkpt>
   <trkpt lat="37.8084790" lon="127.5946140">
    <ele>169</ele>
   </trkpt>
   <trkpt lat="37.8096310" lon="127.5948070">
    <ele>156</ele>
   </trkpt>
   <trkpt lat="37.8099870" lon="127.5947530">
    <ele>146</ele>
   </trkpt>
   <trkpt lat="37.8103010" lon="127.5946140">
    <ele>146</ele>
   </trkpt>
   <trkpt lat="37.8106820" lon="127.5947110">
    <ele>140</ele>
   </trkpt>
   <trkpt lat="37.8109370" lon="127.5945390">
    <ele>139</ele>
   </trkpt>
   <trkpt lat="37.8110810" lon="127.5944740">
    <ele>138</ele>
   </trkpt>
   <trkpt lat="37.8112310" lon="127.5945120">
    <ele>138</ele>
   </trkpt>
   <trkpt lat="37.8113880" lon="127.5947050">
    <ele>138</ele>
   </trkpt>
   <trkpt lat="37.8116300" lon="127.5948530">
    <ele>136</ele>
   </trkpt>
   <trkpt lat="37.8118860" lon="127.5949280">
    <ele>135</ele>
   </trkpt>
   <trkpt lat="37.8119380" lon="127.5949310">
    <ele>135</ele>
   </trkpt>
   <trkpt lat="37.8121830" lon="127.5949440">
    <ele>128</ele>
   </trkpt>
   <trkpt lat="37.8126160" lon="127.5947040">
    <ele>125</ele>
   </trkpt>
   <trkpt lat="37.8126910" lon="127.5946620">
    <ele>119</ele>
   </trkpt>
   <trkpt lat="37.8132590" lon="127.5942330">
    <ele>117</ele>
   </trkpt>
   <trkpt lat="37.8137760" lon="127.5937450">
    <ele>118</ele>
   </trkpt>
   <trkpt lat="37.8139970" lon="127.5936000">
    <ele>114</ele>
   </trkpt>
   <trkpt lat="37.8141790" lon="127.5935040">
    <ele>116</ele>
   </trkpt>
   <trkpt lat="37.8145480" lon="127.5932160">
    <ele>111</ele>
   </trkpt>
   <trkpt lat="37.8146530" lon="127.5931280">
    <ele>108</ele>
   </trkpt>
   <trkpt lat="37.8149530" lon="127.5929330">
    <ele>110</ele>
   </trkpt>
   <trkpt lat="37.8153580" lon="127.5926700">
    <ele>115</ele>
   </trkpt>
   <trkpt lat="37.8162140" lon="127.5921140">
    <ele>103</ele>
   </trkpt>
   <trkpt lat="37.8162810" lon="127.5920710">
    <ele>103</ele>
   </trkpt>
   <trkpt lat="37.8163610" lon="127.5920390">
    <ele>103</ele>
   </trkpt>
   <trkpt lat="37.8168770" lon="127.5919320">
    <ele>106</ele>
   </trkpt>
   <trkpt lat="37.8170830" lon="127.5918900">
    <ele>108</ele>
   </trkpt>
   <trkpt lat="37.8171880" lon="127.5918670">
    <ele>109</ele>
   </trkpt>
   <trkpt lat="37.8173130" lon="127.5918070">
    <ele>110</ele>
   </trkpt>
   <trkpt lat="37.8174900" lon="127.5916940">
    <ele>104</ele>
   </trkpt>
   <trkpt lat="37.8175280" lon="127.5918370">
    <ele>111</ele>
   </trkpt>
   <trkpt lat="37.8175270" lon="127.5918370">
    <ele>111</ele>
   </trkpt>
   <trkpt lat="37.8175180" lon="127.5918360">
    <ele>111</ele>
   </trkpt>
   <trkpt lat="37.8174760" lon="127.5918850">
    <ele>110</ele>
   </trkpt>
   <trkpt lat="37.8174990" lon="127.5919860">
    <ele>117</ele>
   </trkpt>
   <trkpt lat="37.8175230" lon="127.5920870">
    <ele>119</ele>
   </trkpt>
   <trkpt lat="37.8175230" lon="127.5921760">
    <ele>126</ele>
   </trkpt>
   <trkpt lat="37.8175220" lon="127.5922650">
    <ele>126</ele>
   </trkpt>
   <trkpt lat="37.8175220" lon="127.5923540">
    <ele>133</ele>
   </trkpt>
   <trkpt lat="37.8174680" lon="127.5923510">
    <ele>133</ele>
   </trkpt>
   <trkpt lat="37.8173990" lon="127.5923000">
    <ele>133</ele>
   </trkpt>
   <trkpt lat="37.8173440" lon="127.5923030">
    <ele>131</ele>
   </trkpt>
   <trkpt lat="37.8173060" lon="127.5923810">
    <ele>131</ele>
   </trkpt>
   <trkpt lat="37.8172840" lon="127.5924260">
    <ele>131</ele>
   </trkpt>
   <trkpt lat="37.8172680" lon="127.5924590">
    <ele>131</ele>
   </trkpt>
   <trkpt lat="37.8172310" lon="127.5925370">
    <ele>135</ele>
   </trkpt>
   <trkpt lat="37.8171660" lon="127.5926170">
    <ele>135</ele>
   </trkpt>
   <trkpt lat="37.8171360" lon="127.5927040">
    <ele>139</ele>
   </trkpt>
   <trkpt lat="37.8171060" lon="127.5927910">
    <ele>139</ele>
   </trkpt>
   <trkpt lat="37.8170600" lon="127.5928300">
    <ele>145</ele>
   </trkpt>
   <trkpt lat="37.8170490" lon="127.5929450">
    <ele>145</ele>
   </trkpt>
   <trkpt lat="37.8170310" lon="127.5929490">
    <ele>145</ele>
   </trkpt>
   <trkpt lat="37.8170090" lon="127.5930630">
    <ele>151</ele>
   </trkpt>
   <trkpt lat="37.8169720" lon="127.5931410">
    <ele>151</ele>
   </trkpt>
   <trkpt lat="37.8169480" lon="127.5931910">
    <ele>159</ele>
   </trkpt>
   <trkpt lat="37.8169350" lon="127.5932180">
    <ele>159</ele>
   </trkpt>
   <trkpt lat="37.8168990" lon="127.5932960">
    <ele>159</ele>
   </trkpt>
   <trkpt lat="37.8168610" lon="127.5933230">
    <ele>159</ele>
   </trkpt>
   <trkpt lat="37.8168140" lon="127.5934240">
    <ele>167</ele>
   </trkpt>
   <trkpt lat="37.8167660" lon="127.5935240">
    <ele>174</ele>
   </trkpt>
   <trkpt lat="37.8167180" lon="127.5936250">
    <ele>174</ele>
   </trkpt>
   <trkpt lat="37.8166710" lon="127.5937260">
    <ele>179</ele>
   </trkpt>
   <trkpt lat="37.8166230" lon="127.5938270">
    <ele>179</ele>
   </trkpt>
   <trkpt lat="37.8165750" lon="127.5939280">
    <ele>184</ele>
   </trkpt>
   <trkpt lat="37.8165280" lon="127.5940290">
    <ele>190</ele>
   </trkpt>
   <trkpt lat="37.8164770" lon="127.5941060">
    <ele>190</ele>
   </trkpt>
   <trkpt lat="37.8164260" lon="127.5941840">
    <ele>193</ele>
   </trkpt>
   <trkpt lat="37.8163750" lon="127.5942610">
    <ele>199</ele>
   </trkpt>
   <trkpt lat="37.8163240" lon="127.5943380">
    <ele>199</ele>
   </trkpt>
   <trkpt lat="37.8162980" lon="127.5944320">
    <ele>204</ele>
   </trkpt>
   <trkpt lat="37.8162710" lon="127.5945260">
    <ele>207</ele>
   </trkpt>
   <trkpt lat="37.8162450" lon="127.5946200">
    <ele>210</ele>
   </trkpt>
   <trkpt lat="37.8161890" lon="127.5947110">
    <ele>213</ele>
   </trkpt>
   <trkpt lat="37.8161340" lon="127.5948030">
    <ele>209</ele>
   </trkpt>
   <trkpt lat="37.8161070" lon="127.5948450">
    <ele>209</ele>
   </trkpt>
   <trkpt lat="37.8161200" lon="127.5948680">
    <ele>209</ele>
   </trkpt>
   <trkpt lat="37.8160770" lon="127.5949900">
    <ele>210</ele>
   </trkpt>
   <trkpt lat="37.8160850" lon="127.5950880">
    <ele>210</ele>
   </trkpt>
   <trkpt lat="37.8160690" lon="127.5952170">
    <ele>212</ele>
   </trkpt>
   <trkpt lat="37.8160710" lon="127.5953190">
    <ele>212</ele>
   </trkpt>
   <trkpt lat="37.8160740" lon="127.5954220">
    <ele>214</ele>
   </trkpt>
   <trkpt lat="37.8160570" lon="127.5955610">
    <ele>220</ele>
   </trkpt>
   <trkpt lat="37.8160470" lon="127.5956530">
    <ele>220</ele>
   </trkpt>
   <trkpt lat="37.8160360" lon="127.5957460">
    <ele>226</ele>
   </trkpt>
   <trkpt lat="37.8160250" lon="127.5958390">
    <ele>226</ele>
   </trkpt>
   <trkpt lat="37.8160150" lon="127.5959320">
    <ele>232</ele>
   </trkpt>
   <trkpt lat="37.8160260" lon="127.5960380">
    <ele>234</ele>
   </trkpt>
   <trkpt lat="37.8160380" lon="127.5961450">
    <ele>240</ele>
   </trkpt>
   <trkpt lat="37.8160360" lon="127.5962830">
    <ele>246</ele>
   </trkpt>
   <trkpt lat="37.8160400" lon="127.5963770">
    <ele>246</ele>
   </trkpt>
   <trkpt lat="37.8160440" lon="127.5964710">
    <ele>252</ele>
   </trkpt>
   <trkpt lat="37.8160650" lon="127.5965820">
    <ele>252</ele>
   </trkpt>
   <trkpt lat="37.8160870" lon="127.5966930">
    <ele>259</ele>
   </trkpt>
   <trkpt lat="37.8161320" lon="127.5967780">
    <ele>266</ele>
   </trkpt>
   <trkpt lat="37.8161770" lon="127.5968630">
    <ele>269</ele>
   </trkpt>
   <trkpt lat="37.8162220" lon="127.5969480">
    <ele>273</ele>
   </trkpt>
   <trkpt lat="37.8161550" lon="127.5969660">
    <ele>270</ele>
   </trkpt>
   <trkpt lat="37.8158940" lon="127.5972190">
    <ele>268</ele>
   </trkpt>
   <trkpt lat="37.8157240" lon="127.5972980">
    <ele>262</ele>
   </trkpt>
   <trkpt lat="37.8153240" lon="127.5973740">
    <ele>262</ele>
   </trkpt>
   <trkpt lat="37.8148970" lon="127.5974180">
    <ele>263</ele>
   </trkpt>
   <trkpt lat="37.8147820" lon="127.5974700">
    <ele>263</ele>
   </trkpt>
   <trkpt lat="37.8147060" lon="127.5974670">
    <ele>263</ele>
   </trkpt>
   <trkpt lat="37.8145690" lon="127.5975350">
    <ele>262</ele>
   </trkpt>
   <trkpt lat="37.8144370" lon="127.5975710">
    <ele>263</ele>
   </trkpt>
   <trkpt lat="37.8139950" lon="127.5975860">
    <ele>264</ele>
   </trkpt>
   <trkpt lat="37.8138980" lon="127.5977260">
    <ele>268</ele>
   </trkpt>
   <trkpt lat="37.8138810" lon="127.5977560">
    <ele>268</ele>
   </trkpt>
   <trkpt lat="37.8137880" lon="127.5979250">
    <ele>271</ele>
   </trkpt>
   <trkpt lat="37.8136430" lon="127.5980790">
    <ele>271</ele>
   </trkpt>
   <trkpt lat="37.8136200" lon="127.5980620">
    <ele>271</ele>
   </trkpt>
   <trkpt lat="37.8135580" lon="127.5982140">
    <ele>271</ele>
   </trkpt>
   <trkpt lat="37.8133860" lon="127.5983540">
    <ele>269</ele>
   </trkpt>
   <trkpt lat="37.8130970" lon="127.5985540">
    <ele>268</ele>
   </trkpt>
   <trkpt lat="37.8129670" lon="127.5987350">
    <ele>269</ele>
   </trkpt>
   <trkpt lat="37.8127880" lon="127.5988060">
    <ele>270</ele>
   </trkpt>
   <trkpt lat="37.8126190" lon="127.5989340">
    <ele>270</ele>
   </trkpt>
   <trkpt lat="37.8124780" lon="127.5990060">
    <ele>271</ele>
   </trkpt>
   <trkpt lat="37.8123680" lon="127.5990460">
    <ele>271</ele>
   </trkpt>
   <trkpt lat="37.8123000" lon="127.5990310">
    <ele>272</ele>
   </trkpt>
   <trkpt lat="37.8120540" lon="127.5991340">
    <ele>271</ele>
   </trkpt>
   <trkpt lat="37.8117930" lon="127.5993330">
    <ele>270</ele>
   </trkpt>
   <trkpt lat="37.8117050" lon="127.5993800">
    <ele>271</ele>
   </trkpt>
   <trkpt lat="37.8115960" lon="127.5994070">
    <ele>274</ele>
   </trkpt>
   <trkpt lat="37.8110390" lon="127.5996460">
    <ele>294</ele>
   </trkpt>
   <trkpt lat="37.8109980" lon="127.5996930">
    <ele>303</ele>
   </trkpt>
   <trkpt lat="37.8107840" lon="127.5998020">
    <ele>304</ele>
   </trkpt>
   <trkpt lat="37.8106380" lon="127.6000600">
    <ele>317</ele>
   </trkpt>
   <trkpt lat="37.8105540" lon="127.6000740">
    <ele>319</ele>
   </trkpt>
   <trkpt lat="37.8105420" lon="127.6001780">
    <ele>319</ele>
   </trkpt>
   <trkpt lat="37.8103790" lon="127.6004250">
    <ele>329</ele>
   </trkpt>
   <trkpt lat="37.8103120" lon="127.6005080">
    <ele>332</ele>
   </trkpt>
   <trkpt lat="37.8102060" lon="127.6005970">
    <ele>334</ele>
   </trkpt>
   <trkpt lat="37.8101430" lon="127.6006260">
    <ele>336</ele>
   </trkpt>
   <trkpt lat="37.8101080" lon="127.6006180">
    <ele>336</ele>
   </trkpt>
   <trkpt lat="37.8100710" lon="127.6006490">
    <ele>336</ele>
   </trkpt>
   <trkpt lat="37.8098170" lon="127.6007060">
    <ele>339</ele>
   </trkpt>
   <trkpt lat="37.8097520" lon="127.6006900">
    <ele>339</ele>
   </trkpt>
   <trkpt lat="37.8094760" lon="127.6006240">
    <ele>341</ele>
   </trkpt>
   <trkpt lat="37.8093310" lon="127.6006150">
    <ele>343</ele>
   </trkpt>
   <trkpt lat="37.8089470" lon="127.6007100">
    <ele>349</ele>
   </trkpt>
   <trkpt lat="37.8086870" lon="127.6008640">
    <ele>351</ele>
   </trkpt>
   <trkpt lat="37.8085480" lon="127.6010680">
    <ele>360</ele>
   </trkpt>
   <trkpt lat="37.8084860" lon="127.6011140">
    <ele>360</ele>
   </trkpt>
   <trkpt lat="37.8084170" lon="127.6012000">
    <ele>361</ele>
   </trkpt>
   <trkpt lat="37.8082260" lon="127.6012740">
    <ele>366</ele>
   </trkpt>
   <trkpt lat="37.8081160" lon="127.6013670">
    <ele>368</ele>
   </trkpt>
   <trkpt lat="37.8080990" lon="127.6014030">
    <ele>371</ele>
   </trkpt>
   <trkpt lat="37.8079410" lon="127.6017300">
    <ele>378</ele>
   </trkpt>
   <trkpt lat="37.8078370" lon="127.6018810">
    <ele>387</ele>
   </trkpt>
   <trkpt lat="37.8076360" lon="127.6020850">
    <ele>401</ele>
   </trkpt>
   <trkpt lat="37.8075240" lon="127.6021990">
    <ele>407</ele>
   </trkpt>
   <trkpt lat="37.8074640" lon="127.6022320">
    <ele>415</ele>
   </trkpt>
   <trkpt lat="37.8073350" lon="127.6022500">
    <ele>424</ele>
   </trkpt>
   <trkpt lat="37.8073190" lon="127.6022790">
    <ele>426</ele>
   </trkpt>
   <trkpt lat="37.8070600" lon="127.6023740">
    <ele>442</ele>
   </trkpt>
   <trkpt lat="37.8069400" lon="127.6023860">
    <ele>442</ele>
   </trkpt>
   <trkpt lat="37.8068480" lon="127.6023580">
    <ele>444</ele>
   </trkpt>
   <trkpt lat="37.8068040" lon="127.6023970">
    <ele>444</ele>
   </trkpt>
   <trkpt lat="37.8067920" lon="127.6024560">
    <ele>451</ele>
   </trkpt>
   <trkpt lat="37.8067540" lon="127.6025010">
    <ele>451</ele>
   </trkpt>
   <trkpt lat="37.8066010" lon="127.6025240">
    <ele>452</ele>
   </trkpt>
   <trkpt lat="37.8065430" lon="127.6025590">
    <ele>452</ele>
   </trkpt>
   <trkpt lat="37.8064070" lon="127.6030360">
    <ele>478</ele>
   </trkpt>
   <trkpt lat="37.8062070" lon="127.6033480">
    <ele>489</ele>
   </trkpt>
   <trkpt lat="37.8060180" lon="127.6036050">
    <ele>492</ele>
   </trkpt>
   <trkpt lat="37.8059720" lon="127.6035690">
    <ele>488</ele>
   </trkpt>
   <trkpt lat="37.8059470" lon="127.6034870">
    <ele>488</ele>
   </trkpt>
   <trkpt lat="37.8059220" lon="127.6034040">
    <ele>481</ele>
   </trkpt>
   <trkpt lat="37.8058140" lon="127.6033770">
    <ele>476</ele>
   </trkpt>
   <trkpt lat="37.8057720" lon="127.6032610">
    <ele>468</ele>
   </trkpt>
   <trkpt lat="37.8057240" lon="127.6032530">
    <ele>468</ele>
   </trkpt>
   <trkpt lat="37.8056920" lon="127.6032080">
    <ele>462</ele>
   </trkpt>
   <trkpt lat="37.8056570" lon="127.6031200">
    <ele>462</ele>
   </trkpt>
   <trkpt lat="37.8056220" lon="127.6030320">
    <ele>454</ele>
   </trkpt>
   <trkpt lat="37.8055440" lon="127.6030250">
    <ele>448</ele>
   </trkpt>
   <trkpt lat="37.8054940" lon="127.6029370">
    <ele>441</ele>
   </trkpt>
   <trkpt lat="37.8054360" lon="127.6029210">
    <ele>437</ele>
   </trkpt>
   <trkpt lat="37.8053540" lon="127.6028350">
    <ele>437</ele>
   </trkpt>
   <trkpt lat="37.8052910" lon="127.6027880">
    <ele>433</ele>
   </trkpt>
   <trkpt lat="37.8052270" lon="127.6027420">
    <ele>430</ele>
   </trkpt>
   <trkpt lat="37.8051640" lon="127.6026950">
    <ele>428</ele>
   </trkpt>
   <trkpt lat="37.8051000" lon="127.6026490">
    <ele>428</ele>
   </trkpt>
   <trkpt lat="37.8050760" lon="127.6025940">
    <ele>426</ele>
   </trkpt>
   <trkpt lat="37.8050190" lon="127.6025710">
    <ele>424</ele>
   </trkpt>
   <trkpt lat="37.8049620" lon="127.6025480">
    <ele>424</ele>
   </trkpt>
   <trkpt lat="37.8049220" lon="127.6024940">
    <ele>424</ele>
   </trkpt>
   <trkpt lat="37.8048620" lon="127.6024110">
    <ele>420</ele>
   </trkpt>
   <trkpt lat="37.8048030" lon="127.6023280">
    <ele>420</ele>
   </trkpt>
   <trkpt lat="37.8047440" lon="127.6022440">
    <ele>417</ele>
   </trkpt>
   <trkpt lat="37.8046750" lon="127.6021910">
    <ele>417</ele>
   </trkpt>
   <trkpt lat="37.8046060" lon="127.6021380">
    <ele>413</ele>
   </trkpt>
   <trkpt lat="37.8045370" lon="127.6020850">
    <ele>413</ele>
   </trkpt>
   <trkpt lat="37.8044590" lon="127.6021140">
    <ele>408</ele>
   </trkpt>
   <trkpt lat="37.8044000" lon="127.6020980">
    <ele>408</ele>
   </trkpt>
   <trkpt lat="37.8043400" lon="127.6020820">
    <ele>404</ele>
   </trkpt>
   <trkpt lat="37.8042620" lon="127.6020170">
    <ele>405</ele>
   </trkpt>
   <trkpt lat="37.8041830" lon="127.6019530">
    <ele>402</ele>
   </trkpt>
   <trkpt lat="37.8041150" lon="127.6018750">
    <ele>402</ele>
   </trkpt>
   <trkpt lat="37.8040910" lon="127.6018170">
    <ele>402</ele>
   </trkpt>
   <trkpt lat="37.8040440" lon="127.6017730">
    <ele>398</ele>
   </trkpt>
   <trkpt lat="37.8040210" lon="127.6017520">
    <ele>398</ele>
   </trkpt>
   <trkpt lat="37.8039520" lon="127.6016880">
    <ele>394</ele>
   </trkpt>
   <trkpt lat="37.8038820" lon="127.6016230">
    <ele>390</ele>
   </trkpt>
   <trkpt lat="37.8038630" lon="127.6016320">
    <ele>390</ele>
   </trkpt>
   <trkpt lat="37.8037970" lon="127.6015680">
    <ele>383</ele>
   </trkpt>
   <trkpt lat="37.8037210" lon="127.6015430">
    <ele>379</ele>
   </trkpt>
   <trkpt lat="37.8036820" lon="127.6014890">
    <ele>379</ele>
   </trkpt>
   <trkpt lat="37.8036590" lon="127.6014800">
    <ele>374</ele>
   </trkpt>
   <trkpt lat="37.8036250" lon="127.6014660">
    <ele>374</ele>
   </trkpt>
   <trkpt lat="37.8035490" lon="127.6014300">
    <ele>374</ele>
   </trkpt>
   <trkpt lat="37.8037490" lon="127.6011690">
    <ele>369</ele>
   </trkpt>
   <trkpt lat="37.8039770" lon="127.6007400">
    <ele>355</ele>
   </trkpt>
   <trkpt lat="37.8040200" lon="127.6004930">
    <ele>341</ele>
   </trkpt>
   <trkpt lat="37.8039690" lon="127.6002250">
    <ele>334</ele>
   </trkpt>
   <trkpt lat="37.8041050" lon="127.6000640">
    <ele>329</ele>
   </trkpt>
   <trkpt lat="37.8039770" lon="127.5999250">
    <ele>319</ele>
   </trkpt>
   <trkpt lat="37.8037320" lon="127.5999140">
    <ele>321</ele>
   </trkpt>
   <trkpt lat="37.8035870" lon="127.5997960">
    <ele>323</ele>
   </trkpt>
   <trkpt lat="37.8037060" lon="127.5994100">
    <ele>308</ele>
   </trkpt>
   <trkpt lat="37.8039690" lon="127.5989590">
    <ele>287</ele>
   </trkpt>
   <trkpt lat="37.8044610" lon="127.5984660">
    <ele>266</ele>
   </trkpt>
   <trkpt lat="37.8047230" lon="127.5982190">
    <ele>247</ele>
   </trkpt>
   <trkpt lat="37.8049860" lon="127.5975210">
    <ele>235</ele>
   </trkpt>
   <trkpt lat="37.8051730" lon="127.5968880">
    <ele>214</ele>
   </trkpt>
   <trkpt lat="37.8055120" lon="127.5962660">
    <ele>209</ele>
   </trkpt>
   <trkpt lat="37.8059190" lon="127.5959230">
    <ele>196</ele>
   </trkpt>
   <trkpt lat="37.8061980" lon="127.5954620">
    <ele>183</ele>
   </trkpt>
   <trkpt lat="37.8063170" lon="127.5949470">
    <ele>173</ele>
   </trkpt>
   <trkpt lat="37.8065710" lon="127.5946030">
    <ele>173</ele>
   </trkpt>
   <trkpt lat="37.8067750" lon="127.5944960">
    <ele>175</ele>
   </trkpt>
   <trkpt lat="37.8071390" lon="127.5945280">
    <ele>170</ele>
   </trkpt>
   <trkpt lat="37.8075630" lon="127.5944320">
    <ele>171</ele>
   </trkpt>
   <trkpt lat="37.8084790" lon="127.5946140">
    <ele>169</ele>
   </trkpt>
   <trkpt lat="37.8096310" lon="127.5948070">
    <ele>156</ele>
   </trkpt>
   <trkpt lat="37.8099870" lon="127.5947530">
    <ele>146</ele>
   </trkpt>
   <trkpt lat="37.8103010" lon="127.5946140">
    <ele>146</ele>
   </trkpt>
   <trkpt lat="37.8106820" lon="127.5947110">
    <ele>140</ele>
   </trkpt>
   <trkpt lat="37.8109370" lon="127.5945390">
    <ele>139</ele>
   </trkpt>
   <trkpt lat="37.8110810" lon="127.5944740">
    <ele>138</ele>
   </trkpt>
   <trkpt lat="37.8112310" lon="127.5945120">
    <ele>138</ele>
   </trkpt>
   <trkpt lat="37.8113880" lon="127.5947050">
    <ele>138</ele>
   </trkpt>
   <trkpt lat="37.8116300" lon="127.5948530">
    <ele>136</ele>
   </trkpt>
   <trkpt lat="37.8118860" lon="127.5949280">
    <ele>135</ele>
   </trkpt>
   <trkpt lat="37.8121830" lon="127.5949440">
    <ele>128</ele>
   </trkpt>
   <trkpt lat="37.8126910" lon="127.5946620">
    <ele>119</ele>
   </trkpt>
   <trkpt lat="37.8132590" lon="127.5942330">
    <ele>117</ele>
   </trkpt>
   <trkpt lat="37.8137760" lon="127.5937450">
    <ele>118</ele>
   </trkpt>
   <trkpt lat="37.8139970" lon="127.5936000">
    <ele>114</ele>
   </trkpt>
   <trkpt lat="37.8141790" lon="127.5935040">
    <ele>116</ele>
   </trkpt>
   <trkpt lat="37.8145480" lon="127.5932160">
    <ele>111</ele>
   </trkpt>
   <trkpt lat="37.8146530" lon="127.5931280">
    <ele>108</ele>
   </trkpt>
   <trkpt lat="37.8160020" lon="127.5922520">
    <ele>107</ele>
   </trkpt>
   <trkpt lat="37.8161720" lon="127.5921410">
    <ele>109</ele>
   </trkpt>
   <trkpt lat="37.8162140" lon="127.5921140">
    <ele>103</ele>
   </trkpt>
   <trkpt lat="37.8160710" lon="127.5918670">
    <ele>100</ele>
   </trkpt>
   <trkpt lat="37.8160450" lon="127.5918010">
    <ele>100</ele>
   </trkpt>
   <trkpt lat="37.8160601" lon="127.5917907">
    <ele>100</ele>
   </trkpt>
   <trkpt lat="37.8163479" lon="127.5915951">
    <ele>101</ele>
   </trkpt>
   <trkpt lat="37.8163494" lon="127.5915872">
    <ele>101</ele>
   </trkpt>
   <trkpt lat="37.8163776" lon="127.5914373">
    <ele>105</ele>
   </trkpt>
   <trkpt lat="37.8163972" lon="127.5914245">
    <ele>105</ele>
   </trkpt>
   <trkpt lat="37.8167705" lon="127.5911810">
    <ele>106</ele>
   </trkpt>
   <trkpt lat="37.8167845" lon="127.5911714">
    <ele>106</ele>
   </trkpt>
   <trkpt lat="37.8170504" lon="127.5909881">
    <ele>109</ele>
   </trkpt>
   <trkpt lat="37.8170677" lon="127.5909709">
    <ele>109</ele>
   </trkpt>
   <trkpt lat="37.8173968" lon="127.5906436">
    <ele>108</ele>
   </trkpt>
   <trkpt lat="37.8174065" lon="127.5906330">
    <ele>108</ele>
   </trkpt>
   <trkpt lat="37.8175900" lon="127.5904322">
    <ele>108</ele>
   </trkpt>
   <trkpt lat="37.8177832" lon="127.5902209">
    <ele>112</ele>
   </trkpt>
   <trkpt lat="37.8177936" lon="127.5902113">
    <ele>111</ele>
   </trkpt>
   <trkpt lat="37.8179904" lon="127.5900287">
    <ele>113</ele>
   </trkpt>
   <trkpt lat="37.8179980" lon="127.5900265">
    <ele>113</ele>
   </trkpt>
   <trkpt lat="37.8181433" lon="127.5899856">
    <ele>112</ele>
   </trkpt>
   <trkpt lat="37.8181487" lon="127.5899824">
    <ele>112</ele>
   </trkpt>
   <trkpt lat="37.8182517" lon="127.5899223">
    <ele>108</ele>
   </trkpt>
   <trkpt lat="37.8182665" lon="127.5899197">
    <ele>108</ele>
   </trkpt>
   <trkpt lat="37.8185472" lon="127.5898702">
    <ele>107</ele>
   </trkpt>
   <trkpt lat="37.8188427" lon="127.5898181">
    <ele>101</ele>
   </trkpt>
   <trkpt lat="37.8188591" lon="127.5898134">
    <ele>101</ele>
   </trkpt>
   <trkpt lat="37.8191716" lon="127.5897247">
    <ele>95</ele>
   </trkpt>
   <trkpt lat="37.8195006" lon="127.5896313">
    <ele>93</ele>
   </trkpt>
   <trkpt lat="37.8195083" lon="127.5896293">
    <ele>93</ele>
   </trkpt>
   <trkpt lat="37.8196543" lon="127.5895904">
    <ele>91</ele>
   </trkpt>
   <trkpt lat="37.8196713" lon="127.5895909">
    <ele>91</ele>
   </trkpt>
   <trkpt lat="37.8199950" lon="127.5896014">
    <ele>88</ele>
   </trkpt>
   <trkpt lat="37.8203357" lon="127.5896123">
    <ele>86</ele>
   </trkpt>
  </trkseg>
 </trk>
</gpx>
