<?xml version="1.0" encoding="UTF-8"?>
<gpx version="1.1" creator="HTML GPX Creator" xmlns="http://www.topografix.com/GPX/1/1">
  <trk>
    <name>spindle_trail_12k</name>
    <trkseg>
      <trkpt lat="37.72375010711357" lon="128.71998310089114">
        <ele>796.2</ele>
      </trkpt>
      <trkpt lat="37.723745" lon="128.719995">
        <ele>799.9</ele>
      </trkpt>
      <trkpt lat="37.723794" lon="128.720017">
        <ele>804.1</ele>
      </trkpt>
      <trkpt lat="37.724352" lon="128.720326">
        <ele>808.3</ele>
      </trkpt>
      <trkpt lat="37.724478" lon="128.7205">
        <ele>812.4</ele>
      </trkpt>
      <trkpt lat="37.724494" lon="128.7206">
        <ele>816.2</ele>
      </trkpt>
      <trkpt lat="37.724544" lon="128.720823">
        <ele>819.9</ele>
      </trkpt>
      <trkpt lat="37.724542" lon="128.720868">
        <ele>823.4</ele>
      </trkpt>
      <trkpt lat="37.725133" lon="128.721102">
        <ele>826.6</ele>
      </trkpt>
      <trkpt lat="37.725516" lon="128.72119">
        <ele>829.8</ele>
      </trkpt>
      <trkpt lat="37.725598" lon="128.721173">
        <ele>832.7</ele>
      </trkpt>
      <trkpt lat="37.725600072820555" lon="128.7211847305298">
        <ele>835.5</ele>
      </trkpt>
      <trkpt lat="37.725598" lon="128.721173">
        <ele>838.3</ele>
      </trkpt>
      <trkpt lat="37.726" lon="128.72109">
        <ele>840.9</ele>
      </trkpt>
      <trkpt lat="37.726333" lon="128.720988">
        <ele>843.4</ele>
      </trkpt>
      <trkpt lat="37.726644" lon="128.7209">
        <ele>845.9</ele>
      </trkpt>
      <trkpt lat="37.726867" lon="128.72091">
        <ele>851.3</ele>
      </trkpt>
      <trkpt lat="37.727293" lon="128.720946">
        <ele>856.6</ele>
      </trkpt>
      <trkpt lat="37.727551" lon="128.720944">
        <ele>861.8</ele>
      </trkpt>
      <trkpt lat="37.727921" lon="128.720895">
        <ele>866.7</ele>
      </trkpt>
      <trkpt lat="37.728552" lon="128.721025">
        <ele>871.6</ele>
      </trkpt>
      <trkpt lat="37.729007" lon="128.721063">
        <ele>876.3</ele>
      </trkpt>
      <trkpt lat="37.729194" lon="128.721061">
        <ele>880.8</ele>
      </trkpt>
      <trkpt lat="37.729383" lon="128.721153">
        <ele>885.2</ele>
      </trkpt>
      <trkpt lat="37.729747" lon="128.721427">
        <ele>889.5</ele>
      </trkpt>
      <trkpt lat="37.729741112965506" lon="128.72144222259524">
        <ele>893.7</ele>
      </trkpt>
      <trkpt lat="37.729747" lon="128.721427">
        <ele>897.8</ele>
      </trkpt>
      <trkpt lat="37.729806" lon="128.721472">
        <ele>901.7</ele>
      </trkpt>
      <trkpt lat="37.729839" lon="128.721609">
        <ele>905.6</ele>
      </trkpt>
      <trkpt lat="37.729814" lon="128.721862">
        <ele>909.5</ele>
      </trkpt>
      <trkpt lat="37.729744" lon="128.721876">
        <ele>913.2</ele>
      </trkpt>
      <trkpt lat="37.729741112965506" lon="128.7218499183655">
        <ele>916.9</ele>
      </trkpt>
      <trkpt lat="37.729744" lon="128.721876">
        <ele>919.7</ele>
      </trkpt>
      <trkpt lat="37.729513" lon="128.721925">
        <ele>922.1</ele>
      </trkpt>
      <trkpt lat="37.728994" lon="128.721967">
        <ele>924.1</ele>
      </trkpt>
      <trkpt lat="37.728929" lon="128.72213">
        <ele>926.1</ele>
      </trkpt>
      <trkpt lat="37.72892650041246" lon="128.72212886810306">
        <ele>927.9</ele>
      </trkpt>
      <trkpt lat="37.728929" lon="128.72213">
        <ele>929.7</ele>
      </trkpt>
      <trkpt lat="37.728901" lon="128.722204">
        <ele>931.5</ele>
      </trkpt>
      <trkpt lat="37.728912" lon="128.722387">
        <ele>933.2</ele>
      </trkpt>
      <trkpt lat="37.729066" lon="128.722853">
        <ele>934.9</ele>
      </trkpt>
      <trkpt lat="37.72911" lon="128.723437">
        <ele>936.6</ele>
      </trkpt>
      <trkpt lat="37.729269" lon="128.72394">
        <ele>938.2</ele>
      </trkpt>
      <trkpt lat="37.72957" lon="128.724382">
        <ele>939.8</ele>
      </trkpt>
      <trkpt lat="37.729985" lon="128.724628">
        <ele>941.3</ele>
      </trkpt>
      <trkpt lat="37.730437" lon="128.724705">
        <ele>942.8</ele>
      </trkpt>
      <trkpt lat="37.730892" lon="128.724772">
        <ele>944.2</ele>
      </trkpt>
      <trkpt lat="37.73115" lon="128.724827">
        <ele>945.5</ele>
      </trkpt>
      <trkpt lat="37.731317" lon="128.724907">
        <ele>946.8</ele>
      </trkpt>
      <trkpt lat="37.73130242864486" lon="128.72496128082278">
        <ele>948.0</ele>
      </trkpt>
      <trkpt lat="37.731317" lon="128.724907">
        <ele>949.2</ele>
      </trkpt>
      <trkpt lat="37.731373" lon="128.724934">
        <ele>950.4</ele>
      </trkpt>
      <trkpt lat="37.731485" lon="128.725074">
        <ele>951.5</ele>
      </trkpt>
      <trkpt lat="37.731595" lon="128.725408">
        <ele>952.6</ele>
      </trkpt>
      <trkpt lat="37.731706" lon="128.726077">
        <ele>953.7</ele>
      </trkpt>
      <trkpt lat="37.731735" lon="128.726308">
        <ele>954.8</ele>
      </trkpt>
      <trkpt lat="37.731838" lon="128.726547">
        <ele>955.9</ele>
      </trkpt>
      <trkpt lat="37.731935" lon="128.726699">
        <ele>957.0</ele>
      </trkpt>
      <trkpt lat="37.732177" lon="128.72693">
        <ele>958.0</ele>
      </trkpt>
      <trkpt lat="37.732363" lon="128.726892">
        <ele>959.0</ele>
      </trkpt>
      <trkpt lat="37.732603" lon="128.726802">
        <ele>960.1</ele>
      </trkpt>
      <trkpt lat="37.732993" lon="128.726513">
        <ele>961.0</ele>
      </trkpt>
      <trkpt lat="37.733121" lon="128.726445">
        <ele>962.0</ele>
      </trkpt>
      <trkpt lat="37.73313523548048" lon="128.72648477554324">
        <ele>962.9</ele>
      </trkpt>
      <trkpt lat="37.733121" lon="128.726445">
        <ele>963.8</ele>
      </trkpt>
      <trkpt lat="37.733148" lon="128.726431">
        <ele>964.7</ele>
      </trkpt>
      <trkpt lat="37.733416" lon="128.726574">
        <ele>965.5</ele>
      </trkpt>
      <trkpt lat="37.73391" lon="128.726783">
        <ele>966.3</ele>
      </trkpt>
      <trkpt lat="37.73435" lon="128.726895">
        <ele>967.0</ele>
      </trkpt>
      <trkpt lat="37.734527" lon="128.726887">
        <ele>967.7</ele>
      </trkpt>
      <trkpt lat="37.73465" lon="128.726823">
        <ele>968.3</ele>
      </trkpt>
      <trkpt lat="37.734755" lon="128.726742">
        <ele>968.9</ele>
      </trkpt>
      <trkpt lat="37.734798" lon="128.726678">
        <ele>969.5</ele>
      </trkpt>
      <trkpt lat="37.73479829871941" lon="128.7266778945923">
        <ele>970.0</ele>
      </trkpt>
      <trkpt lat="37.734798" lon="128.726678">
        <ele>970.5</ele>
      </trkpt>
      <trkpt lat="37.734858" lon="128.726592">
        <ele>971.0</ele>
      </trkpt>
      <trkpt lat="37.734893" lon="128.726293">
        <ele>971.4</ele>
      </trkpt>
      <trkpt lat="37.734828" lon="128.726002">
        <ele>971.8</ele>
      </trkpt>
      <trkpt lat="37.734793" lon="128.725734">
        <ele>972.2</ele>
      </trkpt>
      <trkpt lat="37.734791" lon="128.725515">
        <ele>972.5</ele>
      </trkpt>
      <trkpt lat="37.73493" lon="128.725133">
        <ele>972.9</ele>
      </trkpt>
      <trkpt lat="37.73512" lon="128.724848">
        <ele>973.2</ele>
      </trkpt>
      <trkpt lat="37.735461" lon="128.724779">
        <ele>973.5</ele>
      </trkpt>
      <trkpt lat="37.735993" lon="128.724889">
        <ele>973.7</ele>
      </trkpt>
      <trkpt lat="37.736172" lon="128.725023">
        <ele>973.9</ele>
      </trkpt>
      <trkpt lat="37.736168" lon="128.725073">
        <ele>974.0</ele>
      </trkpt>
      <trkpt lat="37.73612193459979" lon="128.72506856918338">
        <ele>974.1</ele>
      </trkpt>
      <trkpt lat="37.736168" lon="128.725073">
        <ele>974.2</ele>
      </trkpt>
      <trkpt lat="37.736158" lon="128.725255">
        <ele>974.3</ele>
      </trkpt>
      <trkpt lat="37.736038" lon="128.725762">
        <ele>974.3</ele>
      </trkpt>
      <trkpt lat="37.735997" lon="128.725963">
        <ele>974.3</ele>
      </trkpt>
      <trkpt lat="37.736" lon="128.726028">
        <ele>974.2</ele>
      </trkpt>
      <trkpt lat="37.736121" lon="128.726164">
        <ele>974.2</ele>
      </trkpt>
      <trkpt lat="37.736224" lon="128.726299">
        <ele>974.1</ele>
      </trkpt>
      <trkpt lat="37.736284" lon="128.726439">
        <ele>974.1</ele>
      </trkpt>
      <trkpt lat="37.736275" lon="128.72661">
        <ele>974.0</ele>
      </trkpt>
      <trkpt lat="37.736234" lon="128.726792">
        <ele>973.9</ele>
      </trkpt>
      <trkpt lat="37.736219" lon="128.726896">
        <ele>973.7</ele>
      </trkpt>
      <trkpt lat="37.736224" lon="128.726996">
        <ele>973.6</ele>
      </trkpt>
      <trkpt lat="37.736263" lon="128.727289">
        <ele>973.4</ele>
      </trkpt>
      <trkpt lat="37.736255" lon="128.727399">
        <ele>973.2</ele>
      </trkpt>
      <trkpt lat="37.736233" lon="128.727513">
        <ele>973.0</ele>
      </trkpt>
      <trkpt lat="37.736172" lon="128.727728">
        <ele>972.8</ele>
      </trkpt>
      <trkpt lat="37.736153" lon="128.727878">
        <ele>972.5</ele>
      </trkpt>
      <trkpt lat="37.736191" lon="128.727996">
        <ele>972.2</ele>
      </trkpt>
      <trkpt lat="37.736263" lon="128.728122">
        <ele>972.0</ele>
      </trkpt>
      <trkpt lat="37.736312" lon="128.728191">
        <ele>971.6</ele>
      </trkpt>
      <trkpt lat="37.736408" lon="128.728209">
        <ele>971.3</ele>
      </trkpt>
      <trkpt lat="37.736475" lon="128.728126">
        <ele>971.0</ele>
      </trkpt>
      <trkpt lat="37.73655" lon="128.728121">
        <ele>970.6</ele>
      </trkpt>
      <trkpt lat="37.736612" lon="128.728145">
        <ele>970.3</ele>
      </trkpt>
      <trkpt lat="37.736717" lon="128.728258">
        <ele>969.9</ele>
      </trkpt>
      <trkpt lat="37.736811" lon="128.728287">
        <ele>969.5</ele>
      </trkpt>
      <trkpt lat="37.736889" lon="128.728242">
        <ele>969.1</ele>
      </trkpt>
      <trkpt lat="37.737051" lon="128.728028">
        <ele>968.7</ele>
      </trkpt>
      <trkpt lat="37.737133" lon="128.727932">
        <ele>968.3</ele>
      </trkpt>
      <trkpt lat="37.737448" lon="128.72788">
        <ele>967.9</ele>
      </trkpt>
      <trkpt lat="37.737535" lon="128.727845">
        <ele>967.5</ele>
      </trkpt>
      <trkpt lat="37.737676" lon="128.7277">
        <ele>967.1</ele>
      </trkpt>
      <trkpt lat="37.737739" lon="128.727693">
        <ele>966.7</ele>
      </trkpt>
      <trkpt lat="37.737797" lon="128.727731">
        <ele>966.3</ele>
      </trkpt>
      <trkpt lat="37.737815" lon="128.727792">
        <ele>965.8</ele>
      </trkpt>
      <trkpt lat="37.737814" lon="128.727881">
        <ele>965.3</ele>
      </trkpt>
      <trkpt lat="37.737809" lon="128.727907">
        <ele>964.9</ele>
      </trkpt>
      <trkpt lat="37.737784930752085" lon="128.7279009819031">
        <ele>964.4</ele>
      </trkpt>
      <trkpt lat="37.737809" lon="128.727907">
        <ele>963.9</ele>
      </trkpt>
      <trkpt lat="37.737792" lon="128.728015">
        <ele>963.3</ele>
      </trkpt>
      <trkpt lat="37.737767" lon="128.72812">
        <ele>962.8</ele>
      </trkpt>
      <trkpt lat="37.737622" lon="128.728519">
        <ele>962.3</ele>
      </trkpt>
      <trkpt lat="37.737665" lon="128.728683">
        <ele>961.8</ele>
      </trkpt>
      <trkpt lat="37.73778" lon="128.728828">
        <ele>961.4</ele>
      </trkpt>
      <trkpt lat="37.738116" lon="128.729198">
        <ele>961.0</ele>
      </trkpt>
      <trkpt lat="37.738277" lon="128.729475">
        <ele>960.6</ele>
      </trkpt>
      <trkpt lat="37.738522" lon="128.729742">
        <ele>960.3</ele>
      </trkpt>
      <trkpt lat="37.738865" lon="128.729994">
        <ele>960.0</ele>
      </trkpt>
      <trkpt lat="37.738913" lon="128.730081">
        <ele>959.8</ele>
      </trkpt>
      <trkpt lat="37.738904886702066" lon="128.73008966445926">
        <ele>959.6</ele>
      </trkpt>
      <trkpt lat="37.738913" lon="128.730081">
        <ele>959.5</ele>
      </trkpt>
      <trkpt lat="37.738925" lon="128.730103">
        <ele>959.5</ele>
      </trkpt>
      <trkpt lat="37.738926" lon="128.730192">
        <ele>959.5</ele>
      </trkpt>
      <trkpt lat="37.738907" lon="128.730241">
        <ele>959.5</ele>
      </trkpt>
      <trkpt lat="37.738701" lon="128.730456">
        <ele>959.7</ele>
      </trkpt>
      <trkpt lat="37.738588" lon="128.73064">
        <ele>959.9</ele>
      </trkpt>
      <trkpt lat="37.738581" lon="128.730759">
        <ele>960.2</ele>
      </trkpt>
      <trkpt lat="37.7386" lon="128.730885">
        <ele>960.6</ele>
      </trkpt>
      <trkpt lat="37.738651" lon="128.731118">
        <ele>961.1</ele>
      </trkpt>
      <trkpt lat="37.738849" lon="128.731539">
        <ele>961.6</ele>
      </trkpt>
      <trkpt lat="37.738871" lon="128.73168">
        <ele>962.3</ele>
      </trkpt>
      <trkpt lat="37.738789" lon="128.73179">
        <ele>962.9</ele>
      </trkpt>
      <trkpt lat="37.738803073224936" lon="128.7318062782288">
        <ele>963.7</ele>
      </trkpt>
      <trkpt lat="37.738789" lon="128.73179">
        <ele>964.5</ele>
      </trkpt>
      <trkpt lat="37.738783" lon="128.7318">
        <ele>965.3</ele>
      </trkpt>
      <trkpt lat="37.738355" lon="128.731924">
        <ele>966.3</ele>
      </trkpt>
      <trkpt lat="37.738203" lon="128.731888">
        <ele>967.3</ele>
      </trkpt>
      <trkpt lat="37.738073" lon="128.731903">
        <ele>968.3</ele>
      </trkpt>
      <trkpt lat="37.737953" lon="128.731983">
        <ele>969.4</ele>
      </trkpt>
      <trkpt lat="37.737881" lon="128.732099">
        <ele>970.6</ele>
      </trkpt>
      <trkpt lat="37.737862" lon="128.732172">
        <ele>971.8</ele>
      </trkpt>
      <trkpt lat="37.737875" lon="128.732746">
        <ele>973.1</ele>
      </trkpt>
      <trkpt lat="37.737871" lon="128.733201">
        <ele>974.4</ele>
      </trkpt>
      <trkpt lat="37.7378358382083" lon="128.73320102691653">
        <ele>975.7</ele>
      </trkpt>
      <trkpt lat="37.737871" lon="128.733201">
        <ele>977.0</ele>
      </trkpt>
      <trkpt lat="37.737871" lon="128.733228">
        <ele>978.4</ele>
      </trkpt>
      <trkpt lat="37.737853" lon="128.733279">
        <ele>979.7</ele>
      </trkpt>
      <trkpt lat="37.737719" lon="128.73329">
        <ele>981.0</ele>
      </trkpt>
      <trkpt lat="37.737496" lon="128.733192">
        <ele>982.4</ele>
      </trkpt>
      <trkpt lat="37.737446" lon="128.733212">
        <ele>983.7</ele>
      </trkpt>
      <trkpt lat="37.737399" lon="128.733287">
        <ele>985.0</ele>
      </trkpt>
      <trkpt lat="37.737324" lon="128.733444">
        <ele>986.2</ele>
      </trkpt>
      <trkpt lat="37.737331" lon="128.73365">
        <ele>987.5</ele>
      </trkpt>
      <trkpt lat="37.737396" lon="128.734007">
        <ele>988.7</ele>
      </trkpt>
      <trkpt lat="37.737416" lon="128.734188">
        <ele>989.9</ele>
      </trkpt>
      <trkpt lat="37.737388" lon="128.734597">
        <ele>991.0</ele>
      </trkpt>
      <trkpt lat="37.737309" lon="128.7349">
        <ele>992.1</ele>
      </trkpt>
      <trkpt lat="37.737286" lon="128.734969">
        <ele>993.1</ele>
      </trkpt>
      <trkpt lat="37.737309792806094" lon="128.73498201370242">
        <ele>994.1</ele>
      </trkpt>
      <trkpt lat="37.737286" lon="128.734969">
        <ele>995.0</ele>
      </trkpt>
      <trkpt lat="37.737258" lon="128.735057">
        <ele>995.8</ele>
      </trkpt>
      <trkpt lat="37.737047" lon="128.735223">
        <ele>996.5</ele>
      </trkpt>
      <trkpt lat="37.736907" lon="128.735407">
        <ele>997.2</ele>
      </trkpt>
      <trkpt lat="37.736859" lon="128.735619">
        <ele>997.9</ele>
      </trkpt>
      <trkpt lat="37.736813" lon="128.735885">
        <ele>998.4</ele>
      </trkpt>
      <trkpt lat="37.736623" lon="128.736231">
        <ele>998.9</ele>
      </trkpt>
      <trkpt lat="37.736568" lon="128.736353">
        <ele>999.4</ele>
      </trkpt>
      <trkpt lat="37.736564" lon="128.736491">
        <ele>999.8</ele>
      </trkpt>
      <trkpt lat="37.73658" lon="128.736597">
        <ele>1000.2</ele>
      </trkpt>
      <trkpt lat="37.736626" lon="128.736707">
        <ele>1000.6</ele>
      </trkpt>
      <trkpt lat="37.736727" lon="128.736888">
        <ele>1000.9</ele>
      </trkpt>
      <trkpt lat="37.736749" lon="128.736945">
        <ele>1001.1</ele>
      </trkpt>
      <trkpt lat="37.73673283548629" lon="128.73695611953738">
        <ele>1001.3</ele>
      </trkpt>
      <trkpt lat="37.736749" lon="128.736945">
        <ele>1001.4</ele>
      </trkpt>
      <trkpt lat="37.736753" lon="128.736956">
        <ele>1001.6</ele>
      </trkpt>
      <trkpt lat="37.736762" lon="128.737156">
        <ele>1001.7</ele>
      </trkpt>
      <trkpt lat="37.736721" lon="128.73734">
        <ele>1001.7</ele>
      </trkpt>
      <trkpt lat="37.736692" lon="128.737412">
        <ele>1001.8</ele>
      </trkpt>
      <trkpt lat="37.736595" lon="128.737483">
        <ele>1001.8</ele>
      </trkpt>
      <trkpt lat="37.736337" lon="128.73773">
        <ele>1001.8</ele>
      </trkpt>
      <trkpt lat="37.736202" lon="128.737959">
        <ele>1001.8</ele>
      </trkpt>
      <trkpt lat="37.736163" lon="128.738079">
        <ele>1001.8</ele>
      </trkpt>
      <trkpt lat="37.736144" lon="128.738241">
        <ele>1001.7</ele>
      </trkpt>
      <trkpt lat="37.736086" lon="128.738422">
        <ele>1001.7</ele>
      </trkpt>
      <trkpt lat="37.736114" lon="128.738564">
        <ele>1001.6</ele>
      </trkpt>
      <trkpt lat="37.736175" lon="128.738686">
        <ele>1001.6</ele>
      </trkpt>
      <trkpt lat="37.736198" lon="128.738779">
        <ele>1001.5</ele>
      </trkpt>
      <trkpt lat="37.736185" lon="128.738854">
        <ele>1001.4</ele>
      </trkpt>
      <trkpt lat="37.736145" lon="128.738901">
        <ele>1001.3</ele>
      </trkpt>
      <trkpt lat="37.736039" lon="128.738945">
        <ele>1001.1</ele>
      </trkpt>
      <trkpt lat="37.735829" lon="128.738966">
        <ele>1001.0</ele>
      </trkpt>
      <trkpt lat="37.735771" lon="128.738981">
        <ele>1000.9</ele>
      </trkpt>
      <trkpt lat="37.735622" lon="128.739113">
        <ele>1000.9</ele>
      </trkpt>
      <trkpt lat="37.735532" lon="128.739268">
        <ele>1000.8</ele>
      </trkpt>
      <trkpt lat="37.735435" lon="128.739599">
        <ele>1000.8</ele>
      </trkpt>
      <trkpt lat="37.735032" lon="128.739834">
        <ele>1000.8</ele>
      </trkpt>
      <trkpt lat="37.734796" lon="128.740121">
        <ele>1000.8</ele>
      </trkpt>
      <trkpt lat="37.734732" lon="128.740163">
        <ele>1000.8</ele>
      </trkpt>
      <trkpt lat="37.734673" lon="128.740177">
        <ele>1000.8</ele>
      </trkpt>
      <trkpt lat="37.734563" lon="128.740116">
        <ele>1000.8</ele>
      </trkpt>
      <trkpt lat="37.73444" lon="128.740068">
        <ele>1000.9</ele>
      </trkpt>
      <trkpt lat="37.734389" lon="128.740102">
        <ele>1001.0</ele>
      </trkpt>
      <trkpt lat="37.734334" lon="128.740167">
        <ele>1001.1</ele>
      </trkpt>
      <trkpt lat="37.734349" lon="128.740265">
        <ele>1001.2</ele>
      </trkpt>
      <trkpt lat="37.734355" lon="128.740399">
        <ele>1001.4</ele>
      </trkpt>
      <trkpt lat="37.73427" lon="128.740513">
        <ele>1001.6</ele>
      </trkpt>
      <trkpt lat="37.734217" lon="128.740533">
        <ele>1001.8</ele>
      </trkpt>
      <trkpt lat="37.73417" lon="128.740533">
        <ele>1002.0</ele>
      </trkpt>
      <trkpt lat="37.73417041188585" lon="128.74053955078128">
        <ele>1002.3</ele>
      </trkpt>
      <trkpt lat="37.73417" lon="128.740533">
        <ele>1002.5</ele>
      </trkpt>
      <trkpt lat="37.734004" lon="128.740533">
        <ele>1002.8</ele>
      </trkpt>
      <trkpt lat="37.733932" lon="128.740511">
        <ele>1003.1</ele>
      </trkpt>
      <trkpt lat="37.733802" lon="128.740255">
        <ele>1003.4</ele>
      </trkpt>
      <trkpt lat="37.73348" lon="128.739484">
        <ele>1003.8</ele>
      </trkpt>
      <trkpt lat="37.733389" lon="128.739392">
        <ele>1004.1</ele>
      </trkpt>
      <trkpt lat="37.733297" lon="128.739369">
        <ele>1004.5</ele>
      </trkpt>
      <trkpt lat="37.733151" lon="128.739431">
        <ele>1005.0</ele>
      </trkpt>
      <trkpt lat="37.733077" lon="128.739491">
        <ele>1005.5</ele>
      </trkpt>
      <trkpt lat="37.73303" lon="128.739553">
        <ele>1006.1</ele>
      </trkpt>
      <trkpt lat="37.733011" lon="128.739774">
        <ele>1006.7</ele>
      </trkpt>
      <trkpt lat="37.733031" lon="128.740021">
        <ele>1007.4</ele>
      </trkpt>
      <trkpt lat="37.73301644381975" lon="128.74002456665042">
        <ele>1008.2</ele>
      </trkpt>
      <trkpt lat="37.733031" lon="128.740021">
        <ele>1009.0</ele>
      </trkpt>
      <trkpt lat="37.733047" lon="128.740212">
        <ele>1009.8</ele>
      </trkpt>
      <trkpt lat="37.733055" lon="128.740399">
        <ele>1010.7</ele>
      </trkpt>
      <trkpt lat="37.73303" lon="128.740514">
        <ele>1011.6</ele>
      </trkpt>
      <trkpt lat="37.732999" lon="128.740619">
        <ele>1012.6</ele>
      </trkpt>
      <trkpt lat="37.732979" lon="128.740741">
        <ele>1013.6</ele>
      </trkpt>
      <trkpt lat="37.732994" lon="128.741192">
        <ele>1014.6</ele>
      </trkpt>
      <trkpt lat="37.732991" lon="128.74146">
        <ele>1015.7</ele>
      </trkpt>
      <trkpt lat="37.733005" lon="128.741693">
        <ele>1016.8</ele>
      </trkpt>
      <trkpt lat="37.733026" lon="128.741802">
        <ele>1018.0</ele>
      </trkpt>
      <trkpt lat="37.733054" lon="128.741851">
        <ele>1019.1</ele>
      </trkpt>
      <trkpt lat="37.733291" lon="128.741989">
        <ele>1020.3</ele>
      </trkpt>
      <trkpt lat="37.733578" lon="128.742175">
        <ele>1021.4</ele>
      </trkpt>
      <trkpt lat="37.733636" lon="128.742237">
        <ele>1022.6</ele>
      </trkpt>
      <trkpt lat="37.733661" lon="128.74231">
        <ele>1023.8</ele>
      </trkpt>
      <trkpt lat="37.733662" lon="128.742333">
        <ele>1025.0</ele>
      </trkpt>
      <trkpt lat="37.733576459980355" lon="128.7423419952393">
        <ele>1026.2</ele>
      </trkpt>
      <trkpt lat="37.733662" lon="128.742333">
        <ele>1027.4</ele>
      </trkpt>
      <trkpt lat="37.733667" lon="128.742426">
        <ele>1028.7</ele>
      </trkpt>
      <trkpt lat="37.733626" lon="128.742767">
        <ele>1030.0</ele>
      </trkpt>
      <trkpt lat="37.733659" lon="128.742901">
        <ele>1031.3</ele>
      </trkpt>
      <trkpt lat="37.733697" lon="128.742979">
        <ele>1032.7</ele>
      </trkpt>
      <trkpt lat="37.733768" lon="128.743054">
        <ele>1034.2</ele>
      </trkpt>
      <trkpt lat="37.733917" lon="128.743116">
        <ele>1035.6</ele>
      </trkpt>
      <trkpt lat="37.734544" lon="128.743487">
        <ele>1037.2</ele>
      </trkpt>
      <trkpt lat="37.734542" lon="128.743435">
        <ele>1038.7</ele>
      </trkpt>
      <trkpt lat="37.73454375064487" lon="128.74343633651736">
        <ele>1040.3</ele>
      </trkpt>
      <trkpt lat="37.734542" lon="128.743435">
        <ele>1041.9</ele>
      </trkpt>
      <trkpt lat="37.734541" lon="128.743397">
        <ele>1043.5</ele>
      </trkpt>
      <trkpt lat="37.734601" lon="128.743164">
        <ele>1045.1</ele>
      </trkpt>
      <trkpt lat="37.734713" lon="128.74298">
        <ele>1046.8</ele>
      </trkpt>
      <trkpt lat="37.735623" lon="128.742563">
        <ele>1048.5</ele>
      </trkpt>
      <trkpt lat="37.736032" lon="128.742555">
        <ele>1050.3</ele>
      </trkpt>
      <trkpt lat="37.736236" lon="128.742713">
        <ele>1052.0</ele>
      </trkpt>
      <trkpt lat="37.736434" lon="128.743039">
        <ele>1053.8</ele>
      </trkpt>
      <trkpt lat="37.736502" lon="128.743078">
        <ele>1055.6</ele>
      </trkpt>
      <trkpt lat="37.736541" lon="128.743107">
        <ele>1057.4</ele>
      </trkpt>
      <trkpt lat="37.73652920241756" lon="128.7431359291077">
        <ele>1059.3</ele>
      </trkpt>
      <trkpt lat="37.736541" lon="128.743107">
        <ele>1061.1</ele>
      </trkpt>
      <trkpt lat="37.736576" lon="128.743133">
        <ele>1063.0</ele>
      </trkpt>
      <trkpt lat="37.737114" lon="128.743039">
        <ele>1064.9</ele>
      </trkpt>
      <trkpt lat="37.73738" lon="128.743085">
        <ele>1066.9</ele>
      </trkpt>
      <trkpt lat="37.737648" lon="128.743064">
        <ele>1068.8</ele>
      </trkpt>
      <trkpt lat="37.737763" lon="128.743011">
        <ele>1070.8</ele>
      </trkpt>
      <trkpt lat="37.737978" lon="128.74287">
        <ele>1072.9</ele>
      </trkpt>
      <trkpt lat="37.738249" lon="128.742788">
        <ele>1074.9</ele>
      </trkpt>
      <trkpt lat="37.738737" lon="128.742838">
        <ele>1077.0</ele>
      </trkpt>
      <trkpt lat="37.739033" lon="128.742813">
        <ele>1079.1</ele>
      </trkpt>
      <trkpt lat="37.739357" lon="128.74273">
        <ele>1081.1</ele>
      </trkpt>
      <trkpt lat="37.739851" lon="128.742847">
        <ele>1083.2</ele>
      </trkpt>
      <trkpt lat="37.740038" lon="128.742774">
        <ele>1085.2</ele>
      </trkpt>
      <trkpt lat="37.740247" lon="128.74273">
        <ele>1087.2</ele>
      </trkpt>
      <trkpt lat="37.740656" lon="128.742711">
        <ele>1089.1</ele>
      </trkpt>
      <trkpt lat="37.740988" lon="128.742546">
        <ele>1090.9</ele>
      </trkpt>
      <trkpt lat="37.741289" lon="128.742449">
        <ele>1092.7</ele>
      </trkpt>
      <trkpt lat="37.741539" lon="128.742514">
        <ele>1094.4</ele>
      </trkpt>
      <trkpt lat="37.741575" lon="128.742436">
        <ele>1096.0</ele>
      </trkpt>
      <trkpt lat="37.741535019661306" lon="128.74240636825564">
        <ele>1097.4</ele>
      </trkpt>
      <trkpt lat="37.741575" lon="128.742436">
        <ele>1098.8</ele>
      </trkpt>
      <trkpt lat="37.741619" lon="128.742346">
        <ele>1100.2</ele>
      </trkpt>
      <trkpt lat="37.741607" lon="128.741668">
        <ele>1101.4</ele>
      </trkpt>
      <trkpt lat="37.74151" lon="128.741104">
        <ele>1102.5</ele>
      </trkpt>
      <trkpt lat="37.741534" lon="128.740612">
        <ele>1103.5</ele>
      </trkpt>
      <trkpt lat="37.741317" lon="128.7397">
        <ele>1104.4</ele>
      </trkpt>
      <trkpt lat="37.741326" lon="128.739616">
        <ele>1105.2</ele>
      </trkpt>
      <trkpt lat="37.74133139980182" lon="128.73961687088016">
        <ele>1106.0</ele>
      </trkpt>
      <trkpt lat="37.741326" lon="128.739616">
        <ele>1106.6</ele>
      </trkpt>
      <trkpt lat="37.74139" lon="128.739071">
        <ele>1107.1</ele>
      </trkpt>
      <trkpt lat="37.741744" lon="128.73853">
        <ele>1107.5</ele>
      </trkpt>
      <trkpt lat="37.742149" lon="128.738192">
        <ele>1107.8</ele>
      </trkpt>
      <trkpt lat="37.742391" lon="128.73763">
        <ele>1108.0</ele>
      </trkpt>
      <trkpt lat="37.742747" lon="128.737339">
        <ele>1108.2</ele>
      </trkpt>
      <trkpt lat="37.743263" lon="128.736391">
        <ele>1108.2</ele>
      </trkpt>
      <trkpt lat="37.743592" lon="128.736028">
        <ele>1108.2</ele>
      </trkpt>
      <trkpt lat="37.744058" lon="128.735712">
        <ele>1108.1</ele>
      </trkpt>
      <trkpt lat="37.744407" lon="128.735331">
        <ele>1108.0</ele>
      </trkpt>
      <trkpt lat="37.744752" lon="128.734906">
        <ele>1107.7</ele>
      </trkpt>
      <trkpt lat="37.744791" lon="128.734674">
        <ele>1107.4</ele>
      </trkpt>
      <trkpt lat="37.744801" lon="128.734486">
        <ele>1107.0</ele>
      </trkpt>
      <trkpt lat="37.744826" lon="128.73438">
        <ele>1106.7</ele>
      </trkpt>
      <trkpt lat="37.74482679633051" lon="128.73438119888309">
        <ele>1106.2</ele>
      </trkpt>
      <trkpt lat="37.744826" lon="128.73438">
        <ele>1105.8</ele>
      </trkpt>
      <trkpt lat="37.744832" lon="128.734357">
        <ele>1105.3</ele>
      </trkpt>
      <trkpt lat="37.744977" lon="128.734236">
        <ele>1104.9</ele>
      </trkpt>
      <trkpt lat="37.745287" lon="128.734108">
        <ele>1104.4</ele>
      </trkpt>
      <trkpt lat="37.745439" lon="128.734001">
        <ele>1104.0</ele>
      </trkpt>
      <trkpt lat="37.745711" lon="128.733641">
        <ele>1103.6</ele>
      </trkpt>
      <trkpt lat="37.745988" lon="128.733233">
        <ele>1103.2</ele>
      </trkpt>
      <trkpt lat="37.746089" lon="128.732919">
        <ele>1102.9</ele>
      </trkpt>
      <trkpt lat="37.746164" lon="128.732512">
        <ele>1102.6</ele>
      </trkpt>
      <trkpt lat="37.746205" lon="128.732442">
        <ele>1102.4</ele>
      </trkpt>
      <trkpt lat="37.746282" lon="128.732362">
        <ele>1102.2</ele>
      </trkpt>
      <trkpt lat="37.746434" lon="128.732281">
        <ele>1102.0</ele>
      </trkpt>
      <trkpt lat="37.746776" lon="128.731933">
        <ele>1101.9</ele>
      </trkpt>
      <trkpt lat="37.74696" lon="128.731635">
        <ele>1101.9</ele>
      </trkpt>
      <trkpt lat="37.746982" lon="128.731444">
        <ele>1101.9</ele>
      </trkpt>
      <trkpt lat="37.746956" lon="128.731227">
        <ele>1101.9</ele>
      </trkpt>
      <trkpt lat="37.746824" lon="128.730971">
        <ele>1102.0</ele>
      </trkpt>
      <trkpt lat="37.746645" lon="128.730828">
        <ele>1102.2</ele>
      </trkpt>
      <trkpt lat="37.746628" lon="128.730767">
        <ele>1102.4</ele>
      </trkpt>
      <trkpt lat="37.746659268360304" lon="128.73075485229495">
        <ele>1102.7</ele>
      </trkpt>
      <trkpt lat="37.746628" lon="128.730767">
        <ele>1103.1</ele>
      </trkpt>
      <trkpt lat="37.746625" lon="128.730752">
        <ele>1103.5</ele>
      </trkpt>
      <trkpt lat="37.746666" lon="128.730643">
        <ele>1103.9</ele>
      </trkpt>
      <trkpt lat="37.746876" lon="128.730436">
        <ele>1104.4</ele>
      </trkpt>
      <trkpt lat="37.747137" lon="128.730253">
        <ele>1105.0</ele>
      </trkpt>
      <trkpt lat="37.747249" lon="128.730079">
        <ele>1105.6</ele>
      </trkpt>
      <trkpt lat="37.7473" lon="128.729857">
        <ele>1106.3</ele>
      </trkpt>
      <trkpt lat="37.74734" lon="128.729202">
        <ele>1107.0</ele>
      </trkpt>
      <trkpt lat="37.747402" lon="128.728952">
        <ele>1107.8</ele>
      </trkpt>
      <trkpt lat="37.747455" lon="128.728773">
        <ele>1108.6</ele>
      </trkpt>
      <trkpt lat="37.747571" lon="128.728596">
        <ele>1109.5</ele>
      </trkpt>
      <trkpt lat="37.74783" lon="128.728397">
        <ele>1110.4</ele>
      </trkpt>
      <trkpt lat="37.748013" lon="128.728142">
        <ele>1111.3</ele>
      </trkpt>
      <trkpt lat="37.748072" lon="128.728035">
        <ele>1112.2</ele>
      </trkpt>
      <trkpt lat="37.748093" lon="128.727735">
        <ele>1113.1</ele>
      </trkpt>
      <trkpt lat="37.748027" lon="128.727399">
        <ele>1114.0</ele>
      </trkpt>
      <trkpt lat="37.747972" lon="128.727252">
        <ele>1114.9</ele>
      </trkpt>
      <trkpt lat="37.747967" lon="128.727149">
        <ele>1115.8</ele>
      </trkpt>
      <trkpt lat="37.74798269216435" lon="128.72714996337893">
        <ele>1116.8</ele>
      </trkpt>
      <trkpt lat="37.747967" lon="128.727149">
        <ele>1117.6</ele>
      </trkpt>
      <trkpt lat="37.747964" lon="128.727056">
        <ele>1118.5</ele>
      </trkpt>
      <trkpt lat="37.748042" lon="128.726906">
        <ele>1119.3</ele>
      </trkpt>
      <trkpt lat="37.748258" lon="128.726697">
        <ele>1120.2</ele>
      </trkpt>
      <trkpt lat="37.748306" lon="128.72647">
        <ele>1121.0</ele>
      </trkpt>
      <trkpt lat="37.748281" lon="128.726323">
        <ele>1121.8</ele>
      </trkpt>
      <trkpt lat="37.748142" lon="128.726002">
        <ele>1122.5</ele>
      </trkpt>
      <trkpt lat="37.747811" lon="128.725433">
        <ele>1123.3</ele>
      </trkpt>
      <trkpt lat="37.747798" lon="128.725421">
        <ele>1124.0</ele>
      </trkpt>
      <trkpt lat="37.74777909004261" lon="128.72545480728152">
        <ele>1124.6</ele>
      </trkpt>
      <trkpt lat="37.747798" lon="128.725421">
        <ele>1125.3</ele>
      </trkpt>
      <trkpt lat="37.747754" lon="128.725379">
        <ele>1125.8</ele>
      </trkpt>
      <trkpt lat="37.74777484832578" lon="128.72534751892093">
        <ele>1126.4</ele>
      </trkpt>
      <trkpt lat="37.748343236214026" lon="128.7254172563553">
        <ele>1126.9</ele>
      </trkpt>
      <trkpt lat="37.74886920320665" lon="128.72569620609286">
        <ele>1127.4</ele>
      </trkpt>
      <trkpt lat="37.748912" lon="128.725702">
        <ele>1127.8</ele>
      </trkpt>
      <trkpt lat="37.748921" lon="128.725613">
        <ele>1128.2</ele>
      </trkpt>
      <trkpt lat="37.749073" lon="128.725323">
        <ele>1128.5</ele>
      </trkpt>
      <trkpt lat="37.749193" lon="128.725202">
        <ele>1128.8</ele>
      </trkpt>
      <trkpt lat="37.749253" lon="128.725089">
        <ele>1129.0</ele>
      </trkpt>
      <trkpt lat="37.749324" lon="128.72505">
        <ele>1129.2</ele>
      </trkpt>
      <trkpt lat="37.74948" lon="128.725034">
        <ele>1129.3</ele>
      </trkpt>
      <trkpt lat="37.749631" lon="128.724978">
        <ele>1129.4</ele>
      </trkpt>
      <trkpt lat="37.749694" lon="128.72491">
        <ele>1129.5</ele>
      </trkpt>
      <trkpt lat="37.749744" lon="128.724791">
        <ele>1129.5</ele>
      </trkpt>
      <trkpt lat="37.749914" lon="128.724661">
        <ele>1129.5</ele>
      </trkpt>
      <trkpt lat="37.749991" lon="128.724555">
        <ele>1129.5</ele>
      </trkpt>
      <trkpt lat="37.750056" lon="128.724402">
        <ele>1129.4</ele>
      </trkpt>
      <trkpt lat="37.750354" lon="128.724015">
        <ele>1129.4</ele>
      </trkpt>
      <trkpt lat="37.750392" lon="128.723717">
        <ele>1129.3</ele>
      </trkpt>
      <trkpt lat="37.75039194140506" lon="128.72371673583987">
        <ele>1129.2</ele>
      </trkpt>
      <trkpt lat="37.750392" lon="128.723717">
        <ele>1129.1</ele>
      </trkpt>
      <trkpt lat="37.750399" lon="128.723671">
        <ele>1129.0</ele>
      </trkpt>
      <trkpt lat="37.750657" lon="128.723482">
        <ele>1128.9</ele>
      </trkpt>
      <trkpt lat="37.750967" lon="128.723465">
        <ele>1128.7</ele>
      </trkpt>
      <trkpt lat="37.751128" lon="128.7234">
        <ele>1128.6</ele>
      </trkpt>
      <trkpt lat="37.751281" lon="128.723266">
        <ele>1128.5</ele>
      </trkpt>
      <trkpt lat="37.751548" lon="128.723151">
        <ele>1128.3</ele>
      </trkpt>
      <trkpt lat="37.751846" lon="128.723165">
        <ele>1128.2</ele>
      </trkpt>
      <trkpt lat="37.75184678456326" lon="128.72316688299182">
        <ele>1128.1</ele>
      </trkpt>
      <trkpt lat="37.751846" lon="128.723165">
        <ele>1128.0</ele>
      </trkpt>
      <trkpt lat="37.75185" lon="128.723166">
        <ele>1127.9</ele>
      </trkpt>
      <trkpt lat="37.751914" lon="128.723245">
        <ele>1127.8</ele>
      </trkpt>
      <trkpt lat="37.752073" lon="128.723324">
        <ele>1127.7</ele>
      </trkpt>
      <trkpt lat="37.752073703584976" lon="128.72332781553268">
        <ele>1127.7</ele>
      </trkpt>
      <trkpt lat="37.752073" lon="128.723324">
        <ele>1127.6</ele>
      </trkpt>
      <trkpt lat="37.751914" lon="128.723245">
        <ele>1127.5</ele>
      </trkpt>
      <trkpt lat="37.75185" lon="128.723166">
        <ele>1127.5</ele>
      </trkpt>
      <trkpt lat="37.751554" lon="128.723151">
        <ele>1127.5</ele>
      </trkpt>
      <trkpt lat="37.75155624236996" lon="128.72314810752871">
        <ele>1127.5</ele>
      </trkpt>
      <trkpt lat="37.751554" lon="128.723151">
        <ele>1127.5</ele>
      </trkpt>
      <trkpt lat="37.751548" lon="128.723151">
        <ele>1127.5</ele>
      </trkpt>
      <trkpt lat="37.751281" lon="128.723266">
        <ele>1127.6</ele>
      </trkpt>
      <trkpt lat="37.751128" lon="128.7234">
        <ele>1127.6</ele>
      </trkpt>
      <trkpt lat="37.750967" lon="128.723465">
        <ele>1127.6</ele>
      </trkpt>
      <trkpt lat="37.750657" lon="128.723481">
        <ele>1127.6</ele>
      </trkpt>
      <trkpt lat="37.750657038863906" lon="128.72348070144656">
        <ele>1127.5</ele>
      </trkpt>
      <trkpt lat="37.750657" lon="128.723481">
        <ele>1127.4</ele>
      </trkpt>
      <trkpt lat="37.750657" lon="128.723482">
        <ele>1127.3</ele>
      </trkpt>
      <trkpt lat="37.750399" lon="128.723671">
        <ele>1127.1</ele>
      </trkpt>
      <trkpt lat="37.750398" lon="128.723673">
        <ele>1126.9</ele>
      </trkpt>
      <trkpt lat="37.75040042453845" lon="128.72367382049563">
        <ele>1126.6</ele>
      </trkpt>
      <trkpt lat="37.750398" lon="128.723673">
        <ele>1126.3</ele>
      </trkpt>
      <trkpt lat="37.750399" lon="128.723671">
        <ele>1125.9</ele>
      </trkpt>
      <trkpt lat="37.749895" lon="128.724081">
        <ele>1125.4</ele>
      </trkpt>
      <trkpt lat="37.749468" lon="128.724267">
        <ele>1124.9</ele>
      </trkpt>
      <trkpt lat="37.748625" lon="128.724657">
        <ele>1124.3</ele>
      </trkpt>
      <trkpt lat="37.748238" lon="128.724924">
        <ele>1123.6</ele>
      </trkpt>
      <trkpt lat="37.748093" lon="128.724986">
        <ele>1122.9</ele>
      </trkpt>
      <trkpt lat="37.74809297641307" lon="128.7249827384949">
        <ele>1122.1</ele>
      </trkpt>
      <trkpt lat="37.748093" lon="128.724986">
        <ele>1121.3</ele>
      </trkpt>
      <trkpt lat="37.747912" lon="128.725065">
        <ele>1120.3</ele>
      </trkpt>
      <trkpt lat="37.747688" lon="128.725285">
        <ele>1119.3</ele>
      </trkpt>
      <trkpt lat="37.74769425565989" lon="128.72529387474063">
        <ele>1118.3</ele>
      </trkpt>
      <trkpt lat="37.747688" lon="128.725285">
        <ele>1117.1</ele>
      </trkpt>
      <trkpt lat="37.747674" lon="128.7253">
        <ele>1115.9</ele>
      </trkpt>
      <trkpt lat="37.747343" lon="128.725289">
        <ele>1114.6</ele>
      </trkpt>
      <trkpt lat="37.747143" lon="128.725171">
        <ele>1113.2</ele>
      </trkpt>
      <trkpt lat="37.747077" lon="128.725061">
        <ele>1111.8</ele>
      </trkpt>
      <trkpt lat="37.747015577097216" lon="128.72512221336368">
        <ele>1110.3</ele>
      </trkpt>
      <trkpt lat="37.74590422751063" lon="128.72547626495364">
        <ele>1108.7</ele>
      </trkpt>
      <trkpt lat="37.74579818183055" lon="128.7254172563553">
        <ele>1107.0</ele>
      </trkpt>
      <trkpt lat="37.745488527575105" lon="128.72533679008487">
        <ele>1105.2</ele>
      </trkpt>
      <trkpt lat="37.745327337175986" lon="128.7251436710358">
        <ele>1103.3</ele>
      </trkpt>
      <trkpt lat="37.74480982878492" lon="128.7255245447159">
        <ele>1101.5</ele>
      </trkpt>
      <trkpt lat="37.74464015311487" lon="128.72546553611758">
        <ele>1099.5</ele>
      </trkpt>
      <trkpt lat="37.74458500843837" lon="128.72556746006015">
        <ele>1097.6</ele>
      </trkpt>
      <trkpt lat="37.744419574162315" lon="128.7256318330765">
        <ele>1095.6</ele>
      </trkpt>
      <trkpt lat="37.74426686527162" lon="128.72563719749454">
        <ele>1093.6</ele>
      </trkpt>
      <trkpt lat="37.74395296267345" lon="128.72556746006015">
        <ele>1091.6</ele>
      </trkpt>
      <trkpt lat="37.74391054330132" lon="128.7254333496094">
        <ele>1089.6</ele>
      </trkpt>
      <trkpt lat="37.74378752698466" lon="128.7254709005356">
        <ele>1087.7</ele>
      </trkpt>
      <trkpt lat="37.743571187449064" lon="128.72538506984714">
        <ele>1085.7</ele>
      </trkpt>
      <trkpt lat="37.743499074130014" lon="128.72527778148654">
        <ele>1083.8</ele>
      </trkpt>
      <trkpt lat="37.743493" lon="128.725275">
        <ele>1081.9</ele>
      </trkpt>
      <trkpt lat="37.74356" lon="128.725234">
        <ele>1080.1</ele>
      </trkpt>
      <trkpt lat="37.74357" lon="128.725169">
        <ele>1078.3</ele>
      </trkpt>
      <trkpt lat="37.743547" lon="128.725139">
        <ele>1076.6</ele>
      </trkpt>
      <trkpt lat="37.743541493737986" lon="128.72514903545382">
        <ele>1074.9</ele>
      </trkpt>
      <trkpt lat="37.743547" lon="128.725139">
        <ele>1073.3</ele>
      </trkpt>
      <trkpt lat="37.743536" lon="128.725125">
        <ele>1071.7</ele>
      </trkpt>
      <trkpt lat="37.743342" lon="128.725027">
        <ele>1070.2</ele>
      </trkpt>
      <trkpt lat="37.743249" lon="128.724889">
        <ele>1068.8</ele>
      </trkpt>
      <trkpt lat="37.743193" lon="128.724792">
        <ele>1067.4</ele>
      </trkpt>
      <trkpt lat="37.743144" lon="128.724682">
        <ele>1066.1</ele>
      </trkpt>
      <trkpt lat="37.743102" lon="128.724652">
        <ele>1064.8</ele>
      </trkpt>
      <trkpt lat="37.74310032862696" lon="128.72466087341311">
        <ele>1063.6</ele>
      </trkpt>
      <trkpt lat="37.743102" lon="128.724652">
        <ele>1062.5</ele>
      </trkpt>
      <trkpt lat="37.7431" lon="128.72465">
        <ele>1061.5</ele>
      </trkpt>
      <trkpt lat="37.743063" lon="128.72465">
        <ele>1060.5</ele>
      </trkpt>
      <trkpt lat="37.742939" lon="128.724808">
        <ele>1059.6</ele>
      </trkpt>
      <trkpt lat="37.742905" lon="128.724835">
        <ele>1058.8</ele>
      </trkpt>
      <trkpt lat="37.74290519706603" lon="128.72483253479007">
        <ele>1058.0</ele>
      </trkpt>
      <trkpt lat="37.742905" lon="128.724835">
        <ele>1057.4</ele>
      </trkpt>
      <trkpt lat="37.742861" lon="128.724871">
        <ele>1056.8</ele>
      </trkpt>
      <trkpt lat="37.742613" lon="128.72489">
        <ele>1056.3</ele>
      </trkpt>
      <trkpt lat="37.742546" lon="128.724877">
        <ele>1055.9</ele>
      </trkpt>
      <trkpt lat="37.742487" lon="128.724842">
        <ele>1055.5</ele>
      </trkpt>
      <trkpt lat="37.74247251220464" lon="128.72484862804416">
        <ele>1055.3</ele>
      </trkpt>
      <trkpt lat="37.742487" lon="128.724842">
        <ele>1055.2</ele>
      </trkpt>
      <trkpt lat="37.742474" lon="128.72477">
        <ele>1055.1</ele>
      </trkpt>
      <trkpt lat="37.742479" lon="128.724694">
        <ele>1055.1</ele>
      </trkpt>
      <trkpt lat="37.742512" lon="128.724584">
        <ele>1055.1</ele>
      </trkpt>
      <trkpt lat="37.742564" lon="128.724456">
        <ele>1055.3</ele>
      </trkpt>
      <trkpt lat="37.742689" lon="128.724279">
        <ele>1055.4</ele>
      </trkpt>
      <trkpt lat="37.742828" lon="128.723997">
        <ele>1055.6</ele>
      </trkpt>
      <trkpt lat="37.742921" lon="128.72385">
        <ele>1055.9</ele>
      </trkpt>
      <trkpt lat="37.743089" lon="128.723616">
        <ele>1056.2</ele>
      </trkpt>
      <trkpt lat="37.743079118699605" lon="128.72360408306125">
        <ele>1056.4</ele>
      </trkpt>
      <trkpt lat="37.743089" lon="128.723616">
        <ele>1056.7</ele>
      </trkpt>
      <trkpt lat="37.743102" lon="128.723599">
        <ele>1057.0</ele>
      </trkpt>
      <trkpt lat="37.743143" lon="128.723485">
        <ele>1057.4</ele>
      </trkpt>
      <trkpt lat="37.743129" lon="128.723451">
        <ele>1057.7</ele>
      </trkpt>
      <trkpt lat="37.743084" lon="128.723439">
        <ele>1058.1</ele>
      </trkpt>
      <trkpt lat="37.743021" lon="128.723447">
        <ele>1058.4</ele>
      </trkpt>
      <trkpt lat="37.742903" lon="128.723498">
        <ele>1058.8</ele>
      </trkpt>
      <trkpt lat="37.742842" lon="128.723477">
        <ele>1059.1</ele>
      </trkpt>
      <trkpt lat="37.742852" lon="128.723407">
        <ele>1059.5</ele>
      </trkpt>
      <trkpt lat="37.742679" lon="128.723309">
        <ele>1059.9</ele>
      </trkpt>
      <trkpt lat="37.74262" lon="128.723242">
        <ele>1060.3</ele>
      </trkpt>
      <trkpt lat="37.74262098278526" lon="128.72322857379916">
        <ele>1060.7</ele>
      </trkpt>
      <trkpt lat="37.74262" lon="128.723242">
        <ele>1061.2</ele>
      </trkpt>
      <trkpt lat="37.742579" lon="128.723128">
        <ele>1061.6</ele>
      </trkpt>
      <trkpt lat="37.742567" lon="128.723025">
        <ele>1062.0</ele>
      </trkpt>
      <trkpt lat="37.742573" lon="128.722863">
        <ele>1062.5</ele>
      </trkpt>
      <trkpt lat="37.742603" lon="128.72266">
        <ele>1062.9</ele>
      </trkpt>
      <trkpt lat="37.742601" lon="128.722503">
        <ele>1063.3</ele>
      </trkpt>
      <trkpt lat="37.742671" lon="128.722276">
        <ele>1063.8</ele>
      </trkpt>
      <trkpt lat="37.74266" lon="128.722217">
        <ele>1064.1</ele>
      </trkpt>
      <trkpt lat="37.742650676865665" lon="128.7222254276276">
        <ele>1064.4</ele>
      </trkpt>
      <trkpt lat="37.74266" lon="128.722217">
        <ele>1064.7</ele>
      </trkpt>
      <trkpt lat="37.742638" lon="128.7222">
        <ele>1065.0</ele>
      </trkpt>
      <trkpt lat="37.742584" lon="128.722205">
        <ele>1065.2</ele>
      </trkpt>
      <trkpt lat="37.742465" lon="128.722266">
        <ele>1065.4</ele>
      </trkpt>
      <trkpt lat="37.74233" lon="128.722308">
        <ele>1065.5</ele>
      </trkpt>
      <trkpt lat="37.742258" lon="128.722288">
        <ele>1065.7</ele>
      </trkpt>
      <trkpt lat="37.74225192679207" lon="128.72229516506198">
        <ele>1065.8</ele>
      </trkpt>
      <trkpt lat="37.742258" lon="128.722288">
        <ele>1065.9</ele>
      </trkpt>
      <trkpt lat="37.742169" lon="128.722232">
        <ele>1066.0</ele>
      </trkpt>
      <trkpt lat="37.742129" lon="128.722183">
        <ele>1066.0</ele>
      </trkpt>
      <trkpt lat="37.74212254465769" lon="128.72217178344727">
        <ele>1066.1</ele>
      </trkpt>
      <trkpt lat="37.742129" lon="128.722183">
        <ele>1066.1</ele>
      </trkpt>
      <trkpt lat="37.741922" lon="128.722267">
        <ele>1066.1</ele>
      </trkpt>
      <trkpt lat="37.74171" lon="128.722339">
        <ele>1066.1</ele>
      </trkpt>
      <trkpt lat="37.741543" lon="128.722435">
        <ele>1066.1</ele>
      </trkpt>
      <trkpt lat="37.74153926173573" lon="128.7224239110947">
        <ele>1066.0</ele>
      </trkpt>
      <trkpt lat="37.741543" lon="128.722435">
        <ele>1066.0</ele>
      </trkpt>
      <trkpt lat="37.741529" lon="128.722444">
        <ele>1065.9</ele>
      </trkpt>
      <trkpt lat="37.741493" lon="128.722336">
        <ele>1065.7</ele>
      </trkpt>
      <trkpt lat="37.741485" lon="128.722339">
        <ele>1065.5</ele>
      </trkpt>
      <trkpt lat="37.7414883568263" lon="128.72234880924225">
        <ele>1065.2</ele>
      </trkpt>
      <trkpt lat="37.741485" lon="128.722339">
        <ele>1064.9</ele>
      </trkpt>
      <trkpt lat="37.741255" lon="128.722429">
        <ele>1064.6</ele>
      </trkpt>
      <trkpt lat="37.741065" lon="128.722437">
        <ele>1064.1</ele>
      </trkpt>
      <trkpt lat="37.740903" lon="128.722306">
        <ele>1063.7</ele>
      </trkpt>
      <trkpt lat="37.740776" lon="128.722134">
        <ele>1063.1</ele>
      </trkpt>
      <trkpt lat="37.74073750534572" lon="128.72217178344727">
        <ele>1062.5</ele>
      </trkpt>
      <trkpt lat="37.740776" lon="128.722134">
        <ele>1061.8</ele>
      </trkpt>
      <trkpt lat="37.74061" lon="128.721796">
        <ele>1061.0</ele>
      </trkpt>
      <trkpt lat="37.740455" lon="128.721657">
        <ele>1060.2</ele>
      </trkpt>
      <trkpt lat="37.740182" lon="128.721533">
        <ele>1059.3</ele>
      </trkpt>
      <trkpt lat="37.739983" lon="128.721555">
        <ele>1058.3</ele>
      </trkpt>
      <trkpt lat="37.739745" lon="128.721657">
        <ele>1057.3</ele>
      </trkpt>
      <trkpt lat="37.739645" lon="128.721794">
        <ele>1056.2</ele>
      </trkpt>
      <trkpt lat="37.7396006083815" lon="128.7217426300049">
        <ele>1055.0</ele>
      </trkpt>
      <trkpt lat="37.739645" lon="128.721794">
        <ele>1053.7</ele>
      </trkpt>
      <trkpt lat="37.739614" lon="128.721838">
        <ele>1052.3</ele>
      </trkpt>
      <trkpt lat="37.73981" lon="128.72242">
        <ele>1050.8</ele>
      </trkpt>
      <trkpt lat="37.739866" lon="128.722698">
        <ele>1049.3</ele>
      </trkpt>
      <trkpt lat="37.73984" lon="128.723068">
        <ele>1047.7</ele>
      </trkpt>
      <trkpt lat="37.739802" lon="128.72313">
        <ele>1046.0</ele>
      </trkpt>
      <trkpt lat="37.739787264305" lon="128.72311592102054">
        <ele>1044.2</ele>
      </trkpt>
      <trkpt lat="37.739802" lon="128.72313">
        <ele>1042.4</ele>
      </trkpt>
      <trkpt lat="37.739726" lon="128.723261">
        <ele>1040.5</ele>
      </trkpt>
      <trkpt lat="37.739607" lon="128.723415">
        <ele>1038.5</ele>
      </trkpt>
      <trkpt lat="37.738858" lon="128.723929">
        <ele>1036.5</ele>
      </trkpt>
      <trkpt lat="37.738433" lon="128.724133">
        <ele>1034.3</ele>
      </trkpt>
      <trkpt lat="37.737968" lon="128.7243">
        <ele>1032.2</ele>
      </trkpt>
      <trkpt lat="37.737872" lon="128.724409">
        <ele>1030.0</ele>
      </trkpt>
      <trkpt lat="37.73786" lon="128.724435">
        <ele>1027.8</ele>
      </trkpt>
      <trkpt lat="37.737861291923274" lon="128.72443556785586">
        <ele>1025.6</ele>
      </trkpt>
      <trkpt lat="37.73786" lon="128.724435">
        <ele>1023.4</ele>
      </trkpt>
      <trkpt lat="37.737817" lon="128.72453">
        <ele>1021.1</ele>
      </trkpt>
      <trkpt lat="37.737783" lon="128.724777">
        <ele>1018.9</ele>
      </trkpt>
      <trkpt lat="37.73776" lon="128.725424">
        <ele>1016.6</ele>
      </trkpt>
      <trkpt lat="37.737603" lon="128.725637">
        <ele>1014.4</ele>
      </trkpt>
      <trkpt lat="37.737502" lon="128.725755">
        <ele>1012.2</ele>
      </trkpt>
      <trkpt lat="37.73748796989319" lon="128.72574448585513">
        <ele>1010.0</ele>
      </trkpt>
      <trkpt lat="37.737502" lon="128.725755">
        <ele>1007.8</ele>
      </trkpt>
      <trkpt lat="37.737293" lon="128.725836">
        <ele>1005.7</ele>
      </trkpt>
      <trkpt lat="37.737089" lon="128.725868">
        <ele>1003.6</ele>
      </trkpt>
      <trkpt lat="37.736647" lon="128.725733">
        <ele>1001.6</ele>
      </trkpt>
      <trkpt lat="37.73664798844239" lon="128.72573375701907">
        <ele>999.6</ele>
      </trkpt>
      <trkpt lat="37.736647" lon="128.725733">
        <ele>997.6</ele>
      </trkpt>
      <trkpt lat="37.73641" lon="128.725433">
        <ele>995.8</ele>
      </trkpt>
      <trkpt lat="37.736211" lon="128.725053">
        <ele>994.0</ele>
      </trkpt>
      <trkpt lat="37.7362152670059" lon="128.7250363826752">
        <ele>992.2</ele>
      </trkpt>
      <trkpt lat="37.736207" lon="128.725049">
        <ele>990.6</ele>
      </trkpt>
      <trkpt lat="37.736172" lon="128.725023">
        <ele>989.0</ele>
      </trkpt>
      <trkpt lat="37.735993" lon="128.724889">
        <ele>987.4</ele>
      </trkpt>
      <trkpt lat="37.735541" lon="128.724795">
        <ele>985.9</ele>
      </trkpt>
      <trkpt lat="37.73554496802284" lon="128.72477889060977">
        <ele>984.5</ele>
      </trkpt>
      <trkpt lat="37.735541" lon="128.724795">
        <ele>983.1</ele>
      </trkpt>
      <trkpt lat="37.735461" lon="128.724779">
        <ele>981.8</ele>
      </trkpt>
      <trkpt lat="37.73512" lon="128.724848">
        <ele>980.6</ele>
      </trkpt>
      <trkpt lat="37.73493" lon="128.725133">
        <ele>979.4</ele>
      </trkpt>
      <trkpt lat="37.734791" lon="128.725515">
        <ele>978.3</ele>
      </trkpt>
      <trkpt lat="37.734791" lon="128.725572">
        <ele>977.3</ele>
      </trkpt>
      <trkpt lat="37.73480678364014" lon="128.72557282447818">
        <ele>976.3</ele>
      </trkpt>
      <trkpt lat="37.734791" lon="128.725572">
        <ele>975.3</ele>
      </trkpt>
      <trkpt lat="37.734793" lon="128.725734">
        <ele>974.4</ele>
      </trkpt>
      <trkpt lat="37.734828" lon="128.726002">
        <ele>973.5</ele>
      </trkpt>
      <trkpt lat="37.734893" lon="128.726293">
        <ele>972.7</ele>
      </trkpt>
      <trkpt lat="37.734858" lon="128.726592">
        <ele>971.9</ele>
      </trkpt>
      <trkpt lat="37.734755" lon="128.726742">
        <ele>971.1</ele>
      </trkpt>
      <trkpt lat="37.73465" lon="128.726823">
        <ele>970.4</ele>
      </trkpt>
      <trkpt lat="37.734654054917954" lon="128.72686028480533">
        <ele>969.7</ele>
      </trkpt>
      <trkpt lat="37.73465" lon="128.726823">
        <ele>969.0</ele>
      </trkpt>
      <trkpt lat="37.734527" lon="128.726887">
        <ele>968.3</ele>
      </trkpt>
      <trkpt lat="37.73435" lon="128.726895">
        <ele>967.6</ele>
      </trkpt>
      <trkpt lat="37.73391" lon="128.726783">
        <ele>967.0</ele>
      </trkpt>
      <trkpt lat="37.733416" lon="128.726574">
        <ele>966.3</ele>
      </trkpt>
      <trkpt lat="37.73340675856079" lon="128.72658133506778">
        <ele>965.7</ele>
      </trkpt>
      <trkpt lat="37.733416" lon="128.726574">
        <ele>965.0</ele>
      </trkpt>
      <trkpt lat="37.733148" lon="128.726431">
        <ele>964.3</ele>
      </trkpt>
      <trkpt lat="37.732993" lon="128.726513">
        <ele>963.6</ele>
      </trkpt>
      <trkpt lat="37.732603" lon="128.726802">
        <ele>962.9</ele>
      </trkpt>
      <trkpt lat="37.73259218633281" lon="128.72679591178897">
        <ele>962.2</ele>
      </trkpt>
      <trkpt lat="37.732603" lon="128.726802">
        <ele>961.5</ele>
      </trkpt>
      <trkpt lat="37.732363" lon="128.726892">
        <ele>960.7</ele>
      </trkpt>
      <trkpt lat="37.732177" lon="128.72693">
        <ele>959.9</ele>
      </trkpt>
      <trkpt lat="37.731935" lon="128.726699">
        <ele>959.2</ele>
      </trkpt>
      <trkpt lat="37.731838" lon="128.726547">
        <ele>958.4</ele>
      </trkpt>
      <trkpt lat="37.731808" lon="128.726477">
        <ele>957.5</ele>
      </trkpt>
      <trkpt lat="37.73176911987571" lon="128.72650623321536">
        <ele>956.7</ele>
      </trkpt>
      <trkpt lat="37.731808" lon="128.726477">
        <ele>955.9</ele>
      </trkpt>
      <trkpt lat="37.731735" lon="128.726308">
        <ele>955.0</ele>
      </trkpt>
      <trkpt lat="37.731706" lon="128.726077">
        <ele>954.1</ele>
      </trkpt>
      <trkpt lat="37.731595" lon="128.725408">
        <ele>953.2</ele>
      </trkpt>
      <trkpt lat="37.731485" lon="128.725074">
        <ele>952.3</ele>
      </trkpt>
      <trkpt lat="37.731467" lon="128.725051">
        <ele>951.4</ele>
      </trkpt>
      <trkpt lat="37.73144667897574" lon="128.72507929801944">
        <ele>950.4</ele>
      </trkpt>
      <trkpt lat="37.731467" lon="128.725051">
        <ele>949.4</ele>
      </trkpt>
      <trkpt lat="37.731373" lon="128.724934">
        <ele>948.4</ele>
      </trkpt>
      <trkpt lat="37.73115" lon="128.724827">
        <ele>947.4</ele>
      </trkpt>
      <trkpt lat="37.730892" lon="128.724772">
        <ele>946.3</ele>
      </trkpt>
      <trkpt lat="37.730437" lon="128.724705">
        <ele>945.2</ele>
      </trkpt>
      <trkpt lat="37.730172" lon="128.724659">
        <ele>944.1</ele>
      </trkpt>
      <trkpt lat="37.73017387223953" lon="128.72465014457705">
        <ele>942.9</ele>
      </trkpt>
      <trkpt lat="37.730172" lon="128.724659">
        <ele>941.7</ele>
      </trkpt>
      <trkpt lat="37.729985" lon="128.724628">
        <ele>940.5</ele>
      </trkpt>
      <trkpt lat="37.72957" lon="128.724382">
        <ele>939.2</ele>
      </trkpt>
      <trkpt lat="37.729269" lon="128.72394">
        <ele>937.9</ele>
      </trkpt>
      <trkpt lat="37.72911" lon="128.723437">
        <ele>936.5</ele>
      </trkpt>
      <trkpt lat="37.729073" lon="128.722952">
        <ele>935.2</ele>
      </trkpt>
      <trkpt lat="37.72906226979358" lon="128.72295498847964">
        <ele>933.8</ele>
      </trkpt>
      <trkpt lat="37.729073" lon="128.722952">
        <ele>932.3</ele>
      </trkpt>
      <trkpt lat="37.729066" lon="128.722853">
        <ele>930.8</ele>
      </trkpt>
      <trkpt lat="37.728912" lon="128.722387">
        <ele>929.3</ele>
      </trkpt>
      <trkpt lat="37.728901" lon="128.722204">
        <ele>927.8</ele>
      </trkpt>
      <trkpt lat="37.728994" lon="128.721967">
        <ele>926.2</ele>
      </trkpt>
      <trkpt lat="37.729037" lon="128.721963">
        <ele>924.5</ele>
      </trkpt>
      <trkpt lat="37.72903681305359" lon="128.7219572067261">
        <ele>922.9</ele>
      </trkpt>
      <trkpt lat="37.729037" lon="128.721963">
        <ele>921.2</ele>
      </trkpt>
      <trkpt lat="37.729513" lon="128.721925">
        <ele>919.5</ele>
      </trkpt>
      <trkpt lat="37.729814" lon="128.721862">
        <ele>917.7</ele>
      </trkpt>
      <trkpt lat="37.729838" lon="128.721609">
        <ele>915.9</ele>
      </trkpt>
      <trkpt lat="37.729868395367454" lon="128.7216138839722">
        <ele>914.1</ele>
      </trkpt>
      <trkpt lat="37.729838" lon="128.721608">
        <ele>912.2</ele>
      </trkpt>
      <trkpt lat="37.729806" lon="128.721472">
        <ele>910.3</ele>
      </trkpt>
      <trkpt lat="37.729383" lon="128.721153">
        <ele>908.3</ele>
      </trkpt>
      <trkpt lat="37.729198" lon="128.721062">
        <ele>906.4</ele>
      </trkpt>
      <trkpt lat="37.72920652448828" lon="128.72103452682498">
        <ele>904.4</ele>
      </trkpt>
      <trkpt lat="37.729198" lon="128.721062">
        <ele>902.4</ele>
      </trkpt>
      <trkpt lat="37.729194" lon="128.721061">
        <ele>900.4</ele>
      </trkpt>
      <trkpt lat="37.729007" lon="128.721063">
        <ele>898.4</ele>
      </trkpt>
      <trkpt lat="37.728552" lon="128.721025">
        <ele>896.3</ele>
      </trkpt>
      <trkpt lat="37.727921" lon="128.720895">
        <ele>894.3</ele>
      </trkpt>
      <trkpt lat="37.727551" lon="128.720944">
        <ele>892.3</ele>
      </trkpt>
      <trkpt lat="37.727293" lon="128.720946">
        <ele>890.3</ele>
      </trkpt>
      <trkpt lat="37.726922" lon="128.720914">
        <ele>888.3</ele>
      </trkpt>
      <trkpt lat="37.726923873127845" lon="128.72090578079226">
        <ele>886.3</ele>
      </trkpt>
      <trkpt lat="37.726922" lon="128.720914">
        <ele>884.4</ele>
      </trkpt>
      <trkpt lat="37.726867" lon="128.72091">
        <ele>882.5</ele>
      </trkpt>
      <trkpt lat="37.726644" lon="128.7209">
        <ele>880.6</ele>
      </trkpt>
      <trkpt lat="37.726333" lon="128.720988">
        <ele>878.8</ele>
      </trkpt>
      <trkpt lat="37.726" lon="128.72109">
        <ele>876.9</ele>
      </trkpt>
      <trkpt lat="37.725516" lon="128.72119">
        <ele>875.9</ele>
      </trkpt>
      <trkpt lat="37.725133" lon="128.721102">
        <ele>874.9</ele>
      </trkpt>
      <trkpt lat="37.725108" lon="128.721092">
        <ele>873.9</ele>
      </trkpt>
      <trkpt lat="37.725116370652096" lon="128.72106671333316">
        <ele>872.9</ele>
      </trkpt>
      <trkpt lat="37.725108" lon="128.721092">
        <ele>871.9</ele>
      </trkpt>
      <trkpt lat="37.724542" lon="128.720868">
        <ele>870.9</ele>
      </trkpt>
      <trkpt lat="37.724544" lon="128.720823">
        <ele>869.9</ele>
      </trkpt>
      <trkpt lat="37.724494" lon="128.7206">
        <ele>868.9</ele>
      </trkpt>
      <trkpt lat="37.724478" lon="128.7205">
        <ele>868.0</ele>
      </trkpt>
      <trkpt lat="37.724422" lon="128.720422">
        <ele>867.1</ele>
      </trkpt>
      <trkpt lat="37.72440354064592" lon="128.7204444408417">
        <ele>866.2</ele>
      </trkpt>
      <trkpt lat="37.724422" lon="128.720422">
        <ele>865.3</ele>
      </trkpt>
      <trkpt lat="37.724352" lon="128.720326">
        <ele>864.4</ele>
      </trkpt>
      <trkpt lat="37.723828" lon="128.720036">
        <ele>863.6</ele>
      </trkpt>
      <trkpt lat="37.72382648275902" lon="128.7200474739075">
        <ele>862.9</ele>
      </trkpt>
    </trkseg>
  </trk>
</gpx>