<?xml version="1.0" encoding="UTF-8"?>
<gpx version="1.1" creator="HTML GPX Creator" xmlns="http://www.topografix.com/GPX/1/1">
  <trk>
    <name>My Custom Route</name>
    <trkseg>
      <trkpt lat="34.993810395124136" lon="127.33497619628908">
        <ele>202.8</ele>
      </trkpt>
      <trkpt lat="34.993875" lon="127.334931">
        <ele>203.7</ele>
      </trkpt>
      <trkpt lat="34.993761" lon="127.334676">
        <ele>204.7</ele>
      </trkpt>
      <trkpt lat="34.993648" lon="127.334279">
        <ele>205.8</ele>
      </trkpt>
      <trkpt lat="34.993622" lon="127.333991">
        <ele>206.9</ele>
      </trkpt>
      <trkpt lat="34.993664" lon="127.33391">
        <ele>208.0</ele>
      </trkpt>
      <trkpt lat="34.994044" lon="127.333479">
        <ele>209.0</ele>
      </trkpt>
      <trkpt lat="34.994237" lon="127.333268">
        <ele>210.0</ele>
      </trkpt>
      <trkpt lat="34.994361" lon="127.33316">
        <ele>211.0</ele>
      </trkpt>
      <trkpt lat="34.994421" lon="127.333045">
        <ele>212.0</ele>
      </trkpt>
      <trkpt lat="34.994518" lon="127.332698">
        <ele>212.9</ele>
      </trkpt>
      <trkpt lat="34.994583" lon="127.332422">
        <ele>213.8</ele>
      </trkpt>
      <trkpt lat="34.994618" lon="127.332089">
        <ele>214.7</ele>
      </trkpt>
      <trkpt lat="34.994691" lon="127.331977">
        <ele>215.6</ele>
      </trkpt>
      <trkpt lat="34.994846" lon="127.331948">
        <ele>216.5</ele>
      </trkpt>
      <trkpt lat="34.99488" lon="127.331579">
        <ele>217.4</ele>
      </trkpt>
      <trkpt lat="34.99487" lon="127.331522">
        <ele>219.2</ele>
      </trkpt>
      <trkpt lat="34.994781" lon="127.331467">
        <ele>220.9</ele>
      </trkpt>
      <trkpt lat="34.99474204637087" lon="127.33156442642213">
        <ele>222.6</ele>
      </trkpt>
      <trkpt lat="34.994781" lon="127.331467">
        <ele>224.4</ele>
      </trkpt>
      <trkpt lat="34.99458" lon="127.331341">
        <ele>226.2</ele>
      </trkpt>
      <trkpt lat="34.994471" lon="127.331158">
        <ele>228.0</ele>
      </trkpt>
      <trkpt lat="34.99438" lon="127.330771">
        <ele>229.8</ele>
      </trkpt>
      <trkpt lat="34.994246" lon="127.330434">
        <ele>231.8</ele>
      </trkpt>
      <trkpt lat="34.994123" lon="127.330217">
        <ele>233.7</ele>
      </trkpt>
      <trkpt lat="34.993952" lon="127.330099">
        <ele>235.7</ele>
      </trkpt>
      <trkpt lat="34.993874" lon="127.330279">
        <ele>237.8</ele>
      </trkpt>
      <trkpt lat="34.993757" lon="127.330365">
        <ele>239.9</ele>
      </trkpt>
      <trkpt lat="34.993656" lon="127.330249">
        <ele>242.2</ele>
      </trkpt>
      <trkpt lat="34.993552" lon="127.329935">
        <ele>244.5</ele>
      </trkpt>
      <trkpt lat="34.993397" lon="127.329578">
        <ele>246.9</ele>
      </trkpt>
      <trkpt lat="34.993162" lon="127.329335">
        <ele>249.3</ele>
      </trkpt>
      <trkpt lat="34.992981" lon="127.329225">
        <ele>251.6</ele>
      </trkpt>
      <trkpt lat="34.992903" lon="127.32896">
        <ele>253.8</ele>
      </trkpt>
      <trkpt lat="34.992721" lon="127.328739">
        <ele>256.1</ele>
      </trkpt>
      <trkpt lat="34.992615" lon="127.328525">
        <ele>258.4</ele>
      </trkpt>
      <trkpt lat="34.992467" lon="127.328449">
        <ele>260.7</ele>
      </trkpt>
      <trkpt lat="34.992365" lon="127.328167">
        <ele>263.0</ele>
      </trkpt>
      <trkpt lat="34.992368" lon="127.327948">
        <ele>265.4</ele>
      </trkpt>
      <trkpt lat="34.99196463963918" lon="127.327938079834">
        <ele>267.8</ele>
      </trkpt>
      <trkpt lat="34.992368" lon="127.327948">
        <ele>270.2</ele>
      </trkpt>
      <trkpt lat="34.992373" lon="127.32771">
        <ele>272.7</ele>
      </trkpt>
      <trkpt lat="34.992287" lon="127.327568">
        <ele>275.3</ele>
      </trkpt>
      <trkpt lat="34.991972" lon="127.327392">
        <ele>277.9</ele>
      </trkpt>
      <trkpt lat="34.991835" lon="127.327177">
        <ele>280.6</ele>
      </trkpt>
      <trkpt lat="34.991761" lon="127.326978">
        <ele>283.3</ele>
      </trkpt>
      <trkpt lat="34.991695" lon="127.326845">
        <ele>286.1</ele>
      </trkpt>
      <trkpt lat="34.991535" lon="127.326646">
        <ele>288.9</ele>
      </trkpt>
      <trkpt lat="34.991451" lon="127.326552">
        <ele>291.8</ele>
      </trkpt>
      <trkpt lat="34.991511" lon="127.326193">
        <ele>294.7</ele>
      </trkpt>
      <trkpt lat="34.99148" lon="127.32592">
        <ele>297.7</ele>
      </trkpt>
      <trkpt lat="34.991199" lon="127.325625">
        <ele>300.8</ele>
      </trkpt>
      <trkpt lat="34.991278" lon="127.325377">
        <ele>303.9</ele>
      </trkpt>
      <trkpt lat="34.991209" lon="127.325018">
        <ele>307.1</ele>
      </trkpt>
      <trkpt lat="34.991166" lon="127.324826">
        <ele>310.3</ele>
      </trkpt>
      <trkpt lat="34.99119" lon="127.324668">
        <ele>313.5</ele>
      </trkpt>
      <trkpt lat="34.991093" lon="127.324269">
        <ele>316.8</ele>
      </trkpt>
      <trkpt lat="34.991089" lon="127.324038">
        <ele>320.2</ele>
      </trkpt>
      <trkpt lat="34.991029" lon="127.323968">
        <ele>323.6</ele>
      </trkpt>
      <trkpt lat="34.991042" lon="127.323804">
        <ele>327.0</ele>
      </trkpt>
      <trkpt lat="34.990992" lon="127.323738">
        <ele>330.5</ele>
      </trkpt>
      <trkpt lat="34.991003" lon="127.323655">
        <ele>334.1</ele>
      </trkpt>
      <trkpt lat="34.990897" lon="127.323542">
        <ele>337.6</ele>
      </trkpt>
      <trkpt lat="34.990874" lon="127.32339">
        <ele>341.3</ele>
      </trkpt>
      <trkpt lat="34.990892" lon="127.323182">
        <ele>345.0</ele>
      </trkpt>
      <trkpt lat="34.990861" lon="127.323056">
        <ele>348.8</ele>
      </trkpt>
      <trkpt lat="34.990876" lon="127.322895">
        <ele>352.7</ele>
      </trkpt>
      <trkpt lat="34.990825" lon="127.322746">
        <ele>356.7</ele>
      </trkpt>
      <trkpt lat="34.990703" lon="127.322484">
        <ele>360.8</ele>
      </trkpt>
      <trkpt lat="34.990514" lon="127.322166">
        <ele>365.0</ele>
      </trkpt>
      <trkpt lat="34.990493" lon="127.321934">
        <ele>369.2</ele>
      </trkpt>
      <trkpt lat="34.990565" lon="127.321693">
        <ele>373.6</ele>
      </trkpt>
      <trkpt lat="34.990321" lon="127.321394">
        <ele>378.0</ele>
      </trkpt>
      <trkpt lat="34.990273" lon="127.321246">
        <ele>382.6</ele>
      </trkpt>
      <trkpt lat="34.990295" lon="127.320781">
        <ele>387.2</ele>
      </trkpt>
      <trkpt lat="34.990203" lon="127.320237">
        <ele>391.9</ele>
      </trkpt>
      <trkpt lat="34.990203" lon="127.320019">
        <ele>396.7</ele>
      </trkpt>
      <trkpt lat="34.98989" lon="127.319191">
        <ele>401.5</ele>
      </trkpt>
      <trkpt lat="34.989739" lon="127.319009">
        <ele>406.4</ele>
      </trkpt>
      <trkpt lat="34.989631" lon="127.318896">
        <ele>411.4</ele>
      </trkpt>
      <trkpt lat="34.989547" lon="127.318843">
        <ele>416.4</ele>
      </trkpt>
      <trkpt lat="34.989502" lon="127.318698">
        <ele>421.4</ele>
      </trkpt>
      <trkpt lat="34.989359" lon="127.318289">
        <ele>426.4</ele>
      </trkpt>
      <trkpt lat="34.989301" lon="127.318064">
        <ele>431.5</ele>
      </trkpt>
      <trkpt lat="34.989101" lon="127.317728">
        <ele>436.7</ele>
      </trkpt>
      <trkpt lat="34.989041" lon="127.317428">
        <ele>441.8</ele>
      </trkpt>
      <trkpt lat="34.988979" lon="127.317177">
        <ele>446.9</ele>
      </trkpt>
      <trkpt lat="34.988928" lon="127.317058">
        <ele>452.1</ele>
      </trkpt>
      <trkpt lat="34.988897" lon="127.317015">
        <ele>457.2</ele>
      </trkpt>
      <trkpt lat="34.988834" lon="127.316863">
        <ele>462.3</ele>
      </trkpt>
      <trkpt lat="34.988756" lon="127.316824">
        <ele>467.5</ele>
      </trkpt>
      <trkpt lat="34.988702" lon="127.316503">
        <ele>472.6</ele>
      </trkpt>
      <trkpt lat="34.988611" lon="127.316247">
        <ele>477.7</ele>
      </trkpt>
      <trkpt lat="34.988551" lon="127.316117">
        <ele>482.8</ele>
      </trkpt>
      <trkpt lat="34.988421" lon="127.315752">
        <ele>487.9</ele>
      </trkpt>
      <trkpt lat="34.988286" lon="127.315632">
        <ele>493.0</ele>
      </trkpt>
      <trkpt lat="34.988125" lon="127.315563">
        <ele>498.0</ele>
      </trkpt>
      <trkpt lat="34.988016" lon="127.315435">
        <ele>503.0</ele>
      </trkpt>
      <trkpt lat="34.987968" lon="127.315319">
        <ele>507.9</ele>
      </trkpt>
      <trkpt lat="34.987938" lon="127.315171">
        <ele>512.8</ele>
      </trkpt>
      <trkpt lat="34.987895" lon="127.314873">
        <ele>517.5</ele>
      </trkpt>
      <trkpt lat="34.987715" lon="127.314695">
        <ele>522.2</ele>
      </trkpt>
      <trkpt lat="34.98769" lon="127.314536">
        <ele>526.8</ele>
      </trkpt>
      <trkpt lat="34.987632" lon="127.314395">
        <ele>531.3</ele>
      </trkpt>
      <trkpt lat="34.987707" lon="127.314081">
        <ele>535.6</ele>
      </trkpt>
      <trkpt lat="34.987658" lon="127.31396">
        <ele>539.8</ele>
      </trkpt>
      <trkpt lat="34.987596" lon="127.313884">
        <ele>543.9</ele>
      </trkpt>
      <trkpt lat="34.987541" lon="127.313778">
        <ele>547.8</ele>
      </trkpt>
      <trkpt lat="34.987592" lon="127.313597">
        <ele>551.6</ele>
      </trkpt>
      <trkpt lat="34.987537" lon="127.313492">
        <ele>555.2</ele>
      </trkpt>
      <trkpt lat="34.987566" lon="127.313365">
        <ele>558.7</ele>
      </trkpt>
      <trkpt lat="34.987483" lon="127.313303">
        <ele>562.1</ele>
      </trkpt>
      <trkpt lat="34.987387" lon="127.313281">
        <ele>565.2</ele>
      </trkpt>
      <trkpt lat="34.987341" lon="127.313238">
        <ele>568.2</ele>
      </trkpt>
      <trkpt lat="34.987449" lon="127.313222">
        <ele>571.0</ele>
      </trkpt>
      <trkpt lat="34.987464" lon="127.31317">
        <ele>573.7</ele>
      </trkpt>
      <trkpt lat="34.987476" lon="127.312985">
        <ele>576.2</ele>
      </trkpt>
      <trkpt lat="34.987293" lon="127.312993">
        <ele>578.6</ele>
      </trkpt>
      <trkpt lat="34.987217" lon="127.312912">
        <ele>580.7</ele>
      </trkpt>
      <trkpt lat="34.987244" lon="127.312741">
        <ele>582.7</ele>
      </trkpt>
      <trkpt lat="34.987156" lon="127.312663">
        <ele>584.5</ele>
      </trkpt>
      <trkpt lat="34.987229" lon="127.312401">
        <ele>586.2</ele>
      </trkpt>
      <trkpt lat="34.987254" lon="127.312256">
        <ele>587.6</ele>
      </trkpt>
      <trkpt lat="34.987241" lon="127.312011">
        <ele>588.8</ele>
      </trkpt>
      <trkpt lat="34.98717" lon="127.31186">
        <ele>589.8</ele>
      </trkpt>
      <trkpt lat="34.987102" lon="127.311612">
        <ele>590.6</ele>
      </trkpt>
      <trkpt lat="34.987097" lon="127.311589">
        <ele>591.2</ele>
      </trkpt>
      <trkpt lat="34.987074" lon="127.311451">
        <ele>591.5</ele>
      </trkpt>
      <trkpt lat="34.987069" lon="127.311296">
        <ele>591.7</ele>
      </trkpt>
      <trkpt lat="34.987078" lon="127.311249">
        <ele>591.6</ele>
      </trkpt>
      <trkpt lat="34.987064" lon="127.311173">
        <ele>591.4</ele>
      </trkpt>
      <trkpt lat="34.987106" lon="127.311125">
        <ele>591.0</ele>
      </trkpt>
      <trkpt lat="34.98709" lon="127.310908">
        <ele>590.4</ele>
      </trkpt>
      <trkpt lat="34.986981" lon="127.310575">
        <ele>589.7</ele>
      </trkpt>
      <trkpt lat="34.986888" lon="127.310479">
        <ele>588.8</ele>
      </trkpt>
      <trkpt lat="34.986862" lon="127.310362">
        <ele>587.8</ele>
      </trkpt>
      <trkpt lat="34.986872" lon="127.310253">
        <ele>586.7</ele>
      </trkpt>
      <trkpt lat="34.98694" lon="127.31019">
        <ele>585.5</ele>
      </trkpt>
      <trkpt lat="34.986974" lon="127.310076">
        <ele>584.3</ele>
      </trkpt>
      <trkpt lat="34.986951" lon="127.30993">
        <ele>582.9</ele>
      </trkpt>
      <trkpt lat="34.986975" lon="127.309895">
        <ele>581.5</ele>
      </trkpt>
      <trkpt lat="34.987063" lon="127.30984">
        <ele>580.0</ele>
      </trkpt>
      <trkpt lat="34.987129" lon="127.309666">
        <ele>578.4</ele>
      </trkpt>
      <trkpt lat="34.987147" lon="127.309664">
        <ele>576.8</ele>
      </trkpt>
      <trkpt lat="34.987168" lon="127.309575">
        <ele>575.2</ele>
      </trkpt>
      <trkpt lat="34.987183" lon="127.30954">
        <ele>573.5</ele>
      </trkpt>
      <trkpt lat="34.987138" lon="127.309476">
        <ele>571.8</ele>
      </trkpt>
      <trkpt lat="34.987155" lon="127.309462">
        <ele>570.1</ele>
      </trkpt>
      <trkpt lat="34.987195" lon="127.309441">
        <ele>568.4</ele>
      </trkpt>
      <trkpt lat="34.98719" lon="127.309399">
        <ele>566.6</ele>
      </trkpt>
      <trkpt lat="34.987213" lon="127.309341">
        <ele>564.9</ele>
      </trkpt>
      <trkpt lat="34.987295" lon="127.309343">
        <ele>563.1</ele>
      </trkpt>
      <trkpt lat="34.987325" lon="127.30932">
        <ele>561.5</ele>
      </trkpt>
      <trkpt lat="34.987323" lon="127.309234">
        <ele>559.8</ele>
      </trkpt>
      <trkpt lat="34.987394" lon="127.309205">
        <ele>558.2</ele>
      </trkpt>
      <trkpt lat="34.98738" lon="127.309105">
        <ele>556.6</ele>
      </trkpt>
      <trkpt lat="34.987362" lon="127.309059">
        <ele>555.1</ele>
      </trkpt>
      <trkpt lat="34.987378" lon="127.309024">
        <ele>553.7</ele>
      </trkpt>
      <trkpt lat="34.987414" lon="127.308994">
        <ele>552.4</ele>
      </trkpt>
      <trkpt lat="34.987438" lon="127.308954">
        <ele>551.1</ele>
      </trkpt>
      <trkpt lat="34.987425" lon="127.308924">
        <ele>550.0</ele>
      </trkpt>
      <trkpt lat="34.987394" lon="127.30891">
        <ele>548.9</ele>
      </trkpt>
      <trkpt lat="34.98732369910509" lon="127.3088836669922">
        <ele>547.9</ele>
      </trkpt>
      <trkpt lat="34.987394" lon="127.30891">
        <ele>546.9</ele>
      </trkpt>
      <trkpt lat="34.987461" lon="127.308662">
        <ele>546.0</ele>
      </trkpt>
      <trkpt lat="34.987441" lon="127.308558">
        <ele>545.2</ele>
      </trkpt>
      <trkpt lat="34.98728" lon="127.308147">
        <ele>544.5</ele>
      </trkpt>
      <trkpt lat="34.987247" lon="127.308077">
        <ele>543.8</ele>
      </trkpt>
      <trkpt lat="34.987172" lon="127.307998">
        <ele>543.3</ele>
      </trkpt>
      <trkpt lat="34.987094" lon="127.307898">
        <ele>542.7</ele>
      </trkpt>
      <trkpt lat="34.987064" lon="127.307917">
        <ele>542.3</ele>
      </trkpt>
      <trkpt lat="34.986957" lon="127.307742">
        <ele>541.9</ele>
      </trkpt>
      <trkpt lat="34.986848" lon="127.30749">
        <ele>541.6</ele>
      </trkpt>
      <trkpt lat="34.986754" lon="127.307417">
        <ele>541.3</ele>
      </trkpt>
      <trkpt lat="34.986751" lon="127.307333">
        <ele>541.2</ele>
      </trkpt>
      <trkpt lat="34.986723" lon="127.307074">
        <ele>541.2</ele>
      </trkpt>
      <trkpt lat="34.986687" lon="127.306807">
        <ele>541.2</ele>
      </trkpt>
      <trkpt lat="34.986642" lon="127.306226">
        <ele>541.4</ele>
      </trkpt>
      <trkpt lat="34.986587" lon="127.305922">
        <ele>541.6</ele>
      </trkpt>
      <trkpt lat="34.986456" lon="127.305803">
        <ele>541.9</ele>
      </trkpt>
      <trkpt lat="34.986419" lon="127.305735">
        <ele>542.3</ele>
      </trkpt>
      <trkpt lat="34.986478" lon="127.305432">
        <ele>542.7</ele>
      </trkpt>
      <trkpt lat="34.986525" lon="127.305145">
        <ele>543.3</ele>
      </trkpt>
      <trkpt lat="34.98654" lon="127.30482">
        <ele>543.9</ele>
      </trkpt>
      <trkpt lat="34.986567" lon="127.304673">
        <ele>544.6</ele>
      </trkpt>
      <trkpt lat="34.986678" lon="127.304226">
        <ele>545.3</ele>
      </trkpt>
      <trkpt lat="34.986755" lon="127.304029">
        <ele>546.1</ele>
      </trkpt>
      <trkpt lat="34.986812" lon="127.303833">
        <ele>546.9</ele>
      </trkpt>
      <trkpt lat="34.986895" lon="127.303596">
        <ele>547.8</ele>
      </trkpt>
      <trkpt lat="34.986915" lon="127.303443">
        <ele>548.7</ele>
      </trkpt>
      <trkpt lat="34.986898" lon="127.303292">
        <ele>549.7</ele>
      </trkpt>
      <trkpt lat="34.986917" lon="127.303176">
        <ele>550.7</ele>
      </trkpt>
      <trkpt lat="34.987059" lon="127.302982">
        <ele>551.8</ele>
      </trkpt>
      <trkpt lat="34.987097" lon="127.302876">
        <ele>552.9</ele>
      </trkpt>
      <trkpt lat="34.987146" lon="127.302792">
        <ele>554.1</ele>
      </trkpt>
      <trkpt lat="34.987249" lon="127.302692">
        <ele>555.3</ele>
      </trkpt>
      <trkpt lat="34.987218" lon="127.302383">
        <ele>556.6</ele>
      </trkpt>
      <trkpt lat="34.987267" lon="127.302307">
        <ele>558.0</ele>
      </trkpt>
      <trkpt lat="34.987375" lon="127.302013">
        <ele>559.4</ele>
      </trkpt>
      <trkpt lat="34.987458" lon="127.30196">
        <ele>560.8</ele>
      </trkpt>
      <trkpt lat="34.987562" lon="127.301851">
        <ele>562.3</ele>
      </trkpt>
      <trkpt lat="34.987707" lon="127.301625">
        <ele>563.8</ele>
      </trkpt>
      <trkpt lat="34.987683" lon="127.301458">
        <ele>565.4</ele>
      </trkpt>
      <trkpt lat="34.987732" lon="127.301321">
        <ele>567.0</ele>
      </trkpt>
      <trkpt lat="34.987726" lon="127.301187">
        <ele>568.6</ele>
      </trkpt>
      <trkpt lat="34.987749" lon="127.301106">
        <ele>570.2</ele>
      </trkpt>
      <trkpt lat="34.987828" lon="127.30106">
        <ele>571.8</ele>
      </trkpt>
      <trkpt lat="34.987844" lon="127.301021">
        <ele>573.5</ele>
      </trkpt>
      <trkpt lat="34.987794" lon="127.30099">
        <ele>575.1</ele>
      </trkpt>
      <trkpt lat="34.987829" lon="127.300955">
        <ele>576.8</ele>
      </trkpt>
      <trkpt lat="34.987824" lon="127.300914">
        <ele>578.5</ele>
      </trkpt>
      <trkpt lat="34.987861" lon="127.300833">
        <ele>580.2</ele>
      </trkpt>
      <trkpt lat="34.987868" lon="127.300794">
        <ele>581.9</ele>
      </trkpt>
      <trkpt lat="34.987927" lon="127.300763">
        <ele>583.6</ele>
      </trkpt>
      <trkpt lat="34.987965" lon="127.300694">
        <ele>585.4</ele>
      </trkpt>
      <trkpt lat="34.987904" lon="127.300647">
        <ele>587.1</ele>
      </trkpt>
      <trkpt lat="34.987968" lon="127.300536">
        <ele>588.9</ele>
      </trkpt>
      <trkpt lat="34.98795" lon="127.300491">
        <ele>590.8</ele>
      </trkpt>
      <trkpt lat="34.987959" lon="127.300405">
        <ele>592.6</ele>
      </trkpt>
      <trkpt lat="34.987938" lon="127.300228">
        <ele>594.5</ele>
      </trkpt>
      <trkpt lat="34.987908" lon="127.300086">
        <ele>596.4</ele>
      </trkpt>
      <trkpt lat="34.987794" lon="127.300026">
        <ele>598.3</ele>
      </trkpt>
      <trkpt lat="34.987741" lon="127.299882">
        <ele>600.3</ele>
      </trkpt>
      <trkpt lat="34.98772" lon="127.299661">
        <ele>602.2</ele>
      </trkpt>
      <trkpt lat="34.987735" lon="127.299426">
        <ele>604.2</ele>
      </trkpt>
      <trkpt lat="34.987684" lon="127.299319">
        <ele>606.1</ele>
      </trkpt>
      <trkpt lat="34.987754" lon="127.29899">
        <ele>608.1</ele>
      </trkpt>
      <trkpt lat="34.9877" lon="127.298918">
        <ele>610.0</ele>
      </trkpt>
      <trkpt lat="34.987699" lon="127.29886">
        <ele>612.0</ele>
      </trkpt>
      <trkpt lat="34.987665" lon="127.298786">
        <ele>613.9</ele>
      </trkpt>
      <trkpt lat="34.987647" lon="127.298678">
        <ele>615.7</ele>
      </trkpt>
      <trkpt lat="34.987658" lon="127.298557">
        <ele>617.6</ele>
      </trkpt>
      <trkpt lat="34.987629" lon="127.298524">
        <ele>619.5</ele>
      </trkpt>
      <trkpt lat="34.987618" lon="127.298462">
        <ele>621.3</ele>
      </trkpt>
      <trkpt lat="34.987604" lon="127.298438">
        <ele>623.1</ele>
      </trkpt>
      <trkpt lat="34.987604" lon="127.298379">
        <ele>624.9</ele>
      </trkpt>
      <trkpt lat="34.987557" lon="127.298315">
        <ele>626.7</ele>
      </trkpt>
      <trkpt lat="34.987544" lon="127.298226">
        <ele>628.5</ele>
      </trkpt>
      <trkpt lat="34.987568" lon="127.298202">
        <ele>630.3</ele>
      </trkpt>
      <trkpt lat="34.987569" lon="127.29797">
        <ele>632.0</ele>
      </trkpt>
      <trkpt lat="34.98755" lon="127.297947">
        <ele>633.7</ele>
      </trkpt>
      <trkpt lat="34.987542" lon="127.297825">
        <ele>635.4</ele>
      </trkpt>
      <trkpt lat="34.987511" lon="127.297744">
        <ele>637.0</ele>
      </trkpt>
      <trkpt lat="34.987517" lon="127.297626">
        <ele>638.6</ele>
      </trkpt>
      <trkpt lat="34.987545" lon="127.297576">
        <ele>640.1</ele>
      </trkpt>
      <trkpt lat="34.98753" lon="127.297533">
        <ele>641.5</ele>
      </trkpt>
      <trkpt lat="34.987558" lon="127.297452">
        <ele>642.9</ele>
      </trkpt>
      <trkpt lat="34.987522" lon="127.29739">
        <ele>644.2</ele>
      </trkpt>
      <trkpt lat="34.987574" lon="127.297339">
        <ele>645.5</ele>
      </trkpt>
      <trkpt lat="34.987582" lon="127.297283">
        <ele>646.6</ele>
      </trkpt>
      <trkpt lat="34.987614" lon="127.29722">
        <ele>647.7</ele>
      </trkpt>
      <trkpt lat="34.987623" lon="127.297117">
        <ele>648.6</ele>
      </trkpt>
      <trkpt lat="34.987656" lon="127.297094">
        <ele>649.5</ele>
      </trkpt>
      <trkpt lat="34.987665" lon="127.297058">
        <ele>650.2</ele>
      </trkpt>
      <trkpt lat="34.987628" lon="127.296973">
        <ele>650.8</ele>
      </trkpt>
      <trkpt lat="34.987661" lon="127.296944">
        <ele>651.3</ele>
      </trkpt>
      <trkpt lat="34.987669" lon="127.29688">
        <ele>651.7</ele>
      </trkpt>
      <trkpt lat="34.987733" lon="127.29676">
        <ele>651.9</ele>
      </trkpt>
      <trkpt lat="34.987792" lon="127.296692">
        <ele>652.0</ele>
      </trkpt>
      <trkpt lat="34.987782" lon="127.296625">
        <ele>651.9</ele>
      </trkpt>
      <trkpt lat="34.987852" lon="127.296571">
        <ele>651.6</ele>
      </trkpt>
      <trkpt lat="34.987932" lon="127.296462">
        <ele>651.2</ele>
      </trkpt>
      <trkpt lat="34.987943" lon="127.296369">
        <ele>650.6</ele>
      </trkpt>
      <trkpt lat="34.987975" lon="127.296358">
        <ele>649.7</ele>
      </trkpt>
      <trkpt lat="34.988054" lon="127.296187">
        <ele>648.7</ele>
      </trkpt>
      <trkpt lat="34.98804" lon="127.296078">
        <ele>647.5</ele>
      </trkpt>
      <trkpt lat="34.988135" lon="127.295884">
        <ele>646.0</ele>
      </trkpt>
      <trkpt lat="34.98818" lon="127.295864">
        <ele>644.3</ele>
      </trkpt>
      <trkpt lat="34.988198" lon="127.295778">
        <ele>642.3</ele>
      </trkpt>
      <trkpt lat="34.988262" lon="127.295751">
        <ele>640.1</ele>
      </trkpt>
      <trkpt lat="34.988266" lon="127.295623">
        <ele>637.7</ele>
      </trkpt>
      <trkpt lat="34.98835" lon="127.295347">
        <ele>635.1</ele>
      </trkpt>
      <trkpt lat="34.988316" lon="127.295208">
        <ele>632.3</ele>
      </trkpt>
      <trkpt lat="34.988411" lon="127.295229">
        <ele>629.2</ele>
      </trkpt>
      <trkpt lat="34.988561" lon="127.295088">
        <ele>626.0</ele>
      </trkpt>
      <trkpt lat="34.988666" lon="127.294903">
        <ele>622.5</ele>
      </trkpt>
      <trkpt lat="34.988732" lon="127.294834">
        <ele>618.9</ele>
      </trkpt>
      <trkpt lat="34.988673" lon="127.294711">
        <ele>615.1</ele>
      </trkpt>
      <trkpt lat="34.988763" lon="127.294641">
        <ele>611.0</ele>
      </trkpt>
      <trkpt lat="34.988743" lon="127.294494">
        <ele>606.8</ele>
      </trkpt>
      <trkpt lat="34.988772" lon="127.294381">
        <ele>602.4</ele>
      </trkpt>
      <trkpt lat="34.988797" lon="127.294168">
        <ele>597.8</ele>
      </trkpt>
      <trkpt lat="34.988836" lon="127.294073">
        <ele>593.0</ele>
      </trkpt>
      <trkpt lat="34.98895" lon="127.294139">
        <ele>588.1</ele>
      </trkpt>
      <trkpt lat="34.989064" lon="127.293761">
        <ele>583.1</ele>
      </trkpt>
      <trkpt lat="34.98917" lon="127.293523">
        <ele>577.9</ele>
      </trkpt>
      <trkpt lat="34.989345" lon="127.293348">
        <ele>572.5</ele>
      </trkpt>
      <trkpt lat="34.98953" lon="127.293062">
        <ele>567.1</ele>
      </trkpt>
      <trkpt lat="34.989563" lon="127.2929">
        <ele>561.6</ele>
      </trkpt>
      <trkpt lat="34.989851" lon="127.292613">
        <ele>556.0</ele>
      </trkpt>
      <trkpt lat="34.989916" lon="127.292287">
        <ele>550.3</ele>
      </trkpt>
      <trkpt lat="34.989998" lon="127.292216">
        <ele>544.6</ele>
      </trkpt>
      <trkpt lat="34.990522" lon="127.29159">
        <ele>538.8</ele>
      </trkpt>
      <trkpt lat="34.990569" lon="127.29141">
        <ele>533.1</ele>
      </trkpt>
      <trkpt lat="34.990835" lon="127.291337">
        <ele>527.3</ele>
      </trkpt>
      <trkpt lat="34.990932" lon="127.291181">
        <ele>521.6</ele>
      </trkpt>
      <trkpt lat="34.991231" lon="127.290993">
        <ele>515.9</ele>
      </trkpt>
      <trkpt lat="34.991586" lon="127.290829">
        <ele>510.3</ele>
      </trkpt>
      <trkpt lat="34.991746" lon="127.290779">
        <ele>504.6</ele>
      </trkpt>
      <trkpt lat="34.991857" lon="127.290628">
        <ele>499.1</ele>
      </trkpt>
      <trkpt lat="34.99175369350488" lon="127.29051589965822">
        <ele>493.6</ele>
      </trkpt>
      <trkpt lat="34.991857" lon="127.290628">
        <ele>488.2</ele>
      </trkpt>
      <trkpt lat="34.991987" lon="127.290452">
        <ele>482.9</ele>
      </trkpt>
      <trkpt lat="34.992186" lon="127.29002">
        <ele>477.6</ele>
      </trkpt>
      <trkpt lat="34.992187" lon="127.289792">
        <ele>472.4</ele>
      </trkpt>
      <trkpt lat="34.992268" lon="127.289422">
        <ele>467.2</ele>
      </trkpt>
      <trkpt lat="34.99236" lon="127.289331">
        <ele>462.1</ele>
      </trkpt>
      <trkpt lat="34.992446" lon="127.288919">
        <ele>457.1</ele>
      </trkpt>
      <trkpt lat="34.992558" lon="127.28844">
        <ele>452.2</ele>
      </trkpt>
      <trkpt lat="34.992555" lon="127.288287">
        <ele>447.4</ele>
      </trkpt>
      <trkpt lat="34.992839" lon="127.288109">
        <ele>442.6</ele>
      </trkpt>
      <trkpt lat="34.992971" lon="127.287839">
        <ele>438.0</ele>
      </trkpt>
      <trkpt lat="34.993097" lon="127.287688">
        <ele>433.5</ele>
      </trkpt>
      <trkpt lat="34.993345" lon="127.287533">
        <ele>429.1</ele>
      </trkpt>
      <trkpt lat="34.993617" lon="127.287281">
        <ele>424.8</ele>
      </trkpt>
      <trkpt lat="34.993735" lon="127.287225">
        <ele>420.6</ele>
      </trkpt>
      <trkpt lat="34.994124" lon="127.286983">
        <ele>416.5</ele>
      </trkpt>
      <trkpt lat="34.994336" lon="127.286898">
        <ele>412.5</ele>
      </trkpt>
      <trkpt lat="34.994615" lon="127.286884">
        <ele>408.6</ele>
      </trkpt>
      <trkpt lat="34.994865" lon="127.286675">
        <ele>404.8</ele>
      </trkpt>
      <trkpt lat="34.994856" lon="127.286514">
        <ele>401.1</ele>
      </trkpt>
      <trkpt lat="34.99513" lon="127.286297">
        <ele>397.5</ele>
      </trkpt>
      <trkpt lat="34.995349" lon="127.286165">
        <ele>393.9</ele>
      </trkpt>
      <trkpt lat="34.995355" lon="127.285915">
        <ele>390.5</ele>
      </trkpt>
      <trkpt lat="34.995397" lon="127.285671">
        <ele>387.1</ele>
      </trkpt>
      <trkpt lat="34.995387" lon="127.285487">
        <ele>383.8</ele>
      </trkpt>
      <trkpt lat="34.995483" lon="127.285212">
        <ele>380.6</ele>
      </trkpt>
      <trkpt lat="34.995562" lon="127.285059">
        <ele>377.5</ele>
      </trkpt>
      <trkpt lat="34.995569" lon="127.284984">
        <ele>374.4</ele>
      </trkpt>
      <trkpt lat="34.99559" lon="127.285012">
        <ele>371.4</ele>
      </trkpt>
      <trkpt lat="34.995620952919545" lon="127.28497982025148">
        <ele>368.4</ele>
      </trkpt>
      <trkpt lat="34.99559" lon="127.285012">
        <ele>365.5</ele>
      </trkpt>
      <trkpt lat="34.995569" lon="127.284984">
        <ele>362.6</ele>
      </trkpt>
      <trkpt lat="34.995508" lon="127.284759">
        <ele>359.8</ele>
      </trkpt>
      <trkpt lat="34.99549" lon="127.28465">
        <ele>357.0</ele>
      </trkpt>
      <trkpt lat="34.995584" lon="127.284493">
        <ele>354.3</ele>
      </trkpt>
      <trkpt lat="34.995612" lon="127.284431">
        <ele>351.6</ele>
      </trkpt>
      <trkpt lat="34.995676" lon="127.28438">
        <ele>348.9</ele>
      </trkpt>
      <trkpt lat="34.995698" lon="127.284316">
        <ele>346.2</ele>
      </trkpt>
      <trkpt lat="34.99577" lon="127.284222">
        <ele>343.6</ele>
      </trkpt>
      <trkpt lat="34.995815" lon="127.284067">
        <ele>340.9</ele>
      </trkpt>
      <trkpt lat="34.995852" lon="127.283976">
        <ele>338.3</ele>
      </trkpt>
      <trkpt lat="34.995934" lon="127.283875">
        <ele>335.6</ele>
      </trkpt>
      <trkpt lat="34.996025" lon="127.283666">
        <ele>333.0</ele>
      </trkpt>
      <trkpt lat="34.996086" lon="127.283621">
        <ele>330.4</ele>
      </trkpt>
      <trkpt lat="34.996282" lon="127.28358">
        <ele>327.8</ele>
      </trkpt>
      <trkpt lat="34.996464" lon="127.283495">
        <ele>325.1</ele>
      </trkpt>
      <trkpt lat="34.996836" lon="127.283276">
        <ele>322.5</ele>
      </trkpt>
      <trkpt lat="34.997036" lon="127.283129">
        <ele>319.9</ele>
      </trkpt>
      <trkpt lat="34.997284" lon="127.282917">
        <ele>317.3</ele>
      </trkpt>
      <trkpt lat="34.997359" lon="127.282751">
        <ele>314.6</ele>
      </trkpt>
      <trkpt lat="34.997482" lon="127.28269">
        <ele>312.1</ele>
      </trkpt>
      <trkpt lat="34.997467" lon="127.282389">
        <ele>309.5</ele>
      </trkpt>
      <trkpt lat="34.997475" lon="127.282263">
        <ele>306.9</ele>
      </trkpt>
      <trkpt lat="34.997638" lon="127.282062">
        <ele>304.3</ele>
      </trkpt>
      <trkpt lat="34.997745" lon="127.281914">
        <ele>301.8</ele>
      </trkpt>
      <trkpt lat="34.997741" lon="127.281708">
        <ele>299.2</ele>
      </trkpt>
      <trkpt lat="34.997785" lon="127.281558">
        <ele>296.7</ele>
      </trkpt>
      <trkpt lat="34.997848" lon="127.28143">
        <ele>294.2</ele>
      </trkpt>
      <trkpt lat="34.997884" lon="127.281206">
        <ele>291.8</ele>
      </trkpt>
      <trkpt lat="34.997866" lon="127.281029">
        <ele>289.3</ele>
      </trkpt>
      <trkpt lat="34.997858" lon="127.280576">
        <ele>286.9</ele>
      </trkpt>
      <trkpt lat="34.997843" lon="127.280448">
        <ele>284.5</ele>
      </trkpt>
      <trkpt lat="34.997935" lon="127.280235">
        <ele>282.2</ele>
      </trkpt>
      <trkpt lat="34.998022" lon="127.27994">
        <ele>280.0</ele>
      </trkpt>
      <trkpt lat="34.998192" lon="127.279795">
        <ele>277.8</ele>
      </trkpt>
      <trkpt lat="34.998408" lon="127.27954">
        <ele>275.8</ele>
      </trkpt>
      <trkpt lat="34.998446" lon="127.279327">
        <ele>273.8</ele>
      </trkpt>
      <trkpt lat="34.998597" lon="127.279088">
        <ele>272.0</ele>
      </trkpt>
      <trkpt lat="34.998834" lon="127.278779">
        <ele>270.3</ele>
      </trkpt>
      <trkpt lat="34.998934" lon="127.278636">
        <ele>268.7</ele>
      </trkpt>
      <trkpt lat="34.99902" lon="127.278391">
        <ele>267.2</ele>
      </trkpt>
      <trkpt lat="34.999231" lon="127.278256">
        <ele>265.9</ele>
      </trkpt>
      <trkpt lat="34.999427" lon="127.278064">
        <ele>264.7</ele>
      </trkpt>
      <trkpt lat="34.999785" lon="127.277854">
        <ele>263.7</ele>
      </trkpt>
      <trkpt lat="34.999936" lon="127.277743">
        <ele>262.8</ele>
      </trkpt>
      <trkpt lat="35.000014" lon="127.27762">
        <ele>262.1</ele>
      </trkpt>
      <trkpt lat="35.000103" lon="127.277464">
        <ele>261.5</ele>
      </trkpt>
      <trkpt lat="35.000176" lon="127.277401">
        <ele>261.1</ele>
      </trkpt>
      <trkpt lat="35.000244" lon="127.277308">
        <ele>260.8</ele>
      </trkpt>
      <trkpt lat="35.000155960700425" lon="127.27721214294435">
        <ele>260.7</ele>
      </trkpt>
      <trkpt lat="35.000244" lon="127.277308">
        <ele>260.7</ele>
      </trkpt>
      <trkpt lat="35.000176" lon="127.277401">
        <ele>260.9</ele>
      </trkpt>
      <trkpt lat="35.000103" lon="127.277464">
        <ele>261.2</ele>
      </trkpt>
      <trkpt lat="35.000014" lon="127.27762">
        <ele>261.7</ele>
      </trkpt>
      <trkpt lat="34.999936" lon="127.277743">
        <ele>262.3</ele>
      </trkpt>
      <trkpt lat="34.999785" lon="127.277854">
        <ele>263.0</ele>
      </trkpt>
      <trkpt lat="34.999427" lon="127.278064">
        <ele>263.9</ele>
      </trkpt>
      <trkpt lat="34.999231" lon="127.278256">
        <ele>264.9</ele>
      </trkpt>
      <trkpt lat="34.99902" lon="127.278391">
        <ele>266.1</ele>
      </trkpt>
      <trkpt lat="34.998934" lon="127.278636">
        <ele>267.4</ele>
      </trkpt>
      <trkpt lat="34.998834" lon="127.278779">
        <ele>268.9</ele>
      </trkpt>
      <trkpt lat="34.998597" lon="127.279088">
        <ele>270.4</ele>
      </trkpt>
      <trkpt lat="34.998446" lon="127.279327">
        <ele>272.1</ele>
      </trkpt>
      <trkpt lat="34.998408" lon="127.27954">
        <ele>273.9</ele>
      </trkpt>
      <trkpt lat="34.998192" lon="127.279795">
        <ele>275.7</ele>
      </trkpt>
      <trkpt lat="34.998022" lon="127.27994">
        <ele>277.7</ele>
      </trkpt>
      <trkpt lat="34.997935" lon="127.280235">
        <ele>279.7</ele>
      </trkpt>
      <trkpt lat="34.997843" lon="127.280448">
        <ele>281.8</ele>
      </trkpt>
      <trkpt lat="34.997858" lon="127.280576">
        <ele>284.0</ele>
      </trkpt>
      <trkpt lat="34.997864" lon="127.280964">
        <ele>286.2</ele>
      </trkpt>
      <trkpt lat="34.99781817799657" lon="127.2809672355652">
        <ele>288.4</ele>
      </trkpt>
      <trkpt lat="34.997864" lon="127.280964">
        <ele>290.7</ele>
      </trkpt>
      <trkpt lat="34.997866" lon="127.281029">
        <ele>293.0</ele>
      </trkpt>
      <trkpt lat="34.997884" lon="127.281206">
        <ele>295.3</ele>
      </trkpt>
      <trkpt lat="34.997848" lon="127.28143">
        <ele>297.6</ele>
      </trkpt>
      <trkpt lat="34.997785" lon="127.281558">
        <ele>300.0</ele>
      </trkpt>
      <trkpt lat="34.997741" lon="127.281708">
        <ele>302.4</ele>
      </trkpt>
      <trkpt lat="34.997745" lon="127.281914">
        <ele>304.8</ele>
      </trkpt>
      <trkpt lat="34.997638" lon="127.282062">
        <ele>307.2</ele>
      </trkpt>
      <trkpt lat="34.997475" lon="127.282263">
        <ele>309.6</ele>
      </trkpt>
      <trkpt lat="34.997467" lon="127.282389">
        <ele>312.0</ele>
      </trkpt>
      <trkpt lat="34.997482" lon="127.28269">
        <ele>314.5</ele>
      </trkpt>
      <trkpt lat="34.997359" lon="127.282751">
        <ele>317.1</ele>
      </trkpt>
      <trkpt lat="34.997284" lon="127.282917">
        <ele>319.6</ele>
      </trkpt>
      <trkpt lat="34.997036" lon="127.283129">
        <ele>322.2</ele>
      </trkpt>
      <trkpt lat="34.996836" lon="127.283276">
        <ele>324.9</ele>
      </trkpt>
      <trkpt lat="34.996464" lon="127.283495">
        <ele>327.5</ele>
      </trkpt>
      <trkpt lat="34.996282" lon="127.28358">
        <ele>330.2</ele>
      </trkpt>
      <trkpt lat="34.996086" lon="127.283621">
        <ele>333.0</ele>
      </trkpt>
      <trkpt lat="34.996025" lon="127.283666">
        <ele>335.7</ele>
      </trkpt>
      <trkpt lat="34.995934" lon="127.283875">
        <ele>338.6</ele>
      </trkpt>
      <trkpt lat="34.995852" lon="127.283976">
        <ele>341.4</ele>
      </trkpt>
      <trkpt lat="34.995815" lon="127.284067">
        <ele>344.3</ele>
      </trkpt>
      <trkpt lat="34.99577" lon="127.284222">
        <ele>347.2</ele>
      </trkpt>
      <trkpt lat="34.995698" lon="127.284316">
        <ele>350.2</ele>
      </trkpt>
      <trkpt lat="34.995676" lon="127.28438">
        <ele>353.3</ele>
      </trkpt>
      <trkpt lat="34.995612" lon="127.284431">
        <ele>356.4</ele>
      </trkpt>
      <trkpt lat="34.995584" lon="127.284493">
        <ele>359.5</ele>
      </trkpt>
      <trkpt lat="34.99549" lon="127.28465">
        <ele>362.7</ele>
      </trkpt>
      <trkpt lat="34.995508" lon="127.284759">
        <ele>366.0</ele>
      </trkpt>
      <trkpt lat="34.995569" lon="127.284984">
        <ele>369.4</ele>
      </trkpt>
      <trkpt lat="34.99563" lon="127.285065">
        <ele>372.8</ele>
      </trkpt>
      <trkpt lat="34.99570884305529" lon="127.28497982025148">
        <ele>376.3</ele>
      </trkpt>
      <trkpt lat="34.99563" lon="127.285065">
        <ele>380.0</ele>
      </trkpt>
      <trkpt lat="34.995687" lon="127.285141">
        <ele>383.8</ele>
      </trkpt>
      <trkpt lat="34.995722" lon="127.28543">
        <ele>387.7</ele>
      </trkpt>
      <trkpt lat="34.995691" lon="127.285715">
        <ele>391.7</ele>
      </trkpt>
      <trkpt lat="34.995687" lon="127.285929">
        <ele>395.8</ele>
      </trkpt>
      <trkpt lat="34.995566" lon="127.286407">
        <ele>400.1</ele>
      </trkpt>
      <trkpt lat="34.99565" lon="127.286584">
        <ele>404.5</ele>
      </trkpt>
      <trkpt lat="34.995748" lon="127.287142">
        <ele>409.0</ele>
      </trkpt>
      <trkpt lat="34.995748" lon="127.287378">
        <ele>413.7</ele>
      </trkpt>
      <trkpt lat="34.995924" lon="127.287898">
        <ele>418.4</ele>
      </trkpt>
      <trkpt lat="34.996166" lon="127.288258">
        <ele>423.2</ele>
      </trkpt>
      <trkpt lat="34.996223" lon="127.288553">
        <ele>428.1</ele>
      </trkpt>
      <trkpt lat="34.996487" lon="127.288724">
        <ele>433.1</ele>
      </trkpt>
      <trkpt lat="34.996632" lon="127.289051">
        <ele>438.1</ele>
      </trkpt>
      <trkpt lat="34.996632" lon="127.289561">
        <ele>443.3</ele>
      </trkpt>
      <trkpt lat="34.996711" lon="127.289867">
        <ele>448.5</ele>
      </trkpt>
      <trkpt lat="34.996923" lon="127.29016">
        <ele>453.8</ele>
      </trkpt>
      <trkpt lat="34.997161" lon="127.290158">
        <ele>459.2</ele>
      </trkpt>
      <trkpt lat="34.997387" lon="127.29013">
        <ele>464.7</ele>
      </trkpt>
      <trkpt lat="34.997568" lon="127.290124">
        <ele>470.2</ele>
      </trkpt>
      <trkpt lat="34.99793" lon="127.290266">
        <ele>475.8</ele>
      </trkpt>
      <trkpt lat="34.998271" lon="127.290829">
        <ele>481.5</ele>
      </trkpt>
      <trkpt lat="34.998240038460615" lon="127.29085922241212">
        <ele>487.2</ele>
      </trkpt>
      <trkpt lat="34.998271" lon="127.290829">
        <ele>493.0</ele>
      </trkpt>
      <trkpt lat="34.998315" lon="127.290902">
        <ele>498.9</ele>
      </trkpt>
      <trkpt lat="34.998535" lon="127.291106">
        <ele>504.9</ele>
      </trkpt>
      <trkpt lat="34.998592" lon="127.291567">
        <ele>511.0</ele>
      </trkpt>
      <trkpt lat="34.998535" lon="127.291895">
        <ele>517.1</ele>
      </trkpt>
      <trkpt lat="34.998672" lon="127.292314">
        <ele>523.3</ele>
      </trkpt>
      <trkpt lat="34.998707" lon="127.292738">
        <ele>529.5</ele>
      </trkpt>
      <trkpt lat="34.99868" lon="127.293271">
        <ele>535.8</ele>
      </trkpt>
      <trkpt lat="34.99876" lon="127.293681">
        <ele>542.1</ele>
      </trkpt>
      <trkpt lat="34.998849" lon="127.293902">
        <ele>548.4</ele>
      </trkpt>
      <trkpt lat="34.999214" lon="127.29409">
        <ele>554.7</ele>
      </trkpt>
      <trkpt lat="34.999288" lon="127.294339">
        <ele>561.1</ele>
      </trkpt>
      <trkpt lat="34.999425" lon="127.294758">
        <ele>567.4</ele>
      </trkpt>
      <trkpt lat="34.999406" lon="127.295213">
        <ele>573.7</ele>
      </trkpt>
      <trkpt lat="34.999506" lon="127.295416">
        <ele>580.0</ele>
      </trkpt>
      <trkpt lat="34.999358" lon="127.295842">
        <ele>586.3</ele>
      </trkpt>
      <trkpt lat="34.999392" lon="127.296061">
        <ele>592.5</ele>
      </trkpt>
      <trkpt lat="34.999237" lon="127.296471">
        <ele>598.7</ele>
      </trkpt>
      <trkpt lat="34.999231" lon="127.296699">
        <ele>604.9</ele>
      </trkpt>
      <trkpt lat="34.99898" lon="127.297065">
        <ele>611.0</ele>
      </trkpt>
      <trkpt lat="34.998932" lon="127.297286">
        <ele>617.1</ele>
      </trkpt>
      <trkpt lat="34.998756" lon="127.297448">
        <ele>623.1</ele>
      </trkpt>
      <trkpt lat="34.998649" lon="127.297636">
        <ele>629.1</ele>
      </trkpt>
      <trkpt lat="34.998496" lon="127.297757">
        <ele>634.9</ele>
      </trkpt>
      <trkpt lat="34.998371" lon="127.298181">
        <ele>640.7</ele>
      </trkpt>
      <trkpt lat="34.998357" lon="127.298339">
        <ele>646.3</ele>
      </trkpt>
      <trkpt lat="34.998248" lon="127.298573">
        <ele>651.9</ele>
      </trkpt>
      <trkpt lat="34.998144" lon="127.299011">
        <ele>657.3</ele>
      </trkpt>
      <trkpt lat="34.998134" lon="127.299231">
        <ele>662.5</ele>
      </trkpt>
      <trkpt lat="34.998029" lon="127.299483">
        <ele>667.6</ele>
      </trkpt>
      <trkpt lat="34.997938" lon="127.2996">
        <ele>672.5</ele>
      </trkpt>
      <trkpt lat="34.997898" lon="127.29974">
        <ele>677.2</ele>
      </trkpt>
      <trkpt lat="34.997878" lon="127.299882">
        <ele>681.7</ele>
      </trkpt>
      <trkpt lat="34.997913" lon="127.300188">
        <ele>685.9</ele>
      </trkpt>
      <trkpt lat="34.997812" lon="127.300381">
        <ele>690.0</ele>
      </trkpt>
      <trkpt lat="34.997745" lon="127.300854">
        <ele>693.8</ele>
      </trkpt>
      <trkpt lat="34.997726" lon="127.3011">
        <ele>697.3</ele>
      </trkpt>
      <trkpt lat="34.997684" lon="127.301365">
        <ele>700.5</ele>
      </trkpt>
      <trkpt lat="34.99762482455705" lon="127.30135202407838">
        <ele>703.5</ele>
      </trkpt>
      <trkpt lat="34.997684" lon="127.301365">
        <ele>706.2</ele>
      </trkpt>
      <trkpt lat="34.997626" lon="127.301738">
        <ele>708.5</ele>
      </trkpt>
      <trkpt lat="34.997605" lon="127.301931">
        <ele>710.6</ele>
      </trkpt>
      <trkpt lat="34.997317" lon="127.302039">
        <ele>712.4</ele>
      </trkpt>
      <trkpt lat="34.997271" lon="127.302171">
        <ele>713.8</ele>
      </trkpt>
      <trkpt lat="34.99733" lon="127.302446">
        <ele>714.9</ele>
      </trkpt>
      <trkpt lat="34.997391" lon="127.302598">
        <ele>715.7</ele>
      </trkpt>
      <trkpt lat="34.997537" lon="127.30278">
        <ele>716.2</ele>
      </trkpt>
      <trkpt lat="34.997471" lon="127.302859">
        <ele>716.4</ele>
      </trkpt>
      <trkpt lat="34.99741" lon="127.302999">
        <ele>716.3</ele>
      </trkpt>
      <trkpt lat="34.997269" lon="127.303155">
        <ele>715.9</ele>
      </trkpt>
      <trkpt lat="34.997216" lon="127.303246">
        <ele>715.2</ele>
      </trkpt>
      <trkpt lat="34.997163" lon="127.303374">
        <ele>714.2</ele>
      </trkpt>
      <trkpt lat="34.997076" lon="127.303804">
        <ele>712.9</ele>
      </trkpt>
      <trkpt lat="34.997025" lon="127.30401">
        <ele>711.4</ele>
      </trkpt>
      <trkpt lat="34.996913" lon="127.304201">
        <ele>709.7</ele>
      </trkpt>
      <trkpt lat="34.996922" lon="127.304281">
        <ele>707.7</ele>
      </trkpt>
      <trkpt lat="34.996903" lon="127.304402">
        <ele>705.6</ele>
      </trkpt>
      <trkpt lat="34.996905" lon="127.304559">
        <ele>703.3</ele>
      </trkpt>
      <trkpt lat="34.996845" lon="127.304716">
        <ele>700.9</ele>
      </trkpt>
      <trkpt lat="34.996869" lon="127.304855">
        <ele>698.3</ele>
      </trkpt>
      <trkpt lat="34.996827" lon="127.305311">
        <ele>695.7</ele>
      </trkpt>
      <trkpt lat="34.996873" lon="127.305464">
        <ele>692.9</ele>
      </trkpt>
      <trkpt lat="34.996933" lon="127.30578">
        <ele>690.0</ele>
      </trkpt>
      <trkpt lat="34.996919" lon="127.306059">
        <ele>687.0</ele>
      </trkpt>
      <trkpt lat="34.99695" lon="127.306301">
        <ele>684.0</ele>
      </trkpt>
      <trkpt lat="34.996944" lon="127.306601">
        <ele>680.8</ele>
      </trkpt>
      <trkpt lat="34.996851" lon="127.306821">
        <ele>677.6</ele>
      </trkpt>
      <trkpt lat="34.996854" lon="127.307135">
        <ele>674.4</ele>
      </trkpt>
      <trkpt lat="34.996928" lon="127.307543">
        <ele>671.2</ele>
      </trkpt>
      <trkpt lat="34.997071" lon="127.307738">
        <ele>668.1</ele>
      </trkpt>
      <trkpt lat="34.997096" lon="127.307822">
        <ele>664.9</ele>
      </trkpt>
      <trkpt lat="34.997138" lon="127.308261">
        <ele>661.8</ele>
      </trkpt>
      <trkpt lat="34.997085" lon="127.308332">
        <ele>658.7</ele>
      </trkpt>
      <trkpt lat="34.997079916951485" lon="127.3083257675171">
        <ele>655.6</ele>
      </trkpt>
      <trkpt lat="34.997085" lon="127.308332">
        <ele>652.7</ele>
      </trkpt>
      <trkpt lat="34.996869" lon="127.308626">
        <ele>649.7</ele>
      </trkpt>
      <trkpt lat="34.996645" lon="127.308857">
        <ele>646.9</ele>
      </trkpt>
      <trkpt lat="34.996366" lon="127.309198">
        <ele>644.1</ele>
      </trkpt>
      <trkpt lat="34.996197" lon="127.309283">
        <ele>641.4</ele>
      </trkpt>
      <trkpt lat="34.995893" lon="127.309348">
        <ele>638.7</ele>
      </trkpt>
      <trkpt lat="34.995674" lon="127.309431">
        <ele>636.2</ele>
      </trkpt>
      <trkpt lat="34.995463" lon="127.309578">
        <ele>633.7</ele>
      </trkpt>
      <trkpt lat="34.995212" lon="127.309828">
        <ele>631.3</ele>
      </trkpt>
      <trkpt lat="34.995148" lon="127.30988">
        <ele>629.0</ele>
      </trkpt>
      <trkpt lat="34.995341" lon="127.310127">
        <ele>626.7</ele>
      </trkpt>
      <trkpt lat="34.995428" lon="127.310195">
        <ele>624.5</ele>
      </trkpt>
      <trkpt lat="34.995454" lon="127.310365">
        <ele>622.3</ele>
      </trkpt>
      <trkpt lat="34.995523" lon="127.310553">
        <ele>620.1</ele>
      </trkpt>
      <trkpt lat="34.99553" lon="127.310667">
        <ele>618.0</ele>
      </trkpt>
      <trkpt lat="34.995563" lon="127.310712">
        <ele>615.8</ele>
      </trkpt>
      <trkpt lat="34.995551" lon="127.310899">
        <ele>613.7</ele>
      </trkpt>
      <trkpt lat="34.995759" lon="127.311536">
        <ele>611.5</ele>
      </trkpt>
      <trkpt lat="34.995962" lon="127.311904">
        <ele>609.4</ele>
      </trkpt>
      <trkpt lat="34.996159" lon="127.312336">
        <ele>607.3</ele>
      </trkpt>
      <trkpt lat="34.996159" lon="127.312443">
        <ele>605.2</ele>
      </trkpt>
      <trkpt lat="34.996113" lon="127.312601">
        <ele>603.1</ele>
      </trkpt>
      <trkpt lat="34.996203" lon="127.312867">
        <ele>601.0</ele>
      </trkpt>
      <trkpt lat="34.996256" lon="127.312987">
        <ele>598.8</ele>
      </trkpt>
      <trkpt lat="34.996469" lon="127.31321">
        <ele>596.6</ele>
      </trkpt>
      <trkpt lat="34.996515" lon="127.313317">
        <ele>594.3</ele>
      </trkpt>
      <trkpt lat="34.996496" lon="127.313572">
        <ele>591.9</ele>
      </trkpt>
      <trkpt lat="34.996414" lon="127.313814">
        <ele>589.4</ele>
      </trkpt>
      <trkpt lat="34.996419" lon="127.313856">
        <ele>586.8</ele>
      </trkpt>
      <trkpt lat="34.99639438287469" lon="127.31386184692384">
        <ele>584.1</ele>
      </trkpt>
      <trkpt lat="34.996419" lon="127.313856">
        <ele>581.3</ele>
      </trkpt>
      <trkpt lat="34.996427" lon="127.313916">
        <ele>578.4</ele>
      </trkpt>
      <trkpt lat="34.996583" lon="127.314162">
        <ele>575.3</ele>
      </trkpt>
      <trkpt lat="34.996722" lon="127.314296">
        <ele>572.2</ele>
      </trkpt>
      <trkpt lat="34.996728" lon="127.314476">
        <ele>568.9</ele>
      </trkpt>
      <trkpt lat="34.996702" lon="127.314876">
        <ele>565.4</ele>
      </trkpt>
      <trkpt lat="34.996709" lon="127.315072">
        <ele>561.8</ele>
      </trkpt>
      <trkpt lat="34.996786" lon="127.315332">
        <ele>558.1</ele>
      </trkpt>
      <trkpt lat="34.99679" lon="127.315487">
        <ele>554.2</ele>
      </trkpt>
      <trkpt lat="34.99663" lon="127.315825">
        <ele>550.2</ele>
      </trkpt>
      <trkpt lat="34.996605" lon="127.316043">
        <ele>546.0</ele>
      </trkpt>
      <trkpt lat="34.996625" lon="127.316163">
        <ele>541.8</ele>
      </trkpt>
      <trkpt lat="34.996922" lon="127.316831">
        <ele>537.4</ele>
      </trkpt>
      <trkpt lat="34.997047" lon="127.316887">
        <ele>532.9</ele>
      </trkpt>
      <trkpt lat="34.997421" lon="127.316992">
        <ele>528.3</ele>
      </trkpt>
      <trkpt lat="34.997557" lon="127.317019">
        <ele>523.5</ele>
      </trkpt>
      <trkpt lat="34.997631" lon="127.317201">
        <ele>518.6</ele>
      </trkpt>
      <trkpt lat="34.997585" lon="127.317317">
        <ele>513.5</ele>
      </trkpt>
      <trkpt lat="34.997502" lon="127.317475">
        <ele>508.3</ele>
      </trkpt>
      <trkpt lat="34.997337" lon="127.317719">
        <ele>502.9</ele>
      </trkpt>
      <trkpt lat="34.996972" lon="127.318105">
        <ele>497.3</ele>
      </trkpt>
      <trkpt lat="34.996627" lon="127.318347">
        <ele>491.7</ele>
      </trkpt>
      <trkpt lat="34.996513" lon="127.318478">
        <ele>485.9</ele>
      </trkpt>
      <trkpt lat="34.996324" lon="127.318883">
        <ele>480.1</ele>
      </trkpt>
      <trkpt lat="34.996263" lon="127.319189">
        <ele>474.3</ele>
      </trkpt>
      <trkpt lat="34.996146" lon="127.31972">
        <ele>468.4</ele>
      </trkpt>
      <trkpt lat="34.995942" lon="127.319929">
        <ele>462.5</ele>
      </trkpt>
      <trkpt lat="34.99568" lon="127.320047">
        <ele>456.7</ele>
      </trkpt>
      <trkpt lat="34.995447" lon="127.320098">
        <ele>450.9</ele>
      </trkpt>
      <trkpt lat="34.995276" lon="127.32017">
        <ele>445.1</ele>
      </trkpt>
      <trkpt lat="34.995173" lon="127.320339">
        <ele>439.4</ele>
      </trkpt>
      <trkpt lat="34.995148" lon="127.320394">
        <ele>433.7</ele>
      </trkpt>
      <trkpt lat="34.99523423520097" lon="127.32044935226442">
        <ele>428.2</ele>
      </trkpt>
      <trkpt lat="34.995148" lon="127.320394">
        <ele>422.7</ele>
      </trkpt>
      <trkpt lat="34.994993" lon="127.320752">
        <ele>417.2</ele>
      </trkpt>
      <trkpt lat="34.99499" lon="127.321335">
        <ele>411.9</ele>
      </trkpt>
      <trkpt lat="34.994905" lon="127.321517">
        <ele>406.6</ele>
      </trkpt>
      <trkpt lat="34.994858" lon="127.32167">
        <ele>401.4</ele>
      </trkpt>
      <trkpt lat="34.994876" lon="127.321855">
        <ele>396.4</ele>
      </trkpt>
      <trkpt lat="34.994918" lon="127.321914">
        <ele>391.4</ele>
      </trkpt>
      <trkpt lat="34.995032" lon="127.321997">
        <ele>386.6</ele>
      </trkpt>
      <trkpt lat="34.995151" lon="127.322016">
        <ele>381.9</ele>
      </trkpt>
      <trkpt lat="34.995256" lon="127.322061">
        <ele>377.2</ele>
      </trkpt>
      <trkpt lat="34.995333" lon="127.322238">
        <ele>372.6</ele>
      </trkpt>
      <trkpt lat="34.995533" lon="127.322826">
        <ele>368.1</ele>
      </trkpt>
      <trkpt lat="34.995538" lon="127.323102">
        <ele>363.6</ele>
      </trkpt>
      <trkpt lat="34.995331" lon="127.323783">
        <ele>359.3</ele>
      </trkpt>
      <trkpt lat="34.995157" lon="127.324129">
        <ele>355.1</ele>
      </trkpt>
      <trkpt lat="34.995133" lon="127.324234">
        <ele>351.0</ele>
      </trkpt>
      <trkpt lat="34.995208" lon="127.324306">
        <ele>347.1</ele>
      </trkpt>
      <trkpt lat="34.995349" lon="127.324408">
        <ele>343.2</ele>
      </trkpt>
      <trkpt lat="34.995344" lon="127.32451">
        <ele>339.5</ele>
      </trkpt>
      <trkpt lat="34.995261" lon="127.324827">
        <ele>335.8</ele>
      </trkpt>
      <trkpt lat="34.995182" lon="127.325036">
        <ele>332.3</ele>
      </trkpt>
      <trkpt lat="34.995164" lon="127.325315">
        <ele>328.8</ele>
      </trkpt>
      <trkpt lat="34.995179" lon="127.325712">
        <ele>325.3</ele>
      </trkpt>
      <trkpt lat="34.995313" lon="127.32594">
        <ele>322.0</ele>
      </trkpt>
      <trkpt lat="34.995366" lon="127.326053">
        <ele>318.6</ele>
      </trkpt>
      <trkpt lat="34.995375" lon="127.32642">
        <ele>315.4</ele>
      </trkpt>
      <trkpt lat="34.995377" lon="127.326492">
        <ele>312.2</ele>
      </trkpt>
      <trkpt lat="34.995436" lon="127.326684">
        <ele>309.0</ele>
      </trkpt>
      <trkpt lat="34.995305" lon="127.326906">
        <ele>305.9</ele>
      </trkpt>
      <trkpt lat="34.995378" lon="127.327134">
        <ele>302.8</ele>
      </trkpt>
      <trkpt lat="34.9954" lon="127.327485">
        <ele>299.7</ele>
      </trkpt>
      <trkpt lat="34.9953924381249" lon="127.3274874687195">
        <ele>296.7</ele>
      </trkpt>
      <trkpt lat="34.9954" lon="127.327485">
        <ele>293.7</ele>
      </trkpt>
      <trkpt lat="34.995401" lon="127.327497">
        <ele>290.8</ele>
      </trkpt>
      <trkpt lat="34.995389" lon="127.327603">
        <ele>287.9</ele>
      </trkpt>
      <trkpt lat="34.995361" lon="127.327825">
        <ele>285.0</ele>
      </trkpt>
      <trkpt lat="34.995382" lon="127.328155">
        <ele>282.1</ele>
      </trkpt>
      <trkpt lat="34.995349" lon="127.328306">
        <ele>279.2</ele>
      </trkpt>
      <trkpt lat="34.995344" lon="127.328563">
        <ele>276.4</ele>
      </trkpt>
      <trkpt lat="34.995399" lon="127.329056">
        <ele>273.6</ele>
      </trkpt>
      <trkpt lat="34.995386" lon="127.329396">
        <ele>270.8</ele>
      </trkpt>
      <trkpt lat="34.995354" lon="127.329592">
        <ele>268.1</ele>
      </trkpt>
      <trkpt lat="34.995391" lon="127.329682">
        <ele>265.5</ele>
      </trkpt>
      <trkpt lat="34.995409" lon="127.330138">
        <ele>262.9</ele>
      </trkpt>
      <trkpt lat="34.995638" lon="127.330275">
        <ele>260.4</ele>
      </trkpt>
      <trkpt lat="34.995661" lon="127.33034">
        <ele>258.0</ele>
      </trkpt>
      <trkpt lat="34.995671" lon="127.330367">
        <ele>255.6</ele>
      </trkpt>
      <trkpt lat="34.995619" lon="127.330585">
        <ele>253.3</ele>
      </trkpt>
      <trkpt lat="34.995525" lon="127.330633">
        <ele>251.0</ele>
      </trkpt>
      <trkpt lat="34.995292" lon="127.330875">
        <ele>248.8</ele>
      </trkpt>
      <trkpt lat="34.995246" lon="127.330905">
        <ele>246.7</ele>
      </trkpt>
      <trkpt lat="34.99523423520097" lon="127.33087778091432">
        <ele>244.7</ele>
      </trkpt>
      <trkpt lat="34.995246" lon="127.330905">
        <ele>242.7</ele>
      </trkpt>
      <trkpt lat="34.995196" lon="127.33094">
        <ele>240.8</ele>
      </trkpt>
      <trkpt lat="34.995055" lon="127.331095">
        <ele>239.0</ele>
      </trkpt>
      <trkpt lat="34.994892" lon="127.331453">
        <ele>237.3</ele>
      </trkpt>
      <trkpt lat="34.99487" lon="127.331522">
        <ele>235.6</ele>
      </trkpt>
      <trkpt lat="34.99488" lon="127.331579">
        <ele>234.0</ele>
      </trkpt>
      <trkpt lat="34.994846" lon="127.331948">
        <ele>232.4</ele>
      </trkpt>
      <trkpt lat="34.994691" lon="127.331977">
        <ele>230.9</ele>
      </trkpt>
      <trkpt lat="34.994618" lon="127.332089">
        <ele>229.5</ele>
      </trkpt>
      <trkpt lat="34.994583" lon="127.332422">
        <ele>228.2</ele>
      </trkpt>
      <trkpt lat="34.994518" lon="127.332698">
        <ele>226.9</ele>
      </trkpt>
      <trkpt lat="34.994421" lon="127.333045">
        <ele>225.6</ele>
      </trkpt>
      <trkpt lat="34.994361" lon="127.33316">
        <ele>224.4</ele>
      </trkpt>
      <trkpt lat="34.994237" lon="127.333268">
        <ele>223.7</ele>
      </trkpt>
      <trkpt lat="34.994044" lon="127.333479">
        <ele>223.0</ele>
      </trkpt>
      <trkpt lat="34.993679" lon="127.333892">
        <ele>222.3</ele>
      </trkpt>
      <trkpt lat="34.99370492450343" lon="127.33392477035524">
        <ele>221.6</ele>
      </trkpt>
      <trkpt lat="34.993679" lon="127.333892">
        <ele>221.0</ele>
      </trkpt>
      <trkpt lat="34.993664" lon="127.33391">
        <ele>220.4</ele>
      </trkpt>
      <trkpt lat="34.993622" lon="127.333991">
        <ele>219.8</ele>
      </trkpt>
      <trkpt lat="34.993648" lon="127.334279">
        <ele>219.3</ele>
      </trkpt>
      <trkpt lat="34.993761" lon="127.334676">
        <ele>218.8</ele>
      </trkpt>
      <trkpt lat="34.993782" lon="127.334725">
        <ele>218.3</ele>
      </trkpt>
      <trkpt lat="34.993792816696796" lon="127.33471870422365">
        <ele>217.9</ele>
      </trkpt>
      <trkpt lat="34.993782" lon="127.334725">
        <ele>217.4</ele>
      </trkpt>
      <trkpt lat="34.993906" lon="127.335001">
        <ele>217.0</ele>
      </trkpt>
      <trkpt lat="34.993998" lon="127.335138">
        <ele>216.7</ele>
      </trkpt>
      <trkpt lat="34.99396860080034" lon="127.33516931533815">
        <ele>216.3</ele>
      </trkpt>
    </trkseg>
  </trk>
</gpx>