<?xml version="1.0" encoding="UTF-8"?>
<gpx creator="Suunto app" version="1.1" schemaLocation="http://www.topografix.com/GPX/1/1 http://www.topografix.com/GPX/1/1/gpx.xsd http://www.garmin.com/xmlschemas/GpxExtensions/v3 http://www.garmin.com/xmlschemas/GpxExtensionsv3.xsd http://www.garmin.com/xmlschemas/TrackPointExtension/v1 http://www.garmin.com/xmlschemas/TrackPointExtensionv1.xsd http://www.garmin.com/xmlschemas/PowerExtension/v1 http://www.garmin.com/xmlschemas/PowerExtensionv1.xsd http://www.topografix.com/GPX/gpx_style/0/2 http://www.topografix.com/GPX/gpx_style/0/2/gpx_style.xsd" xmlns="http://www.topografix.com/GPX/1/1" xmlns:xsi="http://www.w3.org/2001/XMLSchema-instance" xsi:schemaLocation="http://www.topografix.com/GPX/1/1 http://www.topografix.com/GPX/1/1/gpx.xsd http://www.garmin.com/xmlschemas/GpxExtensions/v3 http://www.garmin.com/xmlschemas/GpxExtensionsv3.xsd http://www.garmin.com/xmlschemas/TrackPointExtension/v1 http://www.garmin.com/xmlschemas/TrackPointExtensionv1.xsd http://www.garmin.com/xmlschemas/PowerExtension/v1 http://www.garmin.com/xmlschemas/PowerExtensionv1.xsd http://www.topografix.com/GPX/gpx_style/0/2 http://www.topografix.com/GPX/gpx_style/0/2/gpx_style.xsd" xmlns:gpxtpx="http://www.garmin.com/xmlschemas/TrackPointExtension/v1" xmlns:gpxx="http://www.garmin.com/xmlschemas/GpxExtensions/v3" xmlns:gpxpx="http://www.garmin.com/xmlschemas/PowerExtension/v1" xmlns:gpx_style="http://www.topografix.com/GPX/gpx_style/0/2">
  <metadata>
    <name>SUUNTO SEOUL TRAIL 22K</name>
    <desc>순토 서울 트레일22K 한양도성길</desc>
    <author>
      <name>gpx.studio</name>
      <link href="https://gpx.studio"/>
    </author>
  </metadata>
  <wpt lat="37.573602" lon="126.964059">
    <ele>88.29813742153978</ele>
    <name>편의점</name>
    <cmt>세븐일레븐</cmt>
    <desc>세븐일레븐</desc>
    <sym>Convenience Store</sym>
  </wpt>
  <wpt lat="37.551803" lon="126.987819">
    <ele>268.68163008947596</ele>
    <name>아리수</name>
    <cmt>물보충</cmt>
    <desc>물보충</desc>
    <sym>Drinking Water</sym>
  </wpt>
  <wpt lat="37.571665" lon="127.009836">
    <ele>27.47066983174549</ele>
    <name>편의점</name>
    <cmt>CU</cmt>
    <desc>CU</desc>
    <sym>Convenience Store</sym>
  </wpt>
  <wpt lat="37.588974" lon="127.003814">
    <ele>52.47452409276823</ele>
    <name>편의점</name>
    <cmt>GS25</cmt>
    <desc>GS25</desc>
    <sym>Convenience Store</sym>
  </wpt>
  <wpt lat="37.551378" lon="126.988013">
    <ele>261.02646878022017</ele>
    <name>편의점</name>
    <cmt>세븐일레븐</cmt>
    <desc>세븐일레븐</desc>
    <sym>Convenience Store</sym>
  </wpt>
  <trk>
    <name>SUUNTO SEOUL TRAIL 22K</name>
    <desc>순토 서울 트레일22K 한양도성길</desc>
    <trkseg>
      <trkpt lat="37.593216" lon="126.952382">
        <ele>97.5</ele>
        <extensions>
          <gpxtpx:TrackPointExtension>
            <gpxtpx:Extensions>
              <reversedirection>yes</reversedirection>
              <highway>footway</highway>
            </gpxtpx:Extensions>
          </gpxtpx:TrackPointExtension>
        </extensions>
      </trkpt>
      <trkpt lat="37.593401" lon="126.952344">
        <ele>96.5</ele>
        <extensions>
          <gpxtpx:TrackPointExtension>
            <gpxtpx:Extensions>
              <reversedirection>yes</reversedirection>
              <highway>footway</highway>
            </gpxtpx:Extensions>
          </gpxtpx:TrackPointExtension>
        </extensions>
      </trkpt>
      <trkpt lat="37.593643" lon="126.952389">
        <ele>95.25</ele>
      </trkpt>
      <trkpt lat="37.59365" lon="126.952427">
        <ele>96.4</ele>
      </trkpt>
      <trkpt lat="37.593582" lon="126.952472">
        <ele>98.4</ele>
      </trkpt>
      <trkpt lat="37.593585" lon="126.952505">
        <ele>98.6</ele>
      </trkpt>
      <trkpt lat="37.593637" lon="126.952692">
        <ele>104.2</ele>
      </trkpt>
      <trkpt lat="37.593757" lon="126.952882">
        <ele>114.4</ele>
      </trkpt>
      <trkpt lat="37.59355" lon="126.952872">
        <ele>115.8</ele>
      </trkpt>
      <trkpt lat="37.593507" lon="126.95294">
        <ele>117.2</ele>
      </trkpt>
      <trkpt lat="37.593307" lon="126.95294">
        <ele>118.4</ele>
      </trkpt>
      <trkpt lat="37.593237" lon="126.953042">
        <ele>119</ele>
      </trkpt>
      <trkpt lat="37.592982" lon="126.953082">
        <ele>118.6</ele>
      </trkpt>
      <trkpt lat="37.59275" lon="126.953265">
        <ele>119.6</ele>
      </trkpt>
      <trkpt lat="37.592637" lon="126.953252">
        <ele>119.6</ele>
      </trkpt>
      <trkpt lat="37.592392" lon="126.953342">
        <ele>120.2</ele>
      </trkpt>
      <trkpt lat="37.592205" lon="126.953202">
        <ele>117.6</ele>
      </trkpt>
      <trkpt lat="37.592062" lon="126.953267">
        <ele>117.8</ele>
      </trkpt>
      <trkpt lat="37.591752" lon="126.953237">
        <ele>119.2</ele>
      </trkpt>
      <trkpt lat="37.59167" lon="126.953302">
        <ele>121.2</ele>
      </trkpt>
      <trkpt lat="37.591422" lon="126.953237">
        <ele>125.4</ele>
      </trkpt>
      <trkpt lat="37.591217" lon="126.953407">
        <ele>129</ele>
      </trkpt>
      <trkpt lat="37.591072" lon="126.95347">
        <ele>131.8</ele>
      </trkpt>
      <trkpt lat="37.590982" lon="126.953707">
        <ele>136.2</ele>
      </trkpt>
      <trkpt lat="37.590822" lon="126.95426">
        <ele>136.8</ele>
      </trkpt>
      <trkpt lat="37.590807" lon="126.954752">
        <ele>143.8</ele>
      </trkpt>
      <trkpt lat="37.590832" lon="126.954927">
        <ele>149.2</ele>
      </trkpt>
      <trkpt lat="37.590965" lon="126.954967">
        <ele>152.6</ele>
      </trkpt>
      <trkpt lat="37.591115" lon="126.95514">
        <ele>158.2</ele>
      </trkpt>
      <trkpt lat="37.591267" lon="126.955245">
        <ele>162.8</ele>
      </trkpt>
      <trkpt lat="37.591425" lon="126.955182">
        <ele>166.8</ele>
      </trkpt>
      <trkpt lat="37.591582" lon="126.955322">
        <ele>172.4</ele>
      </trkpt>
      <trkpt lat="37.59174" lon="126.955222">
        <ele>180.6</ele>
      </trkpt>
      <trkpt lat="37.591773" lon="126.95532">
        <ele>183.4</ele>
      </trkpt>
      <trkpt lat="37.591773" lon="126.955467">
        <ele>185.6</ele>
      </trkpt>
      <trkpt lat="37.591895" lon="126.955655">
        <ele>190.4</ele>
      </trkpt>
      <trkpt lat="37.591742" lon="126.95592">
        <ele>194.8</ele>
      </trkpt>
      <trkpt lat="37.591555" lon="126.956135">
        <ele>201</ele>
      </trkpt>
      <trkpt lat="37.591572" lon="126.956277">
        <ele>205</ele>
      </trkpt>
      <trkpt lat="37.591507" lon="126.956497">
        <ele>209.4</ele>
      </trkpt>
      <trkpt lat="37.591532" lon="126.956572">
        <ele>211.6</ele>
      </trkpt>
      <trkpt lat="37.591477" lon="126.956707">
        <ele>217.6</ele>
      </trkpt>
      <trkpt lat="37.591502" lon="126.956742">
        <ele>218.8</ele>
      </trkpt>
      <trkpt lat="37.591487" lon="126.95678">
        <ele>221.4</ele>
      </trkpt>
      <trkpt lat="37.591527" lon="126.956977">
        <ele>226.8</ele>
      </trkpt>
      <trkpt lat="37.591497" lon="126.957215">
        <ele>235.2</ele>
      </trkpt>
      <trkpt lat="37.59154" lon="126.957445">
        <ele>239.8</ele>
      </trkpt>
      <trkpt lat="37.59145" lon="126.957752">
        <ele>248.4</ele>
      </trkpt>
      <trkpt lat="37.591437" lon="126.957927">
        <ele>255.4</ele>
      </trkpt>
      <trkpt lat="37.591367" lon="126.958037">
        <ele>262.4</ele>
      </trkpt>
      <trkpt lat="37.59122415038375" lon="126.95810210620206">
        <ele>263.4</ele>
      </trkpt>
      <trkpt lat="37.591185" lon="126.958107">
        <ele>262.6</ele>
      </trkpt>
      <trkpt lat="37.59104" lon="126.958047">
        <ele>261.8</ele>
      </trkpt>
      <trkpt lat="37.590862" lon="126.95806">
        <ele>260.8</ele>
      </trkpt>
      <trkpt lat="37.590715" lon="126.958007">
        <ele>261.2</ele>
      </trkpt>
      <trkpt lat="37.590402" lon="126.958012">
        <ele>262.2</ele>
      </trkpt>
      <trkpt lat="37.590232" lon="126.958057">
        <ele>268.4</ele>
      </trkpt>
      <trkpt lat="37.590152" lon="126.958035">
        <ele>269.6</ele>
      </trkpt>
      <trkpt lat="37.590092" lon="126.957905">
        <ele>270.4</ele>
      </trkpt>
      <trkpt lat="37.58997" lon="126.9578">
        <ele>271.8</ele>
      </trkpt>
      <trkpt lat="37.58951" lon="126.957813">
        <ele>254.75</ele>
        <extensions>
          <gpxtpx:TrackPointExtension>
            <gpxtpx:Extensions>
              <reversedirection>yes</reversedirection>
              <highway>path</highway>
              <sac_scale>mountain_hiking</sac_scale>
              <route>hiking</route>
            </gpxtpx:Extensions>
          </gpxtpx:TrackPointExtension>
        </extensions>
      </trkpt>
      <trkpt lat="37.589287" lon="126.957751">
        <ele>260.5</ele>
        <extensions>
          <gpxtpx:TrackPointExtension>
            <gpxtpx:Extensions>
              <reversedirection>yes</reversedirection>
              <highway>path</highway>
              <sac_scale>mountain_hiking</sac_scale>
              <route>hiking</route>
            </gpxtpx:Extensions>
          </gpxtpx:TrackPointExtension>
        </extensions>
      </trkpt>
      <trkpt lat="37.588771" lon="126.957727">
        <ele>267</ele>
        <extensions>
          <gpxtpx:TrackPointExtension>
            <gpxtpx:Extensions>
              <reversedirection>yes</reversedirection>
              <highway>path</highway>
              <sac_scale>mountain_hiking</sac_scale>
              <route>hiking</route>
            </gpxtpx:Extensions>
          </gpxtpx:TrackPointExtension>
        </extensions>
      </trkpt>
      <trkpt lat="37.58875" lon="126.957837">
        <ele>268</ele>
        <extensions>
          <gpxtpx:TrackPointExtension>
            <gpxtpx:Extensions>
              <reversedirection>yes</reversedirection>
              <highway>path</highway>
              <sac_scale>mountain_hiking</sac_scale>
              <route>hiking</route>
            </gpxtpx:Extensions>
          </gpxtpx:TrackPointExtension>
        </extensions>
      </trkpt>
      <trkpt lat="37.588617" lon="126.957947">
        <ele>300.8</ele>
      </trkpt>
      <trkpt lat="37.588577" lon="126.958057">
        <ele>301.6</ele>
      </trkpt>
      <trkpt lat="37.588587" lon="126.958287">
        <ele>303.6</ele>
      </trkpt>
      <trkpt lat="37.588562" lon="126.958355">
        <ele>306.4</ele>
      </trkpt>
      <trkpt lat="37.588245" lon="126.958667">
        <ele>312.4</ele>
      </trkpt>
      <trkpt lat="37.587882" lon="126.95879">
        <ele>322.6</ele>
      </trkpt>
      <trkpt lat="37.587682" lon="126.958817">
        <ele>325.8</ele>
      </trkpt>
      <trkpt lat="37.587625" lon="126.9589">
        <ele>326</ele>
      </trkpt>
      <trkpt lat="37.587487" lon="126.958997">
        <ele>324.4</ele>
      </trkpt>
      <trkpt lat="37.587297" lon="126.959052">
        <ele>319.8</ele>
      </trkpt>
      <trkpt lat="37.587302" lon="126.959132">
        <ele>316.4</ele>
      </trkpt>
      <trkpt lat="37.587282" lon="126.95914">
        <ele>316</ele>
      </trkpt>
      <trkpt lat="37.587082" lon="126.959092">
        <ele>308</ele>
      </trkpt>
      <trkpt lat="37.586957" lon="126.959142">
        <ele>304.2</ele>
      </trkpt>
      <trkpt lat="37.58669" lon="126.959155">
        <ele>307</ele>
      </trkpt>
      <trkpt lat="37.58654" lon="126.959222">
        <ele>309.8</ele>
      </trkpt>
      <trkpt lat="37.586312" lon="126.959202">
        <ele>313.2</ele>
      </trkpt>
      <trkpt lat="37.586157" lon="126.959005">
        <ele>323</ele>
      </trkpt>
      <trkpt lat="37.585917" lon="126.958652">
        <ele>320.8</ele>
      </trkpt>
      <trkpt lat="37.58581" lon="126.958477">
        <ele>318</ele>
      </trkpt>
      <trkpt lat="37.585502" lon="126.95819">
        <ele>312.8</ele>
      </trkpt>
      <trkpt lat="37.585375" lon="126.958162">
        <ele>309.2</ele>
      </trkpt>
      <trkpt lat="37.585325" lon="126.958047">
        <ele>313</ele>
      </trkpt>
      <trkpt lat="37.58521" lon="126.958075">
        <ele>319.4</ele>
      </trkpt>
      <trkpt lat="37.584885" lon="126.958102">
        <ele>330.8</ele>
      </trkpt>
      <trkpt lat="37.584795" lon="126.958052">
        <ele>334.8</ele>
      </trkpt>
      <trkpt lat="37.584647" lon="126.95805">
        <ele>337.2</ele>
      </trkpt>
      <trkpt lat="37.584522" lon="126.957977">
        <ele>338.2</ele>
      </trkpt>
      <trkpt lat="37.584477" lon="126.95802">
        <ele>337</ele>
      </trkpt>
      <trkpt lat="37.584392" lon="126.957962">
        <ele>335.2</ele>
      </trkpt>
      <trkpt lat="37.584065" lon="126.957898">
        <ele>330.2</ele>
      </trkpt>
      <trkpt lat="37.583767" lon="126.957747">
        <ele>279.25</ele>
        <extensions>
          <gpxtpx:TrackPointExtension>
            <gpxtpx:Extensions>
              <reversedirection>yes</reversedirection>
              <highway>path</highway>
              <sac_scale>mountain_hiking</sac_scale>
              <route>hiking</route>
            </gpxtpx:Extensions>
          </gpxtpx:TrackPointExtension>
        </extensions>
      </trkpt>
      <trkpt lat="37.583747" lon="126.957785">
        <ele>278.25</ele>
        <extensions>
          <gpxtpx:TrackPointExtension>
            <gpxtpx:Extensions>
              <reversedirection>yes</reversedirection>
              <highway>path</highway>
              <sac_scale>mountain_hiking</sac_scale>
              <route>hiking</route>
            </gpxtpx:Extensions>
          </gpxtpx:TrackPointExtension>
        </extensions>
      </trkpt>
      <trkpt lat="37.583653" lon="126.957778">
        <ele>274.75</ele>
      </trkpt>
      <trkpt lat="37.583611" lon="126.9577">
        <ele>273.5</ele>
        <extensions>
          <gpxtpx:TrackPointExtension>
            <gpxtpx:Extensions>
              <reversedirection>yes</reversedirection>
              <highway>path</highway>
              <sac_scale>mountain_hiking</sac_scale>
              <route>hiking</route>
            </gpxtpx:Extensions>
          </gpxtpx:TrackPointExtension>
        </extensions>
      </trkpt>
      <trkpt lat="37.583452" lon="126.957787">
        <ele>302.6</ele>
      </trkpt>
      <trkpt lat="37.583447" lon="126.957842">
        <ele>301.4</ele>
      </trkpt>
      <trkpt lat="37.583357" lon="126.957865">
        <ele>297.6</ele>
      </trkpt>
      <trkpt lat="37.583265" lon="126.957692">
        <ele>287.2</ele>
      </trkpt>
      <trkpt lat="37.582987" lon="126.957767">
        <ele>270.8</ele>
      </trkpt>
      <trkpt lat="37.582862" lon="126.957702">
        <ele>266.4</ele>
      </trkpt>
      <trkpt lat="37.582677" lon="126.957665">
        <ele>265.2</ele>
      </trkpt>
      <trkpt lat="37.582580769235534" lon="126.95758846923223">
        <ele>262.7169321389358</ele>
      </trkpt>
      <trkpt lat="37.582386" lon="126.957592">
        <ele>231.5</ele>
        <extensions>
          <gpxtpx:TrackPointExtension>
            <gpxtpx:Extensions>
              <reversedirection>yes</reversedirection>
              <highway>path</highway>
              <sac_scale>mountain_hiking</sac_scale>
              <route>hiking</route>
            </gpxtpx:Extensions>
          </gpxtpx:TrackPointExtension>
        </extensions>
      </trkpt>
      <trkpt lat="37.582287" lon="126.957666">
        <ele>229.5</ele>
        <extensions>
          <gpxtpx:TrackPointExtension>
            <gpxtpx:Extensions>
              <reversedirection>yes</reversedirection>
              <highway>path</highway>
              <sac_scale>mountain_hiking</sac_scale>
              <route>hiking</route>
            </gpxtpx:Extensions>
          </gpxtpx:TrackPointExtension>
        </extensions>
      </trkpt>
      <trkpt lat="37.582277" lon="126.957714">
        <ele>228.75</ele>
        <extensions>
          <gpxtpx:TrackPointExtension>
            <gpxtpx:Extensions>
              <reversedirection>yes</reversedirection>
              <highway>path</highway>
              <sac_scale>mountain_hiking</sac_scale>
              <route>hiking</route>
            </gpxtpx:Extensions>
          </gpxtpx:TrackPointExtension>
        </extensions>
      </trkpt>
      <trkpt lat="37.582174" lon="126.95777">
        <ele>227.25</ele>
        <extensions>
          <gpxtpx:TrackPointExtension>
            <gpxtpx:Extensions>
              <reversedirection>yes</reversedirection>
              <highway>path</highway>
              <sac_scale>mountain_hiking</sac_scale>
              <route>hiking</route>
            </gpxtpx:Extensions>
          </gpxtpx:TrackPointExtension>
        </extensions>
      </trkpt>
      <trkpt lat="37.581899" lon="126.957842">
        <ele>224.75</ele>
        <extensions>
          <gpxtpx:TrackPointExtension>
            <gpxtpx:Extensions>
              <reversedirection>yes</reversedirection>
              <highway>path</highway>
              <sac_scale>mountain_hiking</sac_scale>
              <route>hiking</route>
            </gpxtpx:Extensions>
          </gpxtpx:TrackPointExtension>
        </extensions>
      </trkpt>
      <trkpt lat="37.581626" lon="126.958026">
        <ele>221.75</ele>
        <extensions>
          <gpxtpx:TrackPointExtension>
            <gpxtpx:Extensions>
              <reversedirection>yes</reversedirection>
              <highway>path</highway>
              <sac_scale>mountain_hiking</sac_scale>
              <route>hiking</route>
            </gpxtpx:Extensions>
          </gpxtpx:TrackPointExtension>
        </extensions>
      </trkpt>
      <trkpt lat="37.58119" lon="126.958163">
        <ele>224</ele>
        <extensions>
          <gpxtpx:TrackPointExtension>
            <gpxtpx:Extensions>
              <reversedirection>yes</reversedirection>
              <highway>path</highway>
              <sac_scale>mountain_hiking</sac_scale>
              <route>hiking</route>
            </gpxtpx:Extensions>
          </gpxtpx:TrackPointExtension>
        </extensions>
      </trkpt>
      <trkpt lat="37.581087" lon="126.958112">
        <ele>264.8</ele>
      </trkpt>
      <trkpt lat="37.581032" lon="126.958005">
        <ele>262</ele>
      </trkpt>
      <trkpt lat="37.580917" lon="126.958038">
        <ele>254.8</ele>
      </trkpt>
      <trkpt lat="37.580842" lon="126.958142">
        <ele>251.6</ele>
      </trkpt>
      <trkpt lat="37.580835" lon="126.958382">
        <ele>240.8</ele>
      </trkpt>
      <trkpt lat="37.580777" lon="126.958472">
        <ele>237</ele>
      </trkpt>
      <trkpt lat="37.580677" lon="126.958917">
        <ele>227.4</ele>
      </trkpt>
      <trkpt lat="37.580577" lon="126.959215">
        <ele>222</ele>
      </trkpt>
      <trkpt lat="37.580345" lon="126.959612">
        <ele>210.6</ele>
      </trkpt>
      <trkpt lat="37.5802" lon="126.959742">
        <ele>203</ele>
      </trkpt>
      <trkpt lat="37.579972" lon="126.96009">
        <ele>191.8</ele>
      </trkpt>
      <trkpt lat="37.57969" lon="126.960232">
        <ele>188.6</ele>
      </trkpt>
      <trkpt lat="37.579322" lon="126.960592">
        <ele>180.2</ele>
      </trkpt>
      <trkpt lat="37.578985" lon="126.961177">
        <ele>180.6</ele>
      </trkpt>
      <trkpt lat="37.578662" lon="126.961365">
        <ele>174.2</ele>
      </trkpt>
      <trkpt lat="37.578472" lon="126.961692">
        <ele>162</ele>
      </trkpt>
      <trkpt lat="37.578305" lon="126.961867">
        <ele>153.6</ele>
      </trkpt>
      <trkpt lat="37.578262" lon="126.961965">
        <ele>150.6</ele>
      </trkpt>
      <trkpt lat="37.578282" lon="126.961995">
        <ele>147</ele>
      </trkpt>
      <trkpt lat="37.578175" lon="126.961982">
        <ele>145.8</ele>
      </trkpt>
      <trkpt lat="37.578112" lon="126.962037">
        <ele>146</ele>
      </trkpt>
      <trkpt lat="37.577747" lon="126.962552">
        <ele>137.2</ele>
      </trkpt>
      <trkpt lat="37.577602" lon="126.962812">
        <ele>135</ele>
      </trkpt>
      <trkpt lat="37.57744" lon="126.962977">
        <ele>134.6</ele>
      </trkpt>
      <trkpt lat="37.57724" lon="126.963087">
        <ele>136.8</ele>
      </trkpt>
      <trkpt lat="37.577032" lon="126.963145">
        <ele>138</ele>
      </trkpt>
      <trkpt lat="37.57669" lon="126.962972">
        <ele>139.2</ele>
      </trkpt>
      <trkpt lat="37.576592" lon="126.962985">
        <ele>139.4</ele>
      </trkpt>
      <trkpt lat="37.57636" lon="126.963145">
        <ele>136.4</ele>
      </trkpt>
      <trkpt lat="37.575925" lon="126.96328">
        <ele>135.2</ele>
      </trkpt>
      <trkpt lat="37.575727" lon="126.96348">
        <ele>128.8</ele>
      </trkpt>
      <trkpt lat="37.57555" lon="126.963567">
        <ele>125</ele>
      </trkpt>
      <trkpt lat="37.574885" lon="126.963602">
        <ele>118.4</ele>
      </trkpt>
      <trkpt lat="37.574122" lon="126.963732">
        <ele>111.2</ele>
      </trkpt>
      <trkpt lat="37.573637" lon="126.964055">
        <ele>101.2</ele>
      </trkpt>
      <trkpt lat="37.573521" lon="126.96407">
        <ele>85.25</ele>
        <extensions>
          <gpxtpx:TrackPointExtension>
            <gpxtpx:Extensions>
              <highway>service</highway>
            </gpxtpx:Extensions>
          </gpxtpx:TrackPointExtension>
        </extensions>
      </trkpt>
      <trkpt lat="37.573272" lon="126.964218">
        <ele>83.5</ele>
        <extensions>
          <gpxtpx:TrackPointExtension>
            <gpxtpx:Extensions>
              <highway>service</highway>
            </gpxtpx:Extensions>
          </gpxtpx:TrackPointExtension>
        </extensions>
      </trkpt>
      <trkpt lat="37.573152" lon="126.964334">
        <ele>81.5</ele>
        <extensions>
          <gpxtpx:TrackPointExtension>
            <gpxtpx:Extensions>
              <highway>service</highway>
            </gpxtpx:Extensions>
          </gpxtpx:TrackPointExtension>
        </extensions>
      </trkpt>
      <trkpt lat="37.572942750560536" lon="126.96481549663989">
        <ele>94.93964396754743</ele>
      </trkpt>
      <trkpt lat="37.572867" lon="126.965137">
        <ele>91.4</ele>
      </trkpt>
      <trkpt lat="37.572812" lon="126.965137">
        <ele>91</ele>
      </trkpt>
      <trkpt lat="37.572685" lon="126.964927">
        <ele>87.8</ele>
      </trkpt>
      <trkpt lat="37.572432" lon="126.964757">
        <ele>85.8</ele>
      </trkpt>
      <trkpt lat="37.572357" lon="126.964653">
        <ele>83.4</ele>
      </trkpt>
      <trkpt lat="37.572305" lon="126.96466">
        <ele>83.2</ele>
      </trkpt>
      <trkpt lat="37.57212716788584" lon="126.96486505352695">
        <ele>79</ele>
      </trkpt>
      <trkpt lat="37.571976" lon="126.964954">
        <ele>73.5</ele>
        <extensions>
          <gpxtpx:TrackPointExtension>
            <gpxtpx:Extensions>
              <highway>residential</highway>
            </gpxtpx:Extensions>
          </gpxtpx:TrackPointExtension>
        </extensions>
      </trkpt>
      <trkpt lat="37.571558" lon="126.965017">
        <ele>70.75</ele>
        <extensions>
          <gpxtpx:TrackPointExtension>
            <gpxtpx:Extensions>
              <reversedirection>yes</reversedirection>
              <highway>path</highway>
            </gpxtpx:Extensions>
          </gpxtpx:TrackPointExtension>
        </extensions>
      </trkpt>
      <trkpt lat="37.57156206452045" lon="126.96507651612785">
        <ele>81.8</ele>
      </trkpt>
      <trkpt lat="37.571247" lon="126.96524">
        <ele>85.8</ele>
      </trkpt>
      <trkpt lat="37.571025" lon="126.965475">
        <ele>86.2</ele>
      </trkpt>
      <trkpt lat="37.570422" lon="126.965777">
        <ele>82.2</ele>
      </trkpt>
      <trkpt lat="37.570275" lon="126.965992">
        <ele>79</ele>
      </trkpt>
      <trkpt lat="37.570202" lon="126.966042">
        <ele>78</ele>
      </trkpt>
      <trkpt lat="37.569982" lon="126.966032">
        <ele>74.8</ele>
      </trkpt>
      <trkpt lat="37.56987" lon="126.966082">
        <ele>73</ele>
      </trkpt>
      <trkpt lat="37.56951" lon="126.966517">
        <ele>70.6</ele>
      </trkpt>
      <trkpt lat="37.569312" lon="126.966895">
        <ele>69</ele>
      </trkpt>
      <trkpt lat="37.569107" lon="126.967977">
        <ele>64.2</ele>
      </trkpt>
      <trkpt lat="37.569047" lon="126.968165">
        <ele>65.4</ele>
      </trkpt>
      <trkpt lat="37.56887" lon="126.968337">
        <ele>65.8</ele>
      </trkpt>
      <trkpt lat="37.568612" lon="126.968512">
        <ele>64.4</ele>
      </trkpt>
      <trkpt lat="37.56844" lon="126.968727">
        <ele>62.6</ele>
      </trkpt>
      <trkpt lat="37.568432" lon="126.968977">
        <ele>59.4</ele>
      </trkpt>
      <trkpt lat="37.568667" lon="126.969317">
        <ele>56.8</ele>
      </trkpt>
      <trkpt lat="37.56869" lon="126.969412">
        <ele>56.4</ele>
      </trkpt>
      <trkpt lat="37.568467" lon="126.969612">
        <ele>56.8</ele>
      </trkpt>
      <trkpt lat="37.568307" lon="126.969572">
        <ele>57</ele>
      </trkpt>
      <trkpt lat="37.568175" lon="126.969587">
        <ele>57.2</ele>
      </trkpt>
      <trkpt lat="37.567835" lon="126.969862">
        <ele>57</ele>
      </trkpt>
      <trkpt lat="37.567373" lon="126.969997">
        <ele>55.2</ele>
      </trkpt>
      <trkpt lat="37.566912" lon="126.970432">
        <ele>53.4</ele>
      </trkpt>
      <trkpt lat="37.566692" lon="126.97071">
        <ele>53.4</ele>
      </trkpt>
      <trkpt lat="37.566477" lon="126.971192">
        <ele>52.8</ele>
      </trkpt>
      <trkpt lat="37.566292" lon="126.971732">
        <ele>51</ele>
      </trkpt>
      <trkpt lat="37.565582" lon="126.972817">
        <ele>49.8</ele>
      </trkpt>
      <trkpt lat="37.565382" lon="126.973157">
        <ele>49.2</ele>
      </trkpt>
      <trkpt lat="37.56528" lon="126.973187">
        <ele>48.8</ele>
      </trkpt>
      <trkpt lat="37.565202" lon="126.97315">
        <ele>48.6</ele>
      </trkpt>
      <trkpt lat="37.564987" lon="126.972842">
        <ele>49.8</ele>
      </trkpt>
      <trkpt lat="37.564687" lon="126.972997">
        <ele>51.8</ele>
      </trkpt>
      <trkpt lat="37.564447" lon="126.972987">
        <ele>53</ele>
      </trkpt>
      <trkpt lat="37.564412" lon="126.972952">
        <ele>53.6</ele>
      </trkpt>
      <trkpt lat="37.564377" lon="126.972807">
        <ele>53.6</ele>
      </trkpt>
      <trkpt lat="37.564302" lon="126.972742">
        <ele>53.6</ele>
      </trkpt>
      <trkpt lat="37.564222" lon="126.972065">
        <ele>54.4</ele>
      </trkpt>
      <trkpt lat="37.564185" lon="126.971957">
        <ele>54.6</ele>
      </trkpt>
      <trkpt lat="37.564177" lon="126.971695">
        <ele>54.8</ele>
      </trkpt>
      <trkpt lat="37.564142" lon="126.971632">
        <ele>55</ele>
      </trkpt>
      <trkpt lat="37.563927" lon="126.971645">
        <ele>55.8</ele>
      </trkpt>
      <trkpt lat="37.56366" lon="126.971692">
        <ele>56.8</ele>
      </trkpt>
      <trkpt lat="37.563432" lon="126.971552">
        <ele>57.4</ele>
      </trkpt>
      <trkpt lat="37.56315" lon="126.971247">
        <ele>57.4</ele>
      </trkpt>
      <trkpt lat="37.562965" lon="126.97126">
        <ele>56.6</ele>
      </trkpt>
      <trkpt lat="37.562757" lon="126.971337">
        <ele>55.4</ele>
      </trkpt>
      <trkpt lat="37.562552" lon="126.971332">
        <ele>54.2</ele>
      </trkpt>
      <trkpt lat="37.562417" lon="126.970727">
        <ele>49.8</ele>
      </trkpt>
      <trkpt lat="37.562275" lon="126.970307">
        <ele>48.6</ele>
      </trkpt>
      <trkpt lat="37.562242" lon="126.970102">
        <ele>48.4</ele>
      </trkpt>
      <trkpt lat="37.56228" lon="126.969935">
        <ele>48</ele>
      </trkpt>
      <trkpt lat="37.5622" lon="126.970017">
        <ele>47.2</ele>
      </trkpt>
      <trkpt lat="37.562047" lon="126.97008">
        <ele>47.4</ele>
      </trkpt>
      <trkpt lat="37.561982" lon="126.97024">
        <ele>47.4</ele>
      </trkpt>
      <trkpt lat="37.561992" lon="126.970375">
        <ele>48.2</ele>
      </trkpt>
      <trkpt lat="37.562042" lon="126.970477">
        <ele>48.8</ele>
      </trkpt>
      <trkpt lat="37.562037" lon="126.970563">
        <ele>49.2</ele>
      </trkpt>
      <trkpt lat="37.562275" lon="126.97146">
        <ele>53</ele>
      </trkpt>
      <trkpt lat="37.562252" lon="126.971565">
        <ele>53.6</ele>
      </trkpt>
      <trkpt lat="37.56198" lon="126.971767">
        <ele>56.6</ele>
      </trkpt>
      <trkpt lat="37.561582" lon="126.972147">
        <ele>56.6</ele>
      </trkpt>
      <trkpt lat="37.561452" lon="126.972227">
        <ele>54.8</ele>
      </trkpt>
      <trkpt lat="37.561315" lon="126.972387">
        <ele>54.6</ele>
      </trkpt>
      <trkpt lat="37.560892" lon="126.972625">
        <ele>56.8</ele>
      </trkpt>
      <trkpt lat="37.560682" lon="126.972845">
        <ele>57</ele>
      </trkpt>
      <trkpt lat="37.560517" lon="126.972927">
        <ele>57.8</ele>
      </trkpt>
      <trkpt lat="37.560455" lon="126.97316">
        <ele>57.6</ele>
      </trkpt>
      <trkpt lat="37.560097" lon="126.973567">
        <ele>54</ele>
      </trkpt>
      <trkpt lat="37.560032" lon="126.973847">
        <ele>53</ele>
      </trkpt>
      <trkpt lat="37.559907" lon="126.973975">
        <ele>52.2</ele>
      </trkpt>
      <trkpt lat="37.559717" lon="126.973992">
        <ele>49.8</ele>
      </trkpt>
      <trkpt lat="37.559552" lon="126.974217">
        <ele>50</ele>
      </trkpt>
      <trkpt lat="37.559357" lon="126.974242">
        <ele>49.2</ele>
      </trkpt>
      <trkpt lat="37.559072" lon="126.974">
        <ele>48.2</ele>
      </trkpt>
      <trkpt lat="37.558875" lon="126.973877">
        <ele>47.4</ele>
      </trkpt>
      <trkpt lat="37.558822" lon="126.973895">
        <ele>48.2</ele>
      </trkpt>
      <trkpt lat="37.558732" lon="126.974152">
        <ele>47.6</ele>
      </trkpt>
      <trkpt lat="37.558747" lon="126.97425">
        <ele>47.6</ele>
      </trkpt>
      <trkpt lat="37.55886" lon="126.974377">
        <ele>48.2</ele>
      </trkpt>
      <trkpt lat="37.559102" lon="126.974552">
        <ele>48.6</ele>
      </trkpt>
      <trkpt lat="37.559217" lon="126.974702">
        <ele>48.6</ele>
      </trkpt>
      <trkpt lat="37.55922" lon="126.974797">
        <ele>48.6</ele>
      </trkpt>
      <trkpt lat="37.559167" lon="126.974932">
        <ele>49.6</ele>
      </trkpt>
      <trkpt lat="37.559017" lon="126.975102">
        <ele>53</ele>
      </trkpt>
      <trkpt lat="37.559002" lon="126.975467">
        <ele>56.8</ele>
      </trkpt>
      <trkpt lat="37.558455" lon="126.975885">
        <ele>61.8</ele>
      </trkpt>
      <trkpt lat="37.558222" lon="126.976082">
        <ele>62.8</ele>
      </trkpt>
      <trkpt lat="37.557582" lon="126.976322">
        <ele>66.4</ele>
      </trkpt>
      <trkpt lat="37.556962" lon="126.976357">
        <ele>70.8</ele>
      </trkpt>
      <trkpt lat="37.556755" lon="126.976415">
        <ele>71.4</ele>
      </trkpt>
      <trkpt lat="37.55611" lon="126.976822">
        <ele>75</ele>
      </trkpt>
      <trkpt lat="37.555877" lon="126.97677">
        <ele>77.2</ele>
      </trkpt>
      <trkpt lat="37.555822" lon="126.97689">
        <ele>77.4</ele>
      </trkpt>
      <trkpt lat="37.555817" lon="126.977137">
        <ele>77</ele>
      </trkpt>
      <trkpt lat="37.555785" lon="126.977262">
        <ele>79</ele>
      </trkpt>
      <trkpt lat="37.555635" lon="126.977397">
        <ele>81.6</ele>
      </trkpt>
      <trkpt lat="37.555362" lon="126.977787">
        <ele>93.4</ele>
      </trkpt>
      <trkpt lat="37.55534" lon="126.9778">
        <ele>93.8</ele>
      </trkpt>
      <trkpt lat="37.555212" lon="126.977662">
        <ele>100.2</ele>
      </trkpt>
      <trkpt lat="37.55519" lon="126.97766">
        <ele>100</ele>
      </trkpt>
      <trkpt lat="37.555022" lon="126.978065">
        <ele>103.2</ele>
      </trkpt>
      <trkpt lat="37.554782" lon="126.978467">
        <ele>112</ele>
      </trkpt>
      <trkpt lat="37.554767" lon="126.978575">
        <ele>114.4</ele>
      </trkpt>
      <trkpt lat="37.554802" lon="126.978772">
        <ele>118</ele>
      </trkpt>
      <trkpt lat="37.554835" lon="126.978893">
        <ele>121</ele>
      </trkpt>
      <trkpt lat="37.55491" lon="126.978947">
        <ele>121.8</ele>
      </trkpt>
      <trkpt lat="37.554932" lon="126.979042">
        <ele>121.4</ele>
      </trkpt>
      <trkpt lat="37.554852" lon="126.979217">
        <ele>119.4</ele>
      </trkpt>
      <trkpt lat="37.554847" lon="126.979555">
        <ele>120</ele>
      </trkpt>
      <trkpt lat="37.554775" lon="126.97983">
        <ele>119</ele>
      </trkpt>
      <trkpt lat="37.554617" lon="126.980147">
        <ele>123.8</ele>
      </trkpt>
      <trkpt lat="37.55443" lon="126.980392">
        <ele>124.4</ele>
      </trkpt>
      <trkpt lat="37.554157" lon="126.980605">
        <ele>132</ele>
      </trkpt>
      <trkpt lat="37.554082" lon="126.980847">
        <ele>133</ele>
      </trkpt>
      <trkpt lat="37.554085" lon="126.980917">
        <ele>133</ele>
      </trkpt>
      <trkpt lat="37.554273" lon="126.981112">
        <ele>133</ele>
      </trkpt>
      <trkpt lat="37.554287" lon="126.981167">
        <ele>133.2</ele>
      </trkpt>
      <trkpt lat="37.554145" lon="126.981665">
        <ele>133</ele>
      </trkpt>
      <trkpt lat="37.554127" lon="126.982052">
        <ele>135.4</ele>
      </trkpt>
      <trkpt lat="37.553917" lon="126.982572">
        <ele>137.2</ele>
      </trkpt>
      <trkpt lat="37.5538" lon="126.982977">
        <ele>139.2</ele>
      </trkpt>
      <trkpt lat="37.553767" lon="126.983247">
        <ele>139.8</ele>
      </trkpt>
      <trkpt lat="37.553772" lon="126.983302">
        <ele>141.2</ele>
      </trkpt>
      <trkpt lat="37.553697" lon="126.983422">
        <ele>145.4</ele>
      </trkpt>
      <trkpt lat="37.553427" lon="126.983545">
        <ele>153</ele>
      </trkpt>
      <trkpt lat="37.553285" lon="126.98363">
        <ele>157</ele>
      </trkpt>
      <trkpt lat="37.553232" lon="126.983727">
        <ele>157.2</ele>
      </trkpt>
      <trkpt lat="37.553187" lon="126.983942">
        <ele>158.2</ele>
      </trkpt>
      <trkpt lat="37.553202" lon="126.98432">
        <ele>165</ele>
      </trkpt>
      <trkpt lat="37.55328" lon="126.98456">
        <ele>170.4</ele>
      </trkpt>
      <trkpt lat="37.553457" lon="126.984747">
        <ele>179.8</ele>
      </trkpt>
      <trkpt lat="37.553615" lon="126.984612">
        <ele>182.2</ele>
      </trkpt>
      <trkpt lat="37.553745" lon="126.98459">
        <ele>186.2</ele>
      </trkpt>
      <trkpt lat="37.553825" lon="126.984632">
        <ele>189</ele>
      </trkpt>
      <trkpt lat="37.5539" lon="126.984812">
        <ele>193</ele>
      </trkpt>
      <trkpt lat="37.554107" lon="126.98488">
        <ele>198.2</ele>
      </trkpt>
      <trkpt lat="37.554118" lon="126.985042">
        <ele>201.8</ele>
      </trkpt>
      <trkpt lat="37.554147" lon="126.985092">
        <ele>204.6</ele>
      </trkpt>
      <trkpt lat="37.554047" lon="126.985168">
        <ele>209.6</ele>
      </trkpt>
      <trkpt lat="37.554185" lon="126.985377">
        <ele>216.2</ele>
      </trkpt>
      <trkpt lat="37.554155" lon="126.985417">
        <ele>218.2</ele>
      </trkpt>
      <trkpt lat="37.55387" lon="126.985462">
        <ele>225.8</ele>
      </trkpt>
      <trkpt lat="37.553702" lon="126.985662">
        <ele>229.6</ele>
      </trkpt>
      <trkpt lat="37.553622" lon="126.98597">
        <ele>235.4</ele>
      </trkpt>
      <trkpt lat="37.553487" lon="126.986147">
        <ele>238.2</ele>
      </trkpt>
      <trkpt lat="37.553402542685994" lon="126.98621953392916">
        <ele>239.9884867524037</ele>
      </trkpt>
      <trkpt lat="37.55321" lon="126.98637199999999">
        <ele>241</ele>
      </trkpt>
      <trkpt lat="37.552745" lon="126.98667">
        <ele>244.6</ele>
      </trkpt>
      <trkpt lat="37.552537" lon="126.986875">
        <ele>253.4</ele>
      </trkpt>
      <trkpt lat="37.552442" lon="126.987105">
        <ele>260.2</ele>
      </trkpt>
      <trkpt lat="37.552362" lon="126.987197">
        <ele>263.4</ele>
      </trkpt>
      <trkpt lat="37.552252" lon="126.987172">
        <ele>268.6</ele>
      </trkpt>
      <trkpt lat="37.552197" lon="126.9872">
        <ele>271</ele>
      </trkpt>
      <trkpt lat="37.55207" lon="126.987297">
        <ele>276.6</ele>
      </trkpt>
      <trkpt lat="37.552007" lon="126.98743">
        <ele>280</ele>
      </trkpt>
      <trkpt lat="37.55192051580902" lon="126.9875266492011">
        <ele>280.8696565229777</ele>
      </trkpt>
      <trkpt lat="37.55191" lon="126.987645">
        <ele>280.4</ele>
      </trkpt>
      <trkpt lat="37.551815" lon="126.98778">
        <ele>281.4</ele>
      </trkpt>
      <trkpt lat="37.551755" lon="126.987952">
        <ele>279.8</ele>
      </trkpt>
      <trkpt lat="37.551822" lon="126.988562">
        <ele>280.2</ele>
      </trkpt>
      <trkpt lat="37.551507" lon="126.989432">
        <ele>266.6</ele>
      </trkpt>
      <trkpt lat="37.55147" lon="126.989702">
        <ele>262.2</ele>
      </trkpt>
      <trkpt lat="37.551477" lon="126.990107">
        <ele>257.4</ele>
      </trkpt>
      <trkpt lat="37.551437" lon="126.990385">
        <ele>255</ele>
      </trkpt>
      <trkpt lat="37.551377" lon="126.990555">
        <ele>253.4</ele>
      </trkpt>
      <trkpt lat="37.55103" lon="126.991172">
        <ele>252</ele>
      </trkpt>
      <trkpt lat="37.550427" lon="126.991732">
        <ele>246.6</ele>
      </trkpt>
      <trkpt lat="37.55017" lon="126.99237">
        <ele>243</ele>
      </trkpt>
      <trkpt lat="37.549887" lon="126.992692">
        <ele>240.6</ele>
      </trkpt>
      <trkpt lat="37.549615" lon="126.993217">
        <ele>236.6</ele>
      </trkpt>
      <trkpt lat="37.54932" lon="126.993677">
        <ele>226.8</ele>
      </trkpt>
      <trkpt lat="37.549252" lon="126.993835">
        <ele>224</ele>
      </trkpt>
      <trkpt lat="37.549222" lon="126.994157">
        <ele>218.2</ele>
      </trkpt>
      <trkpt lat="37.549032" lon="126.994292">
        <ele>219.2</ele>
      </trkpt>
      <trkpt lat="37.548992" lon="126.99438">
        <ele>220.6</ele>
      </trkpt>
      <trkpt lat="37.548992" lon="126.99489">
        <ele>229.8</ele>
      </trkpt>
      <trkpt lat="37.54887" lon="126.995067">
        <ele>238.6</ele>
      </trkpt>
      <trkpt lat="37.54885" lon="126.995277">
        <ele>242.8</ele>
      </trkpt>
      <trkpt lat="37.548697" lon="126.995507">
        <ele>241.8</ele>
      </trkpt>
      <trkpt lat="37.5486" lon="126.995872">
        <ele>235.6</ele>
      </trkpt>
      <trkpt lat="37.548492" lon="126.996097">
        <ele>234.2</ele>
      </trkpt>
      <trkpt lat="37.548522" lon="126.99634">
        <ele>236</ele>
      </trkpt>
      <trkpt lat="37.548602" lon="126.996462">
        <ele>236.4</ele>
      </trkpt>
      <trkpt lat="37.548552" lon="126.996462">
        <ele>238.4</ele>
      </trkpt>
      <trkpt lat="37.548557" lon="126.996542">
        <ele>237</ele>
      </trkpt>
      <trkpt lat="37.548505" lon="126.996547">
        <ele>230.8</ele>
      </trkpt>
      <trkpt lat="37.548527" lon="126.996707">
        <ele>224.8</ele>
      </trkpt>
      <trkpt lat="37.548645" lon="126.996797">
        <ele>218.2</ele>
      </trkpt>
      <trkpt lat="37.548735" lon="126.99675">
        <ele>215.4</ele>
      </trkpt>
      <trkpt lat="37.548777" lon="126.996802">
        <ele>214</ele>
      </trkpt>
      <trkpt lat="37.548852" lon="126.996802">
        <ele>210.4</ele>
      </trkpt>
      <trkpt lat="37.548927" lon="126.996887">
        <ele>206.4</ele>
      </trkpt>
      <trkpt lat="37.549022" lon="126.996925">
        <ele>201.4</ele>
      </trkpt>
      <trkpt lat="37.549237" lon="126.997202">
        <ele>189</ele>
      </trkpt>
      <trkpt lat="37.549427" lon="126.997322">
        <ele>182</ele>
      </trkpt>
      <trkpt lat="37.549562" lon="126.997477">
        <ele>175.8</ele>
      </trkpt>
      <trkpt lat="37.549732" lon="126.997605">
        <ele>167.8</ele>
      </trkpt>
      <trkpt lat="37.549907" lon="126.998277">
        <ele>146.8</ele>
      </trkpt>
      <trkpt lat="37.54992" lon="126.998552">
        <ele>138.2</ele>
      </trkpt>
      <trkpt lat="37.550175" lon="126.99881">
        <ele>136.8</ele>
      </trkpt>
      <trkpt lat="37.5503" lon="126.998875">
        <ele>136</ele>
      </trkpt>
      <trkpt lat="37.550465" lon="126.99891">
        <ele>134.8</ele>
      </trkpt>
      <trkpt lat="37.550937" lon="126.998922">
        <ele>130.2</ele>
      </trkpt>
      <trkpt lat="37.551467" lon="126.999562">
        <ele>120.8</ele>
      </trkpt>
      <trkpt lat="37.551705" lon="126.999957">
        <ele>116.6</ele>
      </trkpt>
      <trkpt lat="37.55172" lon="127.000217">
        <ele>114</ele>
      </trkpt>
      <trkpt lat="37.551672" lon="127.000337">
        <ele>112.4</ele>
      </trkpt>
      <trkpt lat="37.551597" lon="127.000472">
        <ele>110.8</ele>
      </trkpt>
      <trkpt lat="37.551432" lon="127.000613">
        <ele>106.2</ele>
      </trkpt>
      <trkpt lat="37.55136" lon="127.000745">
        <ele>103.6</ele>
      </trkpt>
      <trkpt lat="37.551132" lon="127.000952">
        <ele>105.4</ele>
      </trkpt>
      <trkpt lat="37.550682" lon="127.002042">
        <ele>117.2</ele>
      </trkpt>
      <trkpt lat="37.550558" lon="127.002115">
        <ele>118.4</ele>
      </trkpt>
      <trkpt lat="37.55043" lon="127.002048">
        <ele>119.6</ele>
      </trkpt>
      <trkpt lat="37.55037" lon="127.001897">
        <ele>119.8</ele>
      </trkpt>
      <trkpt lat="37.550403" lon="127.00134">
        <ele>124.6</ele>
      </trkpt>
      <trkpt lat="37.550117" lon="127.001292">
        <ele>126</ele>
      </trkpt>
      <trkpt lat="37.550023" lon="127.001315">
        <ele>126</ele>
      </trkpt>
      <trkpt lat="37.550047" lon="127.00145">
        <ele>125.6</ele>
      </trkpt>
      <trkpt lat="37.549972" lon="127.00174">
        <ele>126</ele>
      </trkpt>
      <trkpt lat="37.549727" lon="127.002002">
        <ele>128</ele>
      </trkpt>
      <trkpt lat="37.549712" lon="127.002335">
        <ele>127.8</ele>
      </trkpt>
      <trkpt lat="37.549625" lon="127.0027">
        <ele>126.2</ele>
      </trkpt>
      <trkpt lat="37.549642" lon="127.002797">
        <ele>126.2</ele>
      </trkpt>
      <trkpt lat="37.549965" lon="127.003292">
        <ele>126</ele>
      </trkpt>
      <trkpt lat="37.550052" lon="127.003527">
        <ele>126</ele>
      </trkpt>
      <trkpt lat="37.550545" lon="127.004395">
        <ele>129.6</ele>
      </trkpt>
      <trkpt lat="37.550752" lon="127.004498">
        <ele>126.8</ele>
      </trkpt>
      <trkpt lat="37.551042" lon="127.004425">
        <ele>121.2</ele>
      </trkpt>
      <trkpt lat="37.551117" lon="127.004352">
        <ele>119.4</ele>
      </trkpt>
      <trkpt lat="37.551167" lon="127.00415">
        <ele>116.6</ele>
      </trkpt>
      <trkpt lat="37.551272" lon="127.00399">
        <ele>112.6</ele>
      </trkpt>
      <trkpt lat="37.551775" lon="127.003857">
        <ele>108</ele>
      </trkpt>
      <trkpt lat="37.552237" lon="127.003962">
        <ele>105</ele>
      </trkpt>
      <trkpt lat="37.552345" lon="127.004017">
        <ele>104.8</ele>
      </trkpt>
      <trkpt lat="37.552475" lon="127.004152">
        <ele>105.2</ele>
      </trkpt>
      <trkpt lat="37.552835" lon="127.004197">
        <ele>103.4</ele>
      </trkpt>
      <trkpt lat="37.553227" lon="127.004402">
        <ele>104.4</ele>
      </trkpt>
      <trkpt lat="37.553517" lon="127.004477">
        <ele>103.4</ele>
      </trkpt>
      <trkpt lat="37.553602" lon="127.00448">
        <ele>102.8</ele>
      </trkpt>
      <trkpt lat="37.553842" lon="127.004382">
        <ele>102.4</ele>
      </trkpt>
      <trkpt lat="37.553977" lon="127.00441">
        <ele>102.6</ele>
      </trkpt>
      <trkpt lat="37.55433" lon="127.004857">
        <ele>102.4</ele>
      </trkpt>
      <trkpt lat="37.554652" lon="127.00515">
        <ele>105.6</ele>
      </trkpt>
      <trkpt lat="37.554878" lon="127.005465">
        <ele>105.4</ele>
      </trkpt>
      <trkpt lat="37.55511" lon="127.005777">
        <ele>100.8</ele>
      </trkpt>
      <trkpt lat="37.555297" lon="127.006">
        <ele>95.8</ele>
      </trkpt>
      <trkpt lat="37.555627" lon="127.006287">
        <ele>88.2</ele>
      </trkpt>
      <trkpt lat="37.55572" lon="127.006475">
        <ele>86.8</ele>
      </trkpt>
      <trkpt lat="37.555797" lon="127.00679">
        <ele>85.8</ele>
      </trkpt>
      <trkpt lat="37.555872" lon="127.006895">
        <ele>85.8</ele>
      </trkpt>
      <trkpt lat="37.555962" lon="127.006965">
        <ele>85.4</ele>
      </trkpt>
      <trkpt lat="37.556212" lon="127.007047">
        <ele>86.4</ele>
      </trkpt>
      <trkpt lat="37.556417" lon="127.007167">
        <ele>89.8</ele>
      </trkpt>
      <trkpt lat="37.556547" lon="127.007365">
        <ele>90.4</ele>
      </trkpt>
      <trkpt lat="37.556552" lon="127.007652">
        <ele>89</ele>
      </trkpt>
      <trkpt lat="37.556697" lon="127.007903">
        <ele>87.8</ele>
      </trkpt>
      <trkpt lat="37.557107" lon="127.008167">
        <ele>80.6</ele>
      </trkpt>
      <trkpt lat="37.55734" lon="127.008242">
        <ele>80.2</ele>
      </trkpt>
      <trkpt lat="37.557762" lon="127.008002">
        <ele>73.8</ele>
      </trkpt>
      <trkpt lat="37.557872" lon="127.007897">
        <ele>70.6</ele>
      </trkpt>
      <trkpt lat="37.558" lon="127.007903">
        <ele>66.6</ele>
      </trkpt>
      <trkpt lat="37.558097" lon="127.007767">
        <ele>62.8</ele>
      </trkpt>
      <trkpt lat="37.558075" lon="127.008017">
        <ele>60.6</ele>
      </trkpt>
      <trkpt lat="37.558192" lon="127.008172">
        <ele>61.2</ele>
      </trkpt>
      <trkpt lat="37.558262" lon="127.008335">
        <ele>62.6</ele>
      </trkpt>
      <trkpt lat="37.558837" lon="127.008532">
        <ele>67.2</ele>
      </trkpt>
      <trkpt lat="37.558962" lon="127.008642">
        <ele>67.6</ele>
      </trkpt>
      <trkpt lat="37.559195" lon="127.008772">
        <ele>67</ele>
      </trkpt>
      <trkpt lat="37.559322" lon="127.008872">
        <ele>66.4</ele>
      </trkpt>
      <trkpt lat="37.559407" lon="127.008997">
        <ele>66.4</ele>
      </trkpt>
      <trkpt lat="37.559595" lon="127.009132">
        <ele>67</ele>
      </trkpt>
      <trkpt lat="37.559945" lon="127.009532">
        <ele>66</ele>
      </trkpt>
      <trkpt lat="37.560372" lon="127.009892">
        <ele>63.8</ele>
      </trkpt>
      <trkpt lat="37.560517" lon="127.009927">
        <ele>63</ele>
      </trkpt>
      <trkpt lat="37.560797" lon="127.00987">
        <ele>60.2</ele>
      </trkpt>
      <trkpt lat="37.560927" lon="127.00988">
        <ele>59.2</ele>
      </trkpt>
      <trkpt lat="37.561497" lon="127.009717">
        <ele>55.8</ele>
      </trkpt>
      <trkpt lat="37.561867" lon="127.00971">
        <ele>52.6</ele>
      </trkpt>
      <trkpt lat="37.561925" lon="127.00974">
        <ele>51.6</ele>
      </trkpt>
      <trkpt lat="37.561962" lon="127.009825">
        <ele>50.4</ele>
      </trkpt>
      <trkpt lat="37.56196" lon="127.010032">
        <ele>48.6</ele>
      </trkpt>
      <trkpt lat="37.562015" lon="127.010327">
        <ele>47</ele>
      </trkpt>
      <trkpt lat="37.562442" lon="127.010322">
        <ele>48.2</ele>
      </trkpt>
      <trkpt lat="37.562935" lon="127.010402">
        <ele>49.6</ele>
      </trkpt>
      <trkpt lat="37.563137" lon="127.010287">
        <ele>49.8</ele>
      </trkpt>
      <trkpt lat="37.56421" lon="127.010172">
        <ele>44.6</ele>
      </trkpt>
      <trkpt lat="37.564407" lon="127.010182">
        <ele>44</ele>
      </trkpt>
      <trkpt lat="37.564457" lon="127.01025">
        <ele>43.8</ele>
      </trkpt>
      <trkpt lat="37.564557" lon="127.010565">
        <ele>42.4</ele>
      </trkpt>
      <trkpt lat="37.564595" lon="127.010817">
        <ele>41.2</ele>
      </trkpt>
      <trkpt lat="37.564932" lon="127.010767">
        <ele>41.6</ele>
      </trkpt>
      <trkpt lat="37.565172" lon="127.010817">
        <ele>40.2</ele>
      </trkpt>
      <trkpt lat="37.565255" lon="127.010697">
        <ele>39.6</ele>
      </trkpt>
      <trkpt lat="37.565377" lon="127.010292">
        <ele>40.4</ele>
      </trkpt>
      <trkpt lat="37.565447" lon="127.01013">
        <ele>38.8</ele>
      </trkpt>
      <trkpt lat="37.565512" lon="127.010062">
        <ele>38</ele>
      </trkpt>
      <trkpt lat="37.565558" lon="127.009872">
        <ele>39.4</ele>
      </trkpt>
      <trkpt lat="37.565675" lon="127.009677">
        <ele>38.6</ele>
      </trkpt>
      <trkpt lat="37.565747" lon="127.009372">
        <ele>38.2</ele>
      </trkpt>
      <trkpt lat="37.565872" lon="127.009117">
        <ele>36.8</ele>
      </trkpt>
      <trkpt lat="37.56593" lon="127.008832">
        <ele>36.6</ele>
      </trkpt>
      <trkpt lat="37.566092" lon="127.008437">
        <ele>36.8</ele>
      </trkpt>
      <trkpt lat="37.566162" lon="127.008342">
        <ele>36.4</ele>
      </trkpt>
      <trkpt lat="37.56634" lon="127.00826">
        <ele>36.6</ele>
      </trkpt>
      <trkpt lat="37.566435" lon="127.008312">
        <ele>35.8</ele>
      </trkpt>
      <trkpt lat="37.56683" lon="127.008602">
        <ele>35.2</ele>
      </trkpt>
      <trkpt lat="37.566992" lon="127.008782">
        <ele>35</ele>
      </trkpt>
      <trkpt lat="37.567397" lon="127.0091">
        <ele>34.8</ele>
      </trkpt>
      <trkpt lat="37.568027" lon="127.009502">
        <ele>34.6</ele>
      </trkpt>
      <trkpt lat="37.568402" lon="127.009687">
        <ele>34</ele>
      </trkpt>
      <trkpt lat="37.568622" lon="127.009922">
        <ele>34</ele>
      </trkpt>
      <trkpt lat="37.568712" lon="127.009972">
        <ele>34.6</ele>
      </trkpt>
      <trkpt lat="37.56933" lon="127.010082">
        <ele>34.4</ele>
      </trkpt>
      <trkpt lat="37.570115" lon="127.009992">
        <ele>34</ele>
      </trkpt>
      <trkpt lat="37.570357" lon="127.009887">
        <ele>33.2</ele>
      </trkpt>
      <trkpt lat="37.570527" lon="127.009902">
        <ele>33.6</ele>
      </trkpt>
      <trkpt lat="37.570832" lon="127.010132">
        <ele>32.6</ele>
      </trkpt>
      <trkpt lat="37.570967" lon="127.010305">
        <ele>32.4</ele>
      </trkpt>
      <trkpt lat="37.571137" lon="127.010407">
        <ele>33</ele>
      </trkpt>
      <trkpt lat="37.571507" lon="127.01084">
        <ele>33.4</ele>
      </trkpt>
      <trkpt lat="37.571627" lon="127.01106">
        <ele>32.4</ele>
      </trkpt>
      <trkpt lat="37.57184" lon="127.010957">
        <ele>32.4</ele>
      </trkpt>
      <trkpt lat="37.571877" lon="127.010847">
        <ele>32.2</ele>
      </trkpt>
      <trkpt lat="37.571662" lon="127.009837">
        <ele>32.4</ele>
      </trkpt>
      <trkpt lat="37.571817" lon="127.009702">
        <ele>34.8</ele>
      </trkpt>
      <trkpt lat="37.572132" lon="127.009662">
        <ele>38.2</ele>
      </trkpt>
      <trkpt lat="37.572272" lon="127.009535">
        <ele>40.8</ele>
      </trkpt>
      <trkpt lat="37.57243" lon="127.00946">
        <ele>43.8</ele>
      </trkpt>
      <trkpt lat="37.572602" lon="127.009235">
        <ele>46.4</ele>
      </trkpt>
      <trkpt lat="37.572647" lon="127.009072">
        <ele>47.8</ele>
      </trkpt>
      <trkpt lat="37.57281" lon="127.008927">
        <ele>50</ele>
      </trkpt>
      <trkpt lat="37.573167" lon="127.008992">
        <ele>53.4</ele>
      </trkpt>
      <trkpt lat="37.57339" lon="127.00897">
        <ele>55.8</ele>
      </trkpt>
      <trkpt lat="37.57364" lon="127.009055">
        <ele>58.4</ele>
      </trkpt>
      <trkpt lat="37.573862" lon="127.008917">
        <ele>60.8</ele>
      </trkpt>
      <trkpt lat="37.574" lon="127.008877">
        <ele>62.2</ele>
      </trkpt>
      <trkpt lat="37.574195" lon="127.00892">
        <ele>63.8</ele>
      </trkpt>
      <trkpt lat="37.574492" lon="127.009075">
        <ele>65.8</ele>
      </trkpt>
      <trkpt lat="37.574647" lon="127.009097">
        <ele>68.6</ele>
      </trkpt>
      <trkpt lat="37.574807" lon="127.009062">
        <ele>70.4</ele>
      </trkpt>
      <trkpt lat="37.575687" lon="127.008605">
        <ele>82.4</ele>
      </trkpt>
      <trkpt lat="37.57587" lon="127.008562">
        <ele>84</ele>
      </trkpt>
      <trkpt lat="37.576045" lon="127.008597">
        <ele>84.4</ele>
      </trkpt>
      <trkpt lat="37.576155" lon="127.008582">
        <ele>85.2</ele>
      </trkpt>
      <trkpt lat="37.576847" lon="127.008717">
        <ele>88.8</ele>
      </trkpt>
      <trkpt lat="37.57711" lon="127.008777">
        <ele>88.8</ele>
      </trkpt>
      <trkpt lat="37.5773" lon="127.008672">
        <ele>89.4</ele>
      </trkpt>
      <trkpt lat="37.577547" lon="127.008442">
        <ele>91.4</ele>
      </trkpt>
      <trkpt lat="37.577925" lon="127.008487">
        <ele>95.4</ele>
      </trkpt>
      <trkpt lat="37.578005" lon="127.008472">
        <ele>97.2</ele>
      </trkpt>
      <trkpt lat="37.5782" lon="127.008382">
        <ele>98.8</ele>
      </trkpt>
      <trkpt lat="37.578517" lon="127.008128">
        <ele>103.4</ele>
      </trkpt>
      <trkpt lat="37.57866" lon="127.008117">
        <ele>105.4</ele>
      </trkpt>
      <trkpt lat="37.579172" lon="127.008202">
        <ele>111</ele>
      </trkpt>
      <trkpt lat="37.5794" lon="127.008367">
        <ele>114.2</ele>
      </trkpt>
      <trkpt lat="37.579752" lon="127.008737">
        <ele>120.2</ele>
      </trkpt>
      <trkpt lat="37.579915" lon="127.008847">
        <ele>122.4</ele>
      </trkpt>
      <trkpt lat="37.580095" lon="127.008902">
        <ele>123.6</ele>
      </trkpt>
      <trkpt lat="37.580507" lon="127.008947">
        <ele>125.6</ele>
      </trkpt>
      <trkpt lat="37.5806" lon="127.008902">
        <ele>125</ele>
      </trkpt>
      <trkpt lat="37.581067" lon="127.008575">
        <ele>120.4</ele>
      </trkpt>
      <trkpt lat="37.58118" lon="127.008477">
        <ele>118.6</ele>
      </trkpt>
      <trkpt lat="37.581318" lon="127.008172">
        <ele>118.2</ele>
      </trkpt>
      <trkpt lat="37.581452" lon="127.00807">
        <ele>119</ele>
      </trkpt>
      <trkpt lat="37.581615" lon="127.007875">
        <ele>119.4</ele>
      </trkpt>
      <trkpt lat="37.58171" lon="127.007632">
        <ele>118.6</ele>
      </trkpt>
      <trkpt lat="37.581907" lon="127.007467">
        <ele>117.6</ele>
      </trkpt>
      <trkpt lat="37.582035" lon="127.007197">
        <ele>115.4</ele>
      </trkpt>
      <trkpt lat="37.582257" lon="127.007032">
        <ele>110.4</ele>
      </trkpt>
      <trkpt lat="37.58243" lon="127.007002">
        <ele>106.8</ele>
      </trkpt>
      <trkpt lat="37.582855" lon="127.007332">
        <ele>93.8</ele>
      </trkpt>
      <trkpt lat="37.58304" lon="127.007407">
        <ele>89.8</ele>
      </trkpt>
      <trkpt lat="37.58335" lon="127.007447">
        <ele>87.4</ele>
      </trkpt>
      <trkpt lat="37.583652" lon="127.007267">
        <ele>87.8</ele>
      </trkpt>
      <trkpt lat="37.583875" lon="127.007267">
        <ele>88.4</ele>
      </trkpt>
      <trkpt lat="37.584287" lon="127.007187">
        <ele>87.6</ele>
      </trkpt>
      <trkpt lat="37.58453" lon="127.007022">
        <ele>87.6</ele>
      </trkpt>
      <trkpt lat="37.584787" lon="127.006942">
        <ele>87.4</ele>
      </trkpt>
      <trkpt lat="37.584947" lon="127.006955">
        <ele>86.6</ele>
      </trkpt>
      <trkpt lat="37.585135" lon="127.00703">
        <ele>85</ele>
      </trkpt>
      <trkpt lat="37.585387" lon="127.007025">
        <ele>85</ele>
      </trkpt>
      <trkpt lat="37.5855" lon="127.006925">
        <ele>84.2</ele>
      </trkpt>
      <trkpt lat="37.585582" lon="127.006752">
        <ele>83.6</ele>
      </trkpt>
      <trkpt lat="37.585647" lon="127.0067">
        <ele>83.6</ele>
      </trkpt>
      <trkpt lat="37.585867" lon="127.006662">
        <ele>83</ele>
      </trkpt>
      <trkpt lat="37.586107" lon="127.00671">
        <ele>81.2</ele>
      </trkpt>
      <trkpt lat="37.58616" lon="127.006692">
        <ele>80.4</ele>
      </trkpt>
      <trkpt lat="37.586405" lon="127.00643">
        <ele>77.2</ele>
      </trkpt>
      <trkpt lat="37.586597" lon="127.006282">
        <ele>77.6</ele>
      </trkpt>
      <trkpt lat="37.586745" lon="127.006102">
        <ele>77.6</ele>
      </trkpt>
      <trkpt lat="37.586862" lon="127.006052">
        <ele>78.6</ele>
      </trkpt>
      <trkpt lat="37.586972" lon="127.005933">
        <ele>81</ele>
      </trkpt>
      <trkpt lat="37.587025" lon="127.005502">
        <ele>82</ele>
      </trkpt>
      <trkpt lat="37.586987" lon="127.005037">
        <ele>78.6</ele>
      </trkpt>
      <trkpt lat="37.587117" lon="127.004495">
        <ele>77</ele>
      </trkpt>
      <trkpt lat="37.587182" lon="127.004342">
        <ele>74</ele>
      </trkpt>
      <trkpt lat="37.587462" lon="127.004237">
        <ele>67.6</ele>
      </trkpt>
      <trkpt lat="37.58751" lon="127.004328">
        <ele>66.8</ele>
      </trkpt>
      <trkpt lat="37.587512" lon="127.004427">
        <ele>65</ele>
      </trkpt>
      <trkpt lat="37.587557" lon="127.004462">
        <ele>62.8</ele>
      </trkpt>
      <trkpt lat="37.587602" lon="127.00445">
        <ele>60.8</ele>
      </trkpt>
      <trkpt lat="37.58762" lon="127.004325">
        <ele>57</ele>
      </trkpt>
      <trkpt lat="37.587572" lon="127.004115">
        <ele>55.8</ele>
      </trkpt>
      <trkpt lat="37.587807" lon="127.003992">
        <ele>57</ele>
      </trkpt>
      <trkpt lat="37.5879" lon="127.004155">
        <ele>57.8</ele>
      </trkpt>
      <trkpt lat="37.58805" lon="127.004577">
        <ele>56</ele>
      </trkpt>
      <trkpt lat="37.588067" lon="127.004562">
        <ele>56.4</ele>
      </trkpt>
      <trkpt lat="37.587972" lon="127.004265">
        <ele>59.4</ele>
      </trkpt>
      <trkpt lat="37.588137" lon="127.003865">
        <ele>61.8</ele>
      </trkpt>
      <trkpt lat="37.58832" lon="127.00354">
        <ele>63.4</ele>
      </trkpt>
      <trkpt lat="37.588405" lon="127.003482">
        <ele>63.4</ele>
      </trkpt>
      <trkpt lat="37.58864" lon="127.003432">
        <ele>65.8</ele>
      </trkpt>
      <trkpt lat="37.588725" lon="127.003365">
        <ele>65.6</ele>
      </trkpt>
      <trkpt lat="37.588767" lon="127.00325">
        <ele>66</ele>
      </trkpt>
      <trkpt lat="37.588812" lon="127.002902">
        <ele>65.8</ele>
      </trkpt>
      <trkpt lat="37.589075" lon="127.002427">
        <ele>65</ele>
      </trkpt>
      <trkpt lat="37.589242" lon="127.002302">
        <ele>65.8</ele>
      </trkpt>
      <trkpt lat="37.589687" lon="127.00213">
        <ele>67.8</ele>
      </trkpt>
      <trkpt lat="37.590192" lon="127.00185">
        <ele>70.8</ele>
      </trkpt>
      <trkpt lat="37.590315" lon="127.001852">
        <ele>71.4</ele>
      </trkpt>
      <trkpt lat="37.590467" lon="127.001792">
        <ele>73</ele>
      </trkpt>
      <trkpt lat="37.590727" lon="127.001792">
        <ele>76</ele>
      </trkpt>
      <trkpt lat="37.591235" lon="127.001932">
        <ele>81</ele>
      </trkpt>
      <trkpt lat="37.591345" lon="127.001862">
        <ele>80.8</ele>
      </trkpt>
      <trkpt lat="37.59179" lon="127.00171">
        <ele>83.8</ele>
      </trkpt>
      <trkpt lat="37.591887" lon="127.00164">
        <ele>83.4</ele>
      </trkpt>
      <trkpt lat="37.592397" lon="127.000967">
        <ele>80.8</ele>
      </trkpt>
      <trkpt lat="37.59246" lon="127.000777">
        <ele>81.2</ele>
      </trkpt>
      <trkpt lat="37.592425" lon="127.000407">
        <ele>79</ele>
      </trkpt>
      <trkpt lat="37.592327" lon="126.999915">
        <ele>77.2</ele>
      </trkpt>
      <trkpt lat="37.592362" lon="126.999692">
        <ele>76</ele>
      </trkpt>
      <trkpt lat="37.592362" lon="126.999357">
        <ele>75</ele>
      </trkpt>
      <trkpt lat="37.59239" lon="126.999255">
        <ele>74.2</ele>
      </trkpt>
      <trkpt lat="37.592382" lon="126.999225">
        <ele>74</ele>
      </trkpt>
      <trkpt lat="37.59228" lon="126.999237">
        <ele>74</ele>
      </trkpt>
      <trkpt lat="37.592257" lon="126.999157">
        <ele>74.2</ele>
      </trkpt>
      <trkpt lat="37.592407" lon="126.998922">
        <ele>74.6</ele>
      </trkpt>
      <trkpt lat="37.59248" lon="126.998692">
        <ele>73.6</ele>
      </trkpt>
      <trkpt lat="37.592492" lon="126.998505">
        <ele>72.2</ele>
      </trkpt>
      <trkpt lat="37.59246" lon="126.99832">
        <ele>71.2</ele>
      </trkpt>
      <trkpt lat="37.592308" lon="126.997997">
        <ele>75.4</ele>
      </trkpt>
      <trkpt lat="37.592227" lon="126.997617">
        <ele>79</ele>
      </trkpt>
      <trkpt lat="37.592235" lon="126.997337">
        <ele>79.6</ele>
      </trkpt>
      <trkpt lat="37.592217" lon="126.996927">
        <ele>83.6</ele>
      </trkpt>
      <trkpt lat="37.59208" lon="126.99679">
        <ele>90</ele>
      </trkpt>
      <trkpt lat="37.592022" lon="126.99656">
        <ele>95.8</ele>
      </trkpt>
      <trkpt lat="37.592167" lon="126.996087">
        <ele>103.2</ele>
      </trkpt>
      <trkpt lat="37.592232" lon="126.995607">
        <ele>102.2</ele>
      </trkpt>
      <trkpt lat="37.59215" lon="126.995467">
        <ele>101.8</ele>
      </trkpt>
      <trkpt lat="37.591577" lon="126.99497">
        <ele>103.2</ele>
      </trkpt>
      <trkpt lat="37.591382" lon="126.99471">
        <ele>104.6</ele>
      </trkpt>
      <trkpt lat="37.591287" lon="126.994442">
        <ele>106.6</ele>
      </trkpt>
      <trkpt lat="37.591287" lon="126.994362">
        <ele>107</ele>
      </trkpt>
      <trkpt lat="37.591437" lon="126.994065">
        <ele>111.2</ele>
      </trkpt>
      <trkpt lat="37.591507" lon="126.993847">
        <ele>115.4</ele>
      </trkpt>
      <trkpt lat="37.59172" lon="126.993492">
        <ele>121.4</ele>
      </trkpt>
      <trkpt lat="37.591865" lon="126.992772">
        <ele>124.4</ele>
      </trkpt>
      <trkpt lat="37.591977" lon="126.992605">
        <ele>126.2</ele>
      </trkpt>
      <trkpt lat="37.592035" lon="126.992432">
        <ele>130.6</ele>
      </trkpt>
      <trkpt lat="37.592015" lon="126.992315">
        <ele>133</ele>
      </trkpt>
      <trkpt lat="37.591912" lon="126.99214">
        <ele>136.8</ele>
      </trkpt>
      <trkpt lat="37.591942" lon="126.992097">
        <ele>137.6</ele>
      </trkpt>
      <trkpt lat="37.591912" lon="126.99192">
        <ele>139</ele>
      </trkpt>
      <trkpt lat="37.591767" lon="126.991815">
        <ele>139.4</ele>
      </trkpt>
      <trkpt lat="37.59153" lon="126.991712">
        <ele>140.8</ele>
      </trkpt>
      <trkpt lat="37.591452" lon="126.991512">
        <ele>144.6</ele>
      </trkpt>
      <trkpt lat="37.591445" lon="126.991327">
        <ele>148.8</ele>
      </trkpt>
      <trkpt lat="37.591545" lon="126.991015">
        <ele>160.4</ele>
      </trkpt>
      <trkpt lat="37.591572" lon="126.990787">
        <ele>165.8</ele>
      </trkpt>
      <trkpt lat="37.591478" lon="126.990137">
        <ele>173.2</ele>
      </trkpt>
      <trkpt lat="37.5915" lon="126.989837">
        <ele>178.4</ele>
      </trkpt>
      <trkpt lat="37.591447" lon="126.989675">
        <ele>179.8</ele>
      </trkpt>
      <trkpt lat="37.591242" lon="126.989275">
        <ele>182.4</ele>
      </trkpt>
      <trkpt lat="37.591242" lon="126.98916">
        <ele>185</ele>
      </trkpt>
      <trkpt lat="37.591335" lon="126.989022">
        <ele>185</ele>
      </trkpt>
      <trkpt lat="37.59145" lon="126.988947">
        <ele>186.4</ele>
      </trkpt>
      <trkpt lat="37.591962" lon="126.988407">
        <ele>191.2</ele>
      </trkpt>
      <trkpt lat="37.592037" lon="126.988092">
        <ele>189.4</ele>
      </trkpt>
      <trkpt lat="37.59214" lon="126.987922">
        <ele>190.4</ele>
      </trkpt>
      <trkpt lat="37.592227" lon="126.987662">
        <ele>194</ele>
      </trkpt>
      <trkpt lat="37.59237" lon="126.987467">
        <ele>196.4</ele>
      </trkpt>
      <trkpt lat="37.592632" lon="126.987232">
        <ele>198.2</ele>
      </trkpt>
      <trkpt lat="37.592762" lon="126.987212">
        <ele>199.6</ele>
      </trkpt>
      <trkpt lat="37.593022" lon="126.987257">
        <ele>194.2</ele>
      </trkpt>
      <trkpt lat="37.593137" lon="126.987308">
        <ele>190.6</ele>
      </trkpt>
      <trkpt lat="37.59319" lon="126.987377">
        <ele>187.8</ele>
      </trkpt>
      <trkpt lat="37.593237" lon="126.987327">
        <ele>185.4</ele>
      </trkpt>
      <trkpt lat="37.59332" lon="126.987372">
        <ele>181.4</ele>
      </trkpt>
      <trkpt lat="37.593327" lon="126.987297">
        <ele>179.4</ele>
      </trkpt>
      <trkpt lat="37.593217" lon="126.987087">
        <ele>178.6</ele>
      </trkpt>
      <trkpt lat="37.593292" lon="126.986852">
        <ele>175.6</ele>
      </trkpt>
      <trkpt lat="37.593357" lon="126.986792">
        <ele>174.4</ele>
      </trkpt>
      <trkpt lat="37.593465" lon="126.9868">
        <ele>175</ele>
      </trkpt>
      <trkpt lat="37.593572" lon="126.98664">
        <ele>181.6</ele>
      </trkpt>
      <trkpt lat="37.593567" lon="126.986548">
        <ele>186</ele>
      </trkpt>
      <trkpt lat="37.593622" lon="126.986507">
        <ele>187.6</ele>
      </trkpt>
      <trkpt lat="37.593772" lon="126.986515">
        <ele>189.4</ele>
      </trkpt>
      <trkpt lat="37.593815" lon="126.986432">
        <ele>192.6</ele>
      </trkpt>
      <trkpt lat="37.5938" lon="126.986317">
        <ele>197.2</ele>
      </trkpt>
      <trkpt lat="37.593717" lon="126.98622">
        <ele>201.6</ele>
      </trkpt>
      <trkpt lat="37.593657" lon="126.986207">
        <ele>203.4</ele>
      </trkpt>
      <trkpt lat="37.593697" lon="126.98612">
        <ele>207.6</ele>
      </trkpt>
      <trkpt lat="37.593742" lon="126.98611">
        <ele>212</ele>
      </trkpt>
      <trkpt lat="37.593712" lon="126.986072">
        <ele>213.4</ele>
      </trkpt>
      <trkpt lat="37.59375" lon="126.985992">
        <ele>216.2</ele>
      </trkpt>
      <trkpt lat="37.593717" lon="126.985927">
        <ele>214.8</ele>
      </trkpt>
      <trkpt lat="37.593712" lon="126.986012">
        <ele>213.4</ele>
      </trkpt>
      <trkpt lat="37.593835" lon="126.986013">
        <ele>211</ele>
      </trkpt>
      <trkpt lat="37.594032" lon="126.98584">
        <ele>203.4</ele>
      </trkpt>
      <trkpt lat="37.594152" lon="126.985827">
        <ele>201.4</ele>
      </trkpt>
      <trkpt lat="37.594232" lon="126.985777">
        <ele>198.8</ele>
      </trkpt>
      <trkpt lat="37.594402" lon="126.985575">
        <ele>195.6</ele>
      </trkpt>
      <trkpt lat="37.594475" lon="126.985392">
        <ele>192.8</ele>
      </trkpt>
      <trkpt lat="37.594537" lon="126.985082">
        <ele>191.8</ele>
      </trkpt>
      <trkpt lat="37.59451" lon="126.984737">
        <ele>193.6</ele>
      </trkpt>
      <trkpt lat="37.594417" lon="126.984467">
        <ele>194.4</ele>
      </trkpt>
      <trkpt lat="37.594405" lon="126.984172">
        <ele>197.2</ele>
      </trkpt>
      <trkpt lat="37.594447" lon="126.983877">
        <ele>200</ele>
      </trkpt>
      <trkpt lat="37.59457" lon="126.983547">
        <ele>206.8</ele>
      </trkpt>
      <trkpt lat="37.594707" lon="126.983472">
        <ele>209.6</ele>
      </trkpt>
      <trkpt lat="37.594757" lon="126.983365">
        <ele>212.8</ele>
      </trkpt>
      <trkpt lat="37.594787" lon="126.983272">
        <ele>211.6</ele>
      </trkpt>
      <trkpt lat="37.59483" lon="126.982972">
        <ele>208.6</ele>
      </trkpt>
      <trkpt lat="37.59483" lon="126.98273">
        <ele>202</ele>
      </trkpt>
      <trkpt lat="37.59525" lon="126.982372">
        <ele>199.6</ele>
      </trkpt>
      <trkpt lat="37.595305" lon="126.982017">
        <ele>201.8</ele>
      </trkpt>
      <trkpt lat="37.595362" lon="126.981717">
        <ele>208.8</ele>
      </trkpt>
      <trkpt lat="37.595252" lon="126.981555">
        <ele>212</ele>
      </trkpt>
      <trkpt lat="37.595257" lon="126.981395">
        <ele>215</ele>
      </trkpt>
      <trkpt lat="37.595387" lon="126.98124">
        <ele>217.6</ele>
      </trkpt>
      <trkpt lat="37.595442" lon="126.981087">
        <ele>220</ele>
      </trkpt>
      <trkpt lat="37.595562" lon="126.98095">
        <ele>218.2</ele>
      </trkpt>
      <trkpt lat="37.595637" lon="126.980705">
        <ele>220.6</ele>
      </trkpt>
      <trkpt lat="37.59576" lon="126.980752">
        <ele>224</ele>
      </trkpt>
      <trkpt lat="37.59584" lon="126.98092">
        <ele>225.4</ele>
      </trkpt>
      <trkpt lat="37.595877" lon="126.980887">
        <ele>225.8</ele>
      </trkpt>
      <trkpt lat="37.596015" lon="126.980422">
        <ele>231</ele>
      </trkpt>
      <trkpt lat="37.596012" lon="126.980167">
        <ele>235.2</ele>
      </trkpt>
      <trkpt lat="37.596262" lon="126.97981">
        <ele>248.6</ele>
      </trkpt>
      <trkpt lat="37.596322" lon="126.979465">
        <ele>252.2</ele>
      </trkpt>
      <trkpt lat="37.596402" lon="126.979302">
        <ele>254.8</ele>
      </trkpt>
      <trkpt lat="37.596437" lon="126.979085">
        <ele>256.6</ele>
      </trkpt>
      <trkpt lat="37.59658" lon="126.978837">
        <ele>260.6</ele>
      </trkpt>
      <trkpt lat="37.596652" lon="126.978782">
        <ele>262.6</ele>
      </trkpt>
      <trkpt lat="37.596737" lon="126.978595">
        <ele>265.2</ele>
      </trkpt>
      <trkpt lat="37.596902" lon="126.97843">
        <ele>270.2</ele>
      </trkpt>
      <trkpt lat="37.597012" lon="126.978442">
        <ele>272.8</ele>
      </trkpt>
      <trkpt lat="37.59713" lon="126.978537">
        <ele>275.8</ele>
      </trkpt>
      <trkpt lat="37.597357" lon="126.978532">
        <ele>284</ele>
      </trkpt>
      <trkpt lat="37.59751" lon="126.978337">
        <ele>288.4</ele>
      </trkpt>
      <trkpt lat="37.59758" lon="126.978125">
        <ele>285.4</ele>
      </trkpt>
      <trkpt lat="37.597777" lon="126.977875">
        <ele>281.8</ele>
      </trkpt>
      <trkpt lat="37.597792" lon="126.977752">
        <ele>280.4</ele>
      </trkpt>
      <trkpt lat="37.59775" lon="126.977427">
        <ele>282.4</ele>
      </trkpt>
      <trkpt lat="37.597697" lon="126.977247">
        <ele>287.8</ele>
      </trkpt>
      <trkpt lat="37.59767" lon="126.976932">
        <ele>295.4</ele>
      </trkpt>
      <trkpt lat="37.597597" lon="126.976757">
        <ele>296.6</ele>
      </trkpt>
      <trkpt lat="37.597492" lon="126.976605">
        <ele>295.4</ele>
      </trkpt>
      <trkpt lat="37.597382" lon="126.976552">
        <ele>290.2</ele>
      </trkpt>
      <trkpt lat="37.597077" lon="126.976177">
        <ele>280.2</ele>
      </trkpt>
      <trkpt lat="37.596537" lon="126.97599">
        <ele>277.6</ele>
      </trkpt>
      <trkpt lat="37.596367" lon="126.975827">
        <ele>277.4</ele>
      </trkpt>
      <trkpt lat="37.595992" lon="126.975567">
        <ele>275.8</ele>
      </trkpt>
      <trkpt lat="37.595897" lon="126.975432">
        <ele>277.2</ele>
      </trkpt>
      <trkpt lat="37.595832" lon="126.975442">
        <ele>277</ele>
      </trkpt>
      <trkpt lat="37.595762" lon="126.975387">
        <ele>276.2</ele>
      </trkpt>
      <trkpt lat="37.595732" lon="126.975322">
        <ele>276.8</ele>
      </trkpt>
      <trkpt lat="37.595552" lon="126.975272">
        <ele>278.8</ele>
      </trkpt>
      <trkpt lat="37.595462" lon="126.975305">
        <ele>281.6</ele>
      </trkpt>
      <trkpt lat="37.59518" lon="126.975262">
        <ele>292</ele>
      </trkpt>
      <trkpt lat="37.59487" lon="126.975318">
        <ele>299.8</ele>
      </trkpt>
      <trkpt lat="37.594615" lon="126.974787">
        <ele>299.6</ele>
      </trkpt>
      <trkpt lat="37.59412" lon="126.97437">
        <ele>313.2</ele>
      </trkpt>
      <trkpt lat="37.593905" lon="126.97424">
        <ele>316</ele>
      </trkpt>
      <trkpt lat="37.593687" lon="126.973917">
        <ele>322.8</ele>
      </trkpt>
      <trkpt lat="37.593437" lon="126.973715">
        <ele>337.2</ele>
      </trkpt>
      <trkpt lat="37.593372" lon="126.973545">
        <ele>334.6</ele>
      </trkpt>
      <trkpt lat="37.593382" lon="126.973402">
        <ele>326.4</ele>
      </trkpt>
      <trkpt lat="37.593452" lon="126.973282">
        <ele>317</ele>
      </trkpt>
      <trkpt lat="37.593452" lon="126.973202">
        <ele>315</ele>
      </trkpt>
      <trkpt lat="37.593625" lon="126.973052">
        <ele>306.6</ele>
      </trkpt>
      <trkpt lat="37.593712" lon="126.972875">
        <ele>297.4</ele>
      </trkpt>
      <trkpt lat="37.593682" lon="126.972812">
        <ele>292</ele>
      </trkpt>
      <trkpt lat="37.593812" lon="126.972682">
        <ele>283.2</ele>
      </trkpt>
      <trkpt lat="37.593987" lon="126.97201">
        <ele>254</ele>
      </trkpt>
      <trkpt lat="37.593912" lon="126.97183">
        <ele>246</ele>
      </trkpt>
      <trkpt lat="37.593847" lon="126.971767">
        <ele>241.2</ele>
      </trkpt>
      <trkpt lat="37.593777" lon="126.971805">
        <ele>238.4</ele>
      </trkpt>
      <trkpt lat="37.59364" lon="126.971572">
        <ele>229.2</ele>
      </trkpt>
      <trkpt lat="37.593722" lon="126.971265">
        <ele>222</ele>
      </trkpt>
      <trkpt lat="37.593743" lon="126.971002">
        <ele>216.2</ele>
      </trkpt>
      <trkpt lat="37.593825" lon="126.970935">
        <ele>214.8</ele>
      </trkpt>
      <trkpt lat="37.593872" lon="126.970815">
        <ele>214.4</ele>
      </trkpt>
      <trkpt lat="37.593647" lon="126.970497">
        <ele>206.4</ele>
      </trkpt>
      <trkpt lat="37.593507" lon="126.970142">
        <ele>197</ele>
      </trkpt>
      <trkpt lat="37.593472" lon="126.969943">
        <ele>192.8</ele>
      </trkpt>
      <trkpt lat="37.593477" lon="126.969537">
        <ele>187.6</ele>
      </trkpt>
      <trkpt lat="37.593377" lon="126.969122">
        <ele>190.4</ele>
      </trkpt>
      <trkpt lat="37.593362" lon="126.96891">
        <ele>189.6</ele>
      </trkpt>
      <trkpt lat="37.593495" lon="126.968617">
        <ele>186.4</ele>
      </trkpt>
      <trkpt lat="37.593597" lon="126.968152">
        <ele>176.2</ele>
      </trkpt>
      <trkpt lat="37.593522" lon="126.967912">
        <ele>169.8</ele>
      </trkpt>
      <trkpt lat="37.59328" lon="126.967502">
        <ele>156.2</ele>
      </trkpt>
      <trkpt lat="37.593068" lon="126.966932">
        <ele>149</ele>
      </trkpt>
      <trkpt lat="37.593027" lon="126.966752">
        <ele>148.2</ele>
      </trkpt>
      <trkpt lat="37.592952" lon="126.966617">
        <ele>146.4</ele>
      </trkpt>
      <trkpt lat="37.592872" lon="126.966532">
        <ele>145.2</ele>
      </trkpt>
      <trkpt lat="37.592827" lon="126.96653">
        <ele>144.8</ele>
      </trkpt>
      <trkpt lat="37.592745" lon="126.96664">
        <ele>140.8</ele>
      </trkpt>
      <trkpt lat="37.592532" lon="126.966815">
        <ele>130.6</ele>
      </trkpt>
      <trkpt lat="37.592372" lon="126.967395">
        <ele>121.4</ele>
      </trkpt>
      <trkpt lat="37.592287" lon="126.967447">
        <ele>119.8</ele>
      </trkpt>
      <trkpt lat="37.592182" lon="126.96742">
        <ele>121</ele>
      </trkpt>
      <trkpt lat="37.591642" lon="126.966917">
        <ele>127.8</ele>
      </trkpt>
      <trkpt lat="37.591207" lon="126.966802">
        <ele>132.6</ele>
      </trkpt>
      <trkpt lat="37.591037" lon="126.9667">
        <ele>133</ele>
      </trkpt>
      <trkpt lat="37.590942" lon="126.96645">
        <ele>135.4</ele>
      </trkpt>
      <trkpt lat="37.590847" lon="126.965987">
        <ele>139</ele>
      </trkpt>
      <trkpt lat="37.590832" lon="126.965632">
        <ele>142</ele>
      </trkpt>
      <trkpt lat="37.59075" lon="126.965377">
        <ele>142.8</ele>
      </trkpt>
      <trkpt lat="37.59082" lon="126.965292">
        <ele>144</ele>
      </trkpt>
      <trkpt lat="37.59081" lon="126.965187">
        <ele>147.4</ele>
      </trkpt>
      <trkpt lat="37.590682" lon="126.964902">
        <ele>149.4</ele>
      </trkpt>
      <trkpt lat="37.590532" lon="126.964777">
        <ele>149.8</ele>
      </trkpt>
      <trkpt lat="37.590507" lon="126.964667">
        <ele>153</ele>
      </trkpt>
      <trkpt lat="37.59052" lon="126.964467">
        <ele>158.6</ele>
      </trkpt>
      <trkpt lat="37.590307" lon="126.964392">
        <ele>158.8</ele>
      </trkpt>
      <trkpt lat="37.590057" lon="126.964222">
        <ele>166.6</ele>
      </trkpt>
      <trkpt lat="37.589937" lon="126.964187">
        <ele>167.6</ele>
      </trkpt>
      <trkpt lat="37.589537" lon="126.96422">
        <ele>172.2</ele>
      </trkpt>
      <trkpt lat="37.589337" lon="126.964312">
        <ele>174.4</ele>
      </trkpt>
      <trkpt lat="37.589122" lon="126.964302">
        <ele>177.4</ele>
      </trkpt>
      <trkpt lat="37.588945" lon="126.964147">
        <ele>179.2</ele>
      </trkpt>
      <trkpt lat="37.588692" lon="126.963795">
        <ele>186.6</ele>
      </trkpt>
      <trkpt lat="37.588447" lon="126.963615">
        <ele>194.4</ele>
      </trkpt>
      <trkpt lat="37.588202" lon="126.963545">
        <ele>195.8</ele>
      </trkpt>
      <trkpt lat="37.58787" lon="126.963257">
        <ele>198.6</ele>
      </trkpt>
      <trkpt lat="37.587747" lon="126.962807">
        <ele>213</ele>
      </trkpt>
      <trkpt lat="37.587577" lon="126.962705">
        <ele>219.2</ele>
      </trkpt>
      <trkpt lat="37.587585" lon="126.962612">
        <ele>221.2</ele>
      </trkpt>
      <trkpt lat="37.587512" lon="126.962552">
        <ele>223.4</ele>
      </trkpt>
      <trkpt lat="37.587297" lon="126.962542">
        <ele>229.4</ele>
      </trkpt>
      <trkpt lat="37.587207" lon="126.962502">
        <ele>230.8</ele>
      </trkpt>
      <trkpt lat="37.586955" lon="126.962242">
        <ele>230</ele>
      </trkpt>
      <trkpt lat="37.58691" lon="126.961962">
        <ele>237</ele>
      </trkpt>
      <trkpt lat="37.586845" lon="126.961847">
        <ele>240.6</ele>
      </trkpt>
      <trkpt lat="37.586645" lon="126.961535">
        <ele>246.6</ele>
      </trkpt>
      <trkpt lat="37.586582" lon="126.961227">
        <ele>250</ele>
      </trkpt>
      <trkpt lat="37.586385" lon="126.96078">
        <ele>259.8</ele>
      </trkpt>
      <trkpt lat="37.586372" lon="126.960345">
        <ele>276.8</ele>
      </trkpt>
      <trkpt lat="37.586317" lon="126.960287">
        <ele>279</ele>
      </trkpt>
      <trkpt lat="37.586295" lon="126.960167">
        <ele>295.2</ele>
      </trkpt>
      <trkpt lat="37.586115" lon="126.959977">
        <ele>297</ele>
      </trkpt>
      <trkpt lat="37.586127" lon="126.959742">
        <ele>302.6</ele>
      </trkpt>
      <trkpt lat="37.586102" lon="126.959695">
        <ele>303.6</ele>
      </trkpt>
      <trkpt lat="37.58612" lon="126.959527">
        <ele>311.4</ele>
      </trkpt>
      <trkpt lat="37.5862" lon="126.959247">
        <ele>317.4</ele>
      </trkpt>
      <trkpt lat="37.586147" lon="126.959047">
        <ele>325.2</ele>
      </trkpt>
      <trkpt lat="37.58618" lon="126.95905">
        <ele>324.8</ele>
      </trkpt>
      <trkpt lat="37.586242" lon="126.959102">
        <ele>322.8</ele>
      </trkpt>
      <trkpt lat="37.586322" lon="126.959207">
        <ele>315.8</ele>
      </trkpt>
      <trkpt lat="37.586567" lon="126.9592">
        <ele>311.2</ele>
      </trkpt>
      <trkpt lat="37.586952" lon="126.959142">
        <ele>304.4</ele>
      </trkpt>
      <trkpt lat="37.58711" lon="126.959087">
        <ele>306.6</ele>
      </trkpt>
      <trkpt lat="37.587272" lon="126.95914">
        <ele>314</ele>
      </trkpt>
      <trkpt lat="37.587295" lon="126.959132">
        <ele>314.6</ele>
      </trkpt>
      <trkpt lat="37.58729" lon="126.959052">
        <ele>316.8</ele>
      </trkpt>
      <trkpt lat="37.58753" lon="126.95899">
        <ele>323.8</ele>
      </trkpt>
      <trkpt lat="37.587697" lon="126.958905">
        <ele>325</ele>
      </trkpt>
      <trkpt lat="37.587747" lon="126.958792">
        <ele>326</ele>
      </trkpt>
      <trkpt lat="37.588232" lon="126.958682">
        <ele>318.6</ele>
      </trkpt>
      <trkpt lat="37.588432" lon="126.958502">
        <ele>315.8</ele>
      </trkpt>
      <trkpt lat="37.588555" lon="126.958342">
        <ele>312</ele>
      </trkpt>
      <trkpt lat="37.588562" lon="126.95801">
        <ele>304.8</ele>
      </trkpt>
      <trkpt lat="37.588627" lon="126.957907">
        <ele>304.6</ele>
      </trkpt>
      <trkpt lat="37.58877" lon="126.95779">
        <ele>302.4</ele>
      </trkpt>
      <trkpt lat="37.58881" lon="126.957697">
        <ele>301.4</ele>
      </trkpt>
      <trkpt lat="37.588887" lon="126.957645">
        <ele>297.8</ele>
      </trkpt>
      <trkpt lat="37.589012" lon="126.957705">
        <ele>296.6</ele>
      </trkpt>
      <trkpt lat="37.589235" lon="126.957757">
        <ele>288.4</ele>
      </trkpt>
      <trkpt lat="37.589305" lon="126.957742">
        <ele>286</ele>
      </trkpt>
      <trkpt lat="37.589402" lon="126.957795">
        <ele>285.4</ele>
      </trkpt>
      <trkpt lat="37.589562" lon="126.95782">
        <ele>283.6</ele>
      </trkpt>
      <trkpt lat="37.589967" lon="126.957812">
        <ele>277.8</ele>
      </trkpt>
      <trkpt lat="37.590087" lon="126.957895">
        <ele>276.2</ele>
      </trkpt>
      <trkpt lat="37.590152" lon="126.95802">
        <ele>275.4</ele>
      </trkpt>
      <trkpt lat="37.59022" lon="126.958067">
        <ele>273.6</ele>
      </trkpt>
      <trkpt lat="37.590496" lon="126.958047">
        <ele>238.25</ele>
        <extensions>
          <gpxtpx:TrackPointExtension>
            <gpxtpx:Extensions>
              <highway>path</highway>
              <sac_scale>mountain_hiking</sac_scale>
              <route>hiking</route>
            </gpxtpx:Extensions>
          </gpxtpx:TrackPointExtension>
        </extensions>
      </trkpt>
      <trkpt lat="37.590786" lon="126.95808">
        <ele>235.25</ele>
        <extensions>
          <gpxtpx:TrackPointExtension>
            <gpxtpx:Extensions>
              <highway>path</highway>
              <sac_scale>mountain_hiking</sac_scale>
              <route>hiking</route>
            </gpxtpx:Extensions>
          </gpxtpx:TrackPointExtension>
        </extensions>
      </trkpt>
      <trkpt lat="37.591006" lon="126.958049">
        <ele>233</ele>
        <extensions>
          <gpxtpx:TrackPointExtension>
            <gpxtpx:Extensions>
              <highway>path</highway>
              <sac_scale>mountain_hiking</sac_scale>
              <route>hiking</route>
            </gpxtpx:Extensions>
          </gpxtpx:TrackPointExtension>
        </extensions>
      </trkpt>
      <trkpt lat="37.591212" lon="126.95812">
        <ele>231.75</ele>
        <extensions>
          <gpxtpx:TrackPointExtension>
            <gpxtpx:Extensions>
              <highway>path</highway>
              <sac_scale>mountain_hiking</sac_scale>
              <route>hiking</route>
            </gpxtpx:Extensions>
          </gpxtpx:TrackPointExtension>
        </extensions>
      </trkpt>
      <trkpt lat="37.59135007124636" lon="126.95807102626782">
        <ele>230.30474907646857</ele>
        <extensions>
          <gpxtpx:TrackPointExtension>
            <gpxtpx:Extensions>
              <highway>path</highway>
              <sac_scale>mountain_hiking</sac_scale>
              <route>hiking</route>
            </gpxtpx:Extensions>
          </gpxtpx:TrackPointExtension>
        </extensions>
      </trkpt>
      <trkpt lat="37.591444452919006" lon="126.95788492394041">
        <ele>228.46919346071604</ele>
        <extensions>
          <gpxtpx:TrackPointExtension>
            <gpxtpx:Extensions>
              <reversedirection>yes</reversedirection>
              <highway>path</highway>
            </gpxtpx:Extensions>
          </gpxtpx:TrackPointExtension>
        </extensions>
      </trkpt>
      <trkpt lat="37.591459" lon="126.957729">
        <ele>227.5</ele>
        <extensions>
          <gpxtpx:TrackPointExtension>
            <gpxtpx:Extensions>
              <reversedirection>yes</reversedirection>
              <highway>path</highway>
            </gpxtpx:Extensions>
          </gpxtpx:TrackPointExtension>
        </extensions>
      </trkpt>
      <trkpt lat="37.591522" lon="126.957643">
        <ele>226.5</ele>
      </trkpt>
      <trkpt lat="37.59152318310903" lon="126.9576433042279">
        <ele>227.31449602164446</ele>
      </trkpt>
      <trkpt lat="37.59155700000102" lon="126.95754218679797">
        <ele>246.87422104307947</ele>
      </trkpt>
      <trkpt lat="37.591557" lon="126.95754">
        <ele>246.8</ele>
      </trkpt>
      <trkpt lat="37.591517" lon="126.957485">
        <ele>244.4</ele>
      </trkpt>
      <trkpt lat="37.591487" lon="126.957297">
        <ele>239.8</ele>
      </trkpt>
      <trkpt lat="37.591502" lon="126.956912">
        <ele>229.6</ele>
      </trkpt>
      <trkpt lat="37.591472" lon="126.956882">
        <ele>228.2</ele>
      </trkpt>
      <trkpt lat="37.591462" lon="126.956787">
        <ele>224.8</ele>
      </trkpt>
      <trkpt lat="37.591485" lon="126.956745">
        <ele>223.8</ele>
      </trkpt>
      <trkpt lat="37.591467" lon="126.956665">
        <ele>218.4</ele>
      </trkpt>
      <trkpt lat="37.591507" lon="126.956557">
        <ele>215.2</ele>
      </trkpt>
      <trkpt lat="37.59149" lon="126.956482">
        <ele>213.6</ele>
      </trkpt>
      <trkpt lat="37.591548" lon="126.956257">
        <ele>208.4</ele>
      </trkpt>
      <trkpt lat="37.59153" lon="126.956117">
        <ele>205.4</ele>
      </trkpt>
      <trkpt lat="37.59174" lon="126.955927">
        <ele>202.2</ele>
      </trkpt>
      <trkpt lat="37.591885" lon="126.955682">
        <ele>196.8</ele>
      </trkpt>
      <trkpt lat="37.591765" lon="126.9555">
        <ele>190.8</ele>
      </trkpt>
      <trkpt lat="37.591722" lon="126.955245">
        <ele>186.2</ele>
      </trkpt>
      <trkpt lat="37.591627" lon="126.955322">
        <ele>182.4</ele>
      </trkpt>
      <trkpt lat="37.591527" lon="126.955337">
        <ele>178.6</ele>
      </trkpt>
      <trkpt lat="37.591392" lon="126.955205">
        <ele>171.8</ele>
      </trkpt>
      <trkpt lat="37.591315" lon="126.955195">
        <ele>169.6</ele>
      </trkpt>
      <trkpt lat="37.591217" lon="126.955242">
        <ele>167.6</ele>
      </trkpt>
      <trkpt lat="37.591057" lon="126.955137">
        <ele>163.8</ele>
      </trkpt>
      <trkpt lat="37.590935" lon="126.954992">
        <ele>158.8</ele>
      </trkpt>
      <trkpt lat="37.590792" lon="126.95494">
        <ele>155</ele>
      </trkpt>
      <trkpt lat="37.59078" lon="126.954657">
        <ele>148.2</ele>
      </trkpt>
      <trkpt lat="37.590822" lon="126.954372">
        <ele>143.8</ele>
      </trkpt>
      <trkpt lat="37.590815" lon="126.954162">
        <ele>140.6</ele>
      </trkpt>
      <trkpt lat="37.590922" lon="126.953942">
        <ele>139.4</ele>
      </trkpt>
      <trkpt lat="37.591042" lon="126.953492">
        <ele>136.4</ele>
      </trkpt>
      <trkpt lat="37.591425" lon="126.953227">
        <ele>131.6</ele>
      </trkpt>
      <trkpt lat="37.591697" lon="126.953277">
        <ele>126.4</ele>
      </trkpt>
      <trkpt lat="37.591782" lon="126.953222">
        <ele>125.2</ele>
      </trkpt>
      <trkpt lat="37.592042" lon="126.95325">
        <ele>120</ele>
      </trkpt>
      <trkpt lat="37.592167" lon="126.953187">
        <ele>120</ele>
      </trkpt>
      <trkpt lat="37.592342" lon="126.953302">
        <ele>120.4</ele>
      </trkpt>
      <trkpt lat="37.59252" lon="126.953317">
        <ele>122.6</ele>
      </trkpt>
      <trkpt lat="37.592752" lon="126.953252">
        <ele>121.4</ele>
      </trkpt>
      <trkpt lat="37.592847" lon="126.95319">
        <ele>121.4</ele>
      </trkpt>
      <trkpt lat="37.592913" lon="126.95309">
        <ele>122.2</ele>
      </trkpt>
      <trkpt lat="37.593205" lon="126.953035">
        <ele>121.4</ele>
      </trkpt>
      <trkpt lat="37.593342" lon="126.952907">
        <ele>122.4</ele>
      </trkpt>
      <trkpt lat="37.593487" lon="126.952915">
        <ele>121.6</ele>
      </trkpt>
      <trkpt lat="37.59353" lon="126.95286">
        <ele>121.2</ele>
      </trkpt>
      <trkpt lat="37.593737" lon="126.952862">
        <ele>118.6</ele>
      </trkpt>
      <trkpt lat="37.593622" lon="126.9527">
        <ele>112.4</ele>
      </trkpt>
      <trkpt lat="37.593565" lon="126.952545">
        <ele>106</ele>
      </trkpt>
      <trkpt lat="37.593557" lon="126.952482">
        <ele>104.8</ele>
      </trkpt>
      <trkpt lat="37.593617" lon="126.952415">
        <ele>101.2</ele>
      </trkpt>
      <trkpt lat="37.593367" lon="126.952372">
        <ele>100.8</ele>
      </trkpt>
    </trkseg>
  </trk>
</gpx>
