<?xml version="1.0" encoding="UTF-8" standalone="no"?><gpx xmlns="http://www.topografix.com/GPX/1/1" xmlns:xsi="http://www.w3.org/2001/XMLSchema-instance" creator="Sports Tracker" version="1.1" xsi:schemaLocation="http://www.topografix.com/GPX/1/1 http://www.topografix.com/GPX/1/1/gpx.xsd"><metadata><name>완주 23k - 임도돌리기</name><author><name>k747678</name></author></metadata><wpt lat="35.974167" lon="127.23316"><name>Begin</name><desc>Auto-generated</desc><type>Begin</type></wpt><wpt lat="35.974445" lon="127.23346"><type>Right_turn</type></wpt><wpt lat="35.973675" lon="127.233955"><name>Waypoint 1</name><desc>Auto-generated</desc><type>Waypoint</type></wpt><wpt lat="35.972916" lon="127.23241"><name>Waypoint 2</name><desc>Auto-generated</desc><type>Waypoint</type></wpt><wpt lat="35.973846" lon="127.23279"><name>Waypoint 3</name><desc>Auto-generated</desc><type>Waypoint</type></wpt><wpt lat="35.973846" lon="127.232796"><type>Left_turn</type></wpt><wpt lat="35.97391" lon="127.23271"><name>Waypoint 4</name><desc>Auto-generated</desc><type>Waypoint</type></wpt><wpt lat="35.973915" lon="127.232704"><type>Left_turn</type></wpt><wpt lat="35.97019" lon="127.23494"><name>Waypoint 5</name><desc>Auto-generated</desc><type>Waypoint</type></wpt><wpt lat="35.962597" lon="127.23364"><name>Waypoint 6</name><desc>Auto-generated</desc><type>Waypoint</type></wpt><wpt lat="35.96258" lon="127.2336"><name>고산휴양림로로 좌회</name><type>Left_turn</type></wpt><wpt lat="35.961105" lon="127.234055"><name>좌측 유지</name><type>Left_at_fork_turn</type></wpt><wpt lat="35.958916" lon="127.23598"><name>우측 유지</name><type>Right_at_fork_turn</type></wpt><wpt lat="35.95268" lon="127.23784"><name>Waypoint 7</name><desc>Auto-generated</desc><type>Waypoint</type></wpt><wpt lat="35.94971" lon="127.23991"><name>Waypoint 8</name><desc>Auto-generated</desc><type>Waypoint</type></wpt><wpt lat="35.949337" lon="127.23945"><name>Waypoint 9</name><desc>Auto-generated</desc><type>Waypoint</type></wpt><wpt lat="35.95243" lon="127.23692"><type>Left_turn</type></wpt><wpt lat="35.952415" lon="127.23689"><name>Waypoint 10</name><desc>Auto-generated</desc><type>Waypoint</type></wpt><wpt lat="35.954975" lon="127.231064"><name>좌측 유지</name><type>Left_at_fork_turn</type></wpt><wpt lat="35.954155" lon="127.22625"><type>Left_turn</type></wpt><wpt lat="35.954098" lon="127.22625"><name>Waypoint 11</name><desc>Auto-generated</desc><type>Waypoint</type></wpt><wpt lat="35.92773" lon="127.23712"><type>Left_turn</type></wpt><wpt lat="35.927372" lon="127.23903"><name>Waypoint 12</name><desc>Auto-generated</desc><type>Waypoint</type></wpt><wpt lat="35.919952" lon="127.24126"><name>Waypoint 13</name><desc>Auto-generated</desc><type>Waypoint</type></wpt><wpt lat="35.919933" lon="127.24127"><name>오른쪽 방향</name><type>Sharp_right_turn</type></wpt><wpt lat="35.92095" lon="127.236404"><name>Waypoint 14</name><desc>Auto-generated</desc><type>Waypoint</type></wpt><wpt lat="35.926994" lon="127.22742"><name>우측 유지</name><type>Right_at_fork_turn</type></wpt><wpt lat="35.927277" lon="127.22603"><name>Waypoint 15</name><desc>Auto-generated</desc><type>Waypoint</type></wpt><wpt lat="35.92907" lon="127.22564"><name>Waypoint 16</name><desc>Auto-generated</desc><type>Waypoint</type></wpt><wpt lat="35.934814" lon="127.223366"><name>Waypoint 17</name><desc>Auto-generated</desc><type>Waypoint</type></wpt><wpt lat="35.934845" lon="127.22348"><name>성재길로 좌회전</name><type>Left_turn</type></wpt><wpt lat="35.953148" lon="127.213165"><name>Waypoint 18</name><desc>Auto-generated</desc><type>Waypoint</type></wpt><wpt lat="35.954803" lon="127.21304"><name>Waypoint 19</name><desc>Auto-generated</desc><type>Waypoint</type></wpt><wpt lat="35.957092" lon="127.21219"><name>Waypoint 20</name><desc>Auto-generated</desc><type>Waypoint</type></wpt><wpt lat="35.957172" lon="127.21215"><name>741로 우회전</name><type>Right_turn</type></wpt><wpt lat="35.960964" lon="127.21234"><name>Waypoint 21</name><desc>Auto-generated</desc><type>Waypoint</type></wpt><wpt lat="35.962475" lon="127.21248"><name>Waypoint 22</name><desc>Auto-generated</desc><type>Waypoint</type></wpt><wpt lat="35.967148" lon="127.21401"><name>Waypoint 23</name><desc>Auto-generated</desc><type>Waypoint</type></wpt><wpt lat="35.967278" lon="127.21411"><name>화전1길로 우회전</name><type>Right_turn</type></wpt><wpt lat="35.967136" lon="127.21448"><name>화전1길로 우측 유지</name><type>Right_at_fork_turn</type></wpt><wpt lat="35.960533" lon="127.21897"><name>Waypoint 24</name><desc>Auto-generated</desc><type>Waypoint</type></wpt><wpt lat="35.960533" lon="127.21898"><name>좌측 유지</name><type>Left_at_fork_turn</type></wpt><wpt lat="35.960293" lon="127.22112"><name>Waypoint 25</name><desc>Auto-generated</desc><type>Waypoint</type></wpt><wpt lat="35.959133" lon="127.22289"><type>Left_turn</type></wpt><wpt lat="35.95892" lon="127.22311"><name>Waypoint 26</name><desc>Auto-generated</desc><type>Waypoint</type></wpt><wpt lat="35.958443" lon="127.22327"><name>왼쪽 방향</name><type>Sharp_left_turn</type></wpt><wpt lat="35.9587" lon="127.224045"><name>Waypoint 27</name><desc>Auto-generated</desc><type>Waypoint</type></wpt><wpt lat="35.9587" lon="127.224106"><name>왼쪽 방향</name><type>Sharp_left_turn</type></wpt><wpt lat="35.95933" lon="127.22482"><type>Left_turn</type></wpt><wpt lat="35.959373" lon="127.22485"><name>Waypoint 28</name><desc>Auto-generated</desc><type>Waypoint</type></wpt><wpt lat="35.963585" lon="127.23112"><name>Waypoint 29</name><desc>Auto-generated</desc><type>Waypoint</type></wpt><wpt lat="35.962185" lon="127.23207"><name>Waypoint 30</name><desc>Auto-generated</desc><type>Waypoint</type></wpt><wpt lat="35.962154" lon="127.232185"><type>Left_turn</type></wpt><wpt lat="35.967625" lon="127.23431"><name>고산휴양림로로 오른</name><type>Sharp_right_turn</type></wpt><wpt lat="35.967567" lon="127.23431"><name>Waypoint 31</name><desc>Auto-generated</desc><type>Waypoint</type></wpt><wpt lat="35.96708" lon="127.23436"><name>Waypoint 32</name><desc>Auto-generated</desc><type>Waypoint</type></wpt><wpt lat="35.96697" lon="127.2349"><name>Waypoint 33</name><desc>Auto-generated</desc><type>Waypoint</type></wpt><wpt lat="35.97075" lon="127.23471"><name>Waypoint 34</name><desc>Auto-generated</desc><type>Waypoint</type></wpt><wpt lat="35.973557" lon="127.23445"><name>End</name><desc>Auto-generated</desc><type>End</type></wpt><rte><rtept lat="35.974167" lon="127.23316"><ele>76.51</ele></rtept><rtept lat="35.974445" lon="127.23346"><ele>76.4</ele></rtept><rtept lat="35.97432" lon="127.233864"><ele>77.11</ele></rtept><rtept lat="35.974243" lon="127.23396"><ele>77.68</ele></rtept><rtept lat="35.97399" lon="127.23399"><ele>78.99</ele></rtept><rtept lat="35.973812" lon="127.233986"><ele>79.94</ele></rtept><rtept lat="35.973675" lon="127.233955"><ele>80.83</ele></rtept><rtept lat="35.97348" lon="127.2339"><ele>81.71</ele></rtept><rtept lat="35.973274" lon="127.233894"><ele>82.8</ele></rtept><rtept lat="35.973175" lon="127.23392"><ele>83.33</ele></rtept><rtept lat="35.973083" lon="127.233894"><ele>83.03</ele></rtept><rtept lat="35.973015" lon="127.233826"><ele>82.29</ele></rtept><rtept lat="35.972878" lon="127.23318"><ele>77.93</ele></rtept><rtept lat="35.97282" lon="127.232605"><ele>78.21</ele></rtept><rtept lat="35.972847" lon="127.232506"><ele>78.09</ele></rtept><rtept lat="35.972893" lon="127.23242"><ele>77.99</ele></rtept><rtept lat="35.972916" lon="127.23241"><ele>77.94</ele></rtept><rtept lat="35.97296" lon="127.23237"><ele>77.89</ele></rtept><rtept lat="35.973083" lon="127.23235"><ele>77.73</ele></rtept><rtept lat="35.973232" lon="127.23237"><ele>77.53</ele></rtept><rtept lat="35.973373" lon="127.23242"><ele>77.34</ele></rtept><rtept lat="35.973568" lon="127.23253"><ele>77.07</ele></rtept><rtept lat="35.973846" lon="127.23279"><ele>76.84</ele></rtept><rtept lat="35.973846" lon="127.232796"><ele>76.61</ele></rtept><rtept lat="35.97391" lon="127.23271"><ele>76.76</ele></rtept><rtept lat="35.973915" lon="127.232704"><ele>76.9</ele></rtept><rtept lat="35.973797" lon="127.23252"><ele>77.35</ele></rtept><rtept lat="35.97366" lon="127.23238"><ele>77.76</ele></rtept><rtept lat="35.973473" lon="127.23227"><ele>78.25</ele></rtept><rtept lat="35.973263" lon="127.2322"><ele>78.76</ele></rtept><rtept lat="35.973" lon="127.2322"><ele>79.38</ele></rtept><rtept lat="35.972813" lon="127.23225"><ele>79.83</ele></rtept><rtept lat="35.972637" lon="127.23233"><ele>80.26</ele></rtept><rtept lat="35.97241" lon="127.23252"><ele>80.91</ele></rtept><rtept lat="35.97178" lon="127.23336"><ele>82.06</ele></rtept><rtept lat="35.971542" lon="127.2337"><ele>83.51</ele></rtept><rtept lat="35.97145" lon="127.23377"><ele>83.95</ele></rtept><rtept lat="35.97131" lon="127.23401"><ele>84.91</ele></rtept><rtept lat="35.971138" lon="127.23434"><ele>86.16</ele></rtept><rtept lat="35.971058" lon="127.234566"><ele>86.99</ele></rtept><rtept lat="35.970818" lon="127.23466"><ele>87.98</ele></rtept><rtept lat="35.970627" lon="127.23479"><ele>88.86</ele></rtept><rtept lat="35.97051" lon="127.234856"><ele>89.38</ele></rtept><rtept lat="35.970314" lon="127.2349"><ele>90.18</ele></rtept><rtept lat="35.97019" lon="127.23494"><ele>91.4</ele></rtept><rtept lat="35.96989" lon="127.23518"><ele>92.14</ele></rtept><rtept lat="35.969074" lon="127.23537"><ele>95.47</ele></rtept><rtept lat="35.968605" lon="127.23541"><ele>96.43</ele></rtept><rtept lat="35.968338" lon="127.235405"><ele>98.6</ele></rtept><rtept lat="35.968018" lon="127.23531"><ele>101.26</ele></rtept><rtept lat="35.967503" lon="127.23509"><ele>105.7</ele></rtept><rtept lat="35.96715" lon="127.23501"><ele>108.6</ele></rtept><rtept lat="35.96701" lon="127.234924"><ele>109.88</ele></rtept><rtept lat="35.96672" lon="127.234856"><ele>112.27</ele></rtept><rtept lat="35.966568" lon="127.23479"><ele>113.6</ele></rtept><rtept lat="35.96611" lon="127.23438"><ele>117.81</ele></rtept><rtept lat="35.965977" lon="127.23419"><ele>114.01</ele></rtept><rtept lat="35.96587" lon="127.233986"><ele>110.21</ele></rtept><rtept lat="35.96579" lon="127.23389"><ele>108.07</ele></rtept><rtept lat="35.96572" lon="127.23383"><ele>106.72</ele></rtept><rtept lat="35.96562" lon="127.23383"><ele>108.31</ele></rtept><rtept lat="35.965538" lon="127.23391"><ele>109.89</ele></rtept><rtept lat="35.965343" lon="127.234146"><ele>114.01</ele></rtept><rtept lat="35.96525" lon="127.23418"><ele>115.07</ele></rtept><rtept lat="35.96519" lon="127.234116"><ele>112.49</ele></rtept><rtept lat="35.965195" lon="127.23405"><ele>110.73</ele></rtept><rtept lat="35.965324" lon="127.23389"><ele>104.53</ele></rtept><rtept lat="35.965317" lon="127.233795"><ele>101.97</ele></rtept><rtept lat="35.965267" lon="127.23374"><ele>103.31</ele></rtept><rtept lat="35.964962" lon="127.23387"><ele>103.52</ele></rtept><rtept lat="35.96468" lon="127.23383"><ele>103.7</ele></rtept><rtept lat="35.964333" lon="127.233955"><ele>103.93</ele></rtept><rtept lat="35.963753" lon="127.23405"><ele>104.31</ele></rtept><rtept lat="35.963596" lon="127.23407"><ele>104.41</ele></rtept><rtept lat="35.96339" lon="127.23405"><ele>104.54</ele></rtept><rtept lat="35.96307" lon="127.23407"><ele>104.75</ele></rtept><rtept lat="35.96288" lon="127.23398"><ele>104.88</ele></rtept><rtept lat="35.96274" lon="127.23389"><ele>104.98</ele></rtept><rtept lat="35.962643" lon="127.233765"><ele>105.07</ele></rtept><rtept lat="35.962597" lon="127.23364"><ele>105.05</ele></rtept><rtept lat="35.96258" lon="127.2336"><ele>105.04</ele></rtept><rtept lat="35.961697" lon="127.23361"><ele>106.9</ele></rtept><rtept lat="35.9612" lon="127.234024"><ele>109.05</ele></rtept><rtept lat="35.961105" lon="127.234055"><ele>109.64</ele></rtept><rtept lat="35.96103" lon="127.23413"><ele>110.31</ele></rtept><rtept lat="35.960716" lon="127.23452"><ele>113.4</ele></rtept><rtept lat="35.96049" lon="127.23465"><ele>115.11</ele></rtept><rtept lat="35.960262" lon="127.23482"><ele>116.86</ele></rtept><rtept lat="35.960114" lon="127.23494"><ele>117.27</ele></rtept><rtept lat="35.959953" lon="127.23501"><ele>117.64</ele></rtept><rtept lat="35.959824" lon="127.235016"><ele>117.93</ele></rtept><rtept lat="35.959496" lon="127.23501"><ele>118.67</ele></rtept><rtept lat="35.959263" lon="127.23512"><ele>119.24</ele></rtept><rtept lat="35.959118" lon="127.235214"><ele>119.6</ele></rtept><rtept lat="35.95907" lon="127.23529"><ele>119.79</ele></rtept><rtept lat="35.95901" lon="127.2356"><ele>119.64</ele></rtept><rtept lat="35.958916" lon="127.23598"><ele>119.5</ele></rtept><rtept lat="35.958786" lon="127.236084"><ele>120.38</ele></rtept><rtept lat="35.95869" lon="127.236115"><ele>120.94</ele></rtept><rtept lat="35.957836" lon="127.23612"><ele>125.75</ele></rtept><rtept lat="35.957222" lon="127.236115"><ele>129.08</ele></rtept><rtept lat="35.957077" lon="127.23614"><ele>128.57</ele></rtept><rtept lat="35.95698" lon="127.236176"><ele>128.22</ele></rtept><rtept lat="35.956882" lon="127.23623"><ele>127.85</ele></rtept><rtept lat="35.956764" lon="127.2363"><ele>127.4</ele></rtept><rtept lat="35.956654" lon="127.236374"><ele>126.95</ele></rtept><rtept lat="35.956432" lon="127.23658"><ele>125.99</ele></rtept><rtept lat="35.956303" lon="127.23674"><ele>125.34</ele></rtept><rtept lat="35.956135" lon="127.23688"><ele>124.65</ele></rtept><rtept lat="35.955982" lon="127.23698"><ele>124.06</ele></rtept><rtept lat="35.955338" lon="127.237175"><ele>126.57</ele></rtept><rtept lat="35.954952" lon="127.23716"><ele>129.49</ele></rtept><rtept lat="35.954765" lon="127.23709"><ele>130.96</ele></rtept><rtept lat="35.95429" lon="127.23686"><ele>134.47</ele></rtept><rtept lat="35.953922" lon="127.236755"><ele>133.31</ele></rtept><rtept lat="35.953747" lon="127.23677"><ele>132.76</ele></rtept><rtept lat="35.953632" lon="127.23682"><ele>132.39</ele></rtept><rtept lat="35.95338" lon="127.23704"><ele>131.63</ele></rtept><rtept lat="35.95281" lon="127.237724"><ele>138.11</ele></rtept><rtept lat="35.95268" lon="127.23784"><ele>141.31</ele></rtept><rtept lat="35.94971" lon="127.23991"><ele>163.33</ele></rtept><rtept lat="35.949337" lon="127.23945"><ele>164.37</ele></rtept><rtept lat="35.949326" lon="127.23943"><ele>164.37</ele></rtept><rtept lat="35.949413" lon="127.23922"><ele>165.42</ele></rtept><rtept lat="35.949726" lon="127.23872"><ele>170.82</ele></rtept><rtept lat="35.94994" lon="127.23854"><ele>173.58</ele></rtept><rtept lat="35.95052" lon="127.238266"><ele>166.53</ele></rtept><rtept lat="35.950806" lon="127.23811"><ele>162.89</ele></rtept><rtept lat="35.95133" lon="127.237656"><ele>155.45</ele></rtept><rtept lat="35.95163" lon="127.23735"><ele>151.83</ele></rtept><rtept lat="35.952133" lon="127.23709"><ele>148.39</ele></rtept><rtept lat="35.95243" lon="127.23692"><ele>146.33</ele></rtept><rtept lat="35.952415" lon="127.23689"><ele>146.78</ele></rtept><rtept lat="35.952404" lon="127.236786"><ele>149.63</ele></rtept><rtept lat="35.952385" lon="127.236755"><ele>150.3</ele></rtept><rtept lat="35.952335" lon="127.23676"><ele>150.18</ele></rtept><rtept lat="35.952293" lon="127.2366"><ele>153.49</ele></rtept><rtept lat="35.95232" lon="127.23632"><ele>159.79</ele></rtept><rtept lat="35.952312" lon="127.23619"><ele>162.51</ele></rtept><rtept lat="35.952328" lon="127.236145"><ele>163.44</ele></rtept><rtept lat="35.95236" lon="127.23613"><ele>164.4</ele></rtept><rtept lat="35.95236" lon="127.23608"><ele>165.27</ele></rtept><rtept lat="35.952404" lon="127.23597"><ele>168.04</ele></rtept><rtept lat="35.95241" lon="127.23589"><ele>169.6</ele></rtept><rtept lat="35.95246" lon="127.235825"><ele>171.85</ele></rtept><rtept lat="35.952473" lon="127.23572"><ele>174.01</ele></rtept><rtept lat="35.9525" lon="127.23563"><ele>176.43</ele></rtept><rtept lat="35.952557" lon="127.23555"><ele>179.06</ele></rtept><rtept lat="35.9526" lon="127.235466"><ele>181.7</ele></rtept><rtept lat="35.952747" lon="127.23505"><ele>190.78</ele></rtept><rtept lat="35.952824" lon="127.23497"><ele>194.86</ele></rtept><rtept lat="35.952885" lon="127.23486"><ele>199.24</ele></rtept><rtept lat="35.952885" lon="127.23483"><ele>200.28</ele></rtept><rtept lat="35.952957" lon="127.23479"><ele>203.64</ele></rtept><rtept lat="35.953026" lon="127.23468"><ele>208.13</ele></rtept><rtept lat="35.95308" lon="127.23452"><ele>213.89</ele></rtept><rtept lat="35.953163" lon="127.234406"><ele>218.98</ele></rtept><rtept lat="35.953182" lon="127.23441"><ele>219.86</ele></rtept><rtept lat="35.953228" lon="127.23435"><ele>222.5</ele></rtept><rtept lat="35.953274" lon="127.23425"><ele>226.33</ele></rtept><rtept lat="35.953278" lon="127.23418"><ele>228.81</ele></rtept><rtept lat="35.953335" lon="127.234116"><ele>231.96</ele></rtept><rtept lat="35.95335" lon="127.23406"><ele>233.79</ele></rtept><rtept lat="35.953503" lon="127.233955"><ele>241.16</ele></rtept><rtept lat="35.95356" lon="127.23389"><ele>244.29</ele></rtept><rtept lat="35.953594" lon="127.233826"><ele>246.98</ele></rtept><rtept lat="35.95363" lon="127.2338"><ele>248.44</ele></rtept><rtept lat="35.95364" lon="127.233765"><ele>249.94</ele></rtept><rtept lat="35.9537" lon="127.23374"><ele>252.51</ele></rtept><rtept lat="35.95372" lon="127.23376"><ele>253.41</ele></rtept><rtept lat="35.95378" lon="127.23371"><ele>256.27</ele></rtept><rtept lat="35.953835" lon="127.23362"><ele>260.02</ele></rtept><rtept lat="35.95384" lon="127.23357"><ele>261.98</ele></rtept><rtept lat="35.953896" lon="127.233475"><ele>265.78</ele></rtept><rtept lat="35.953896" lon="127.233444"><ele>266.77</ele></rtept><rtept lat="35.95394" lon="127.23336"><ele>270.06</ele></rtept><rtept lat="35.953957" lon="127.2333"><ele>272.38</ele></rtept><rtept lat="35.953995" lon="127.23326"><ele>274.36</ele></rtept><rtept lat="35.95399" lon="127.23323"><ele>275.3</ele></rtept><rtept lat="35.95405" lon="127.23314"><ele>279.19</ele></rtept><rtept lat="35.954067" lon="127.233055"><ele>282.12</ele></rtept><rtept lat="35.954185" lon="127.232956"><ele>288.07</ele></rtept><rtept lat="35.954277" lon="127.23279"><ele>294.79</ele></rtept><rtept lat="35.954308" lon="127.23276"><ele>296.4</ele></rtept><rtept lat="35.95443" lon="127.23267"><ele>296.25</ele></rtept><rtept lat="35.954506" lon="127.232666"><ele>298.2</ele></rtept><rtept lat="35.95463" lon="127.23257"><ele>302.16</ele></rtept><rtept lat="35.954666" lon="127.232475"><ele>304.3</ele></rtept><rtept lat="35.954674" lon="127.23236"><ele>306.82</ele></rtept><rtept lat="35.954704" lon="127.23224"><ele>309.46</ele></rtept><rtept lat="35.954704" lon="127.23195"><ele>315.69</ele></rtept><rtept lat="35.954773" lon="127.23172"><ele>320.92</ele></rtept><rtept lat="35.95479" lon="127.23163"><ele>322.96</ele></rtept><rtept lat="35.954823" lon="127.231544"><ele>325.03</ele></rtept><rtept lat="35.954807" lon="127.23145"><ele>326.96</ele></rtept><rtept lat="35.954834" lon="127.231316"><ele>330.03</ele></rtept><rtept lat="35.954914" lon="127.23114"><ele>334.37</ele></rtept><rtept lat="35.954945" lon="127.231125"><ele>335.22</ele></rtept><rtept lat="35.954975" lon="127.231064"><ele>336.73</ele></rtept><rtept lat="35.95495" lon="127.23079"><ele>343.78</ele></rtept><rtept lat="35.95486" lon="127.2306"><ele>343.42</ele></rtept><rtept lat="35.95486" lon="127.230354"><ele>354.36</ele></rtept><rtept lat="35.954838" lon="127.23024"><ele>359.63</ele></rtept><rtept lat="35.954838" lon="127.23012"><ele>365.13</ele></rtept><rtept lat="35.954876" lon="127.22995"><ele>372.69</ele></rtept><rtept lat="35.95487" lon="127.22987"><ele>376.17</ele></rtept><rtept lat="35.95489" lon="127.22985"><ele>377.87</ele></rtept><rtept lat="35.954872" lon="127.22979"><ele>380.51</ele></rtept><rtept lat="35.954926" lon="127.22971"><ele>385.22</ele></rtept><rtept lat="35.954906" lon="127.22967"><ele>387.3</ele></rtept><rtept lat="35.954914" lon="127.22963"><ele>389.25</ele></rtept><rtept lat="35.954964" lon="127.229515"><ele>394.85</ele></rtept><rtept lat="35.954933" lon="127.22944"><ele>398.6</ele></rtept><rtept lat="35.95497" lon="127.22932"><ele>404.4</ele></rtept><rtept lat="35.954964" lon="127.22926"><ele>406.87</ele></rtept><rtept lat="35.954945" lon="127.22925"><ele>408.19</ele></rtept><rtept lat="35.95494" lon="127.22913"><ele>413.15</ele></rtept><rtept lat="35.95492" lon="127.22911"><ele>414.59</ele></rtept><rtept lat="35.954926" lon="127.22906"><ele>416.78</ele></rtept><rtept lat="35.954987" lon="127.228935"><ele>423.14</ele></rtept><rtept lat="35.954956" lon="127.22872"><ele>432.91</ele></rtept><rtept lat="35.954975" lon="127.228615"><ele>437.68</ele></rtept><rtept lat="35.95501" lon="127.22856"><ele>440.68</ele></rtept><rtept lat="35.955017" lon="127.22851"><ele>443.01</ele></rtept><rtept lat="35.955006" lon="127.228485"><ele>444.27</ele></rtept><rtept lat="35.955013" lon="127.22843"><ele>446.71</ele></rtept><rtept lat="35.954998" lon="127.22838"><ele>449.27</ele></rtept><rtept lat="35.955017" lon="127.22834"><ele>451.23</ele></rtept><rtept lat="35.954987" lon="127.22827"><ele>454.75</ele></rtept><rtept lat="35.954975" lon="127.22816"><ele>460.08</ele></rtept><rtept lat="35.95495" lon="127.228096"><ele>462.96</ele></rtept><rtept lat="35.954952" lon="127.22803"><ele>465.95</ele></rtept><rtept lat="35.954937" lon="127.22801"><ele>467.13</ele></rtept><rtept lat="35.954933" lon="127.22794"><ele>470.13</ele></rtept><rtept lat="35.954964" lon="127.22784"><ele>474.16</ele></rtept><rtept lat="35.954956" lon="127.2278"><ele>475.52</ele></rtept><rtept lat="35.95489" lon="127.227776"><ele>477.4</ele></rtept><rtept lat="35.954865" lon="127.22774"><ele>479.19</ele></rtept><rtept lat="35.954872" lon="127.2277"><ele>480.3</ele></rtept><rtept lat="35.954926" lon="127.227646"><ele>481.07</ele></rtept><rtept lat="35.95487" lon="127.227554"><ele>485.44</ele></rtept><rtept lat="35.9549" lon="127.22752"><ele>485.94</ele></rtept><rtept lat="35.954895" lon="127.22749"><ele>482.03</ele></rtept><rtept lat="35.954857" lon="127.227455"><ele>484.73</ele></rtept><rtept lat="35.9549" lon="127.227356"><ele>489.64</ele></rtept><rtept lat="35.954857" lon="127.22733"><ele>492.07</ele></rtept><rtept lat="35.95483" lon="127.227295"><ele>494.33</ele></rtept><rtept lat="35.95483" lon="127.227234"><ele>496.96</ele></rtept><rtept lat="35.95479" lon="127.22715"><ele>501.24</ele></rtept><rtept lat="35.954723" lon="127.22713"><ele>504.76</ele></rtept><rtept lat="35.95467" lon="127.22706"><ele>509.06</ele></rtept><rtept lat="35.954575" lon="127.22698"><ele>515.17</ele></rtept><rtept lat="35.95458" lon="127.226944"><ele>514.68</ele></rtept><rtept lat="35.954536" lon="127.226845"><ele>516.35</ele></rtept><rtept lat="35.954483" lon="127.22684"><ele>517.27</ele></rtept><rtept lat="35.954437" lon="127.22674"><ele>518.92</ele></rtept><rtept lat="35.95439" lon="127.22671"><ele>519.86</ele></rtept><rtept lat="35.9544" lon="127.22665"><ele>520.73</ele></rtept><rtept lat="35.954384" lon="127.22657"><ele>521.96</ele></rtept><rtept lat="35.95434" lon="127.22654"><ele>522.85</ele></rtept><rtept lat="35.95432" lon="127.226494"><ele>523.56</ele></rtept><rtept lat="35.954285" lon="127.22651"><ele>523.61</ele></rtept><rtept lat="35.95428" lon="127.22646"><ele>522.96</ele></rtept><rtept lat="35.954212" lon="127.226364"><ele>520.99</ele></rtept><rtept lat="35.954193" lon="127.226364"><ele>520.64</ele></rtept><rtept lat="35.954155" lon="127.22625"><ele>518.87</ele></rtept><rtept lat="35.954098" lon="127.22625"><ele>519.32</ele></rtept><rtept lat="35.95407" lon="127.22624"><ele>519.76</ele></rtept><rtept lat="35.953896" lon="127.226326"><ele>515.12</ele></rtept><rtept lat="35.95386" lon="127.226395"><ele>513.58</ele></rtept><rtept lat="35.953785" lon="127.22643"><ele>511.55</ele></rtept><rtept lat="35.953697" lon="127.22646"><ele>509.39</ele></rtept><rtept lat="35.953648" lon="127.22644"><ele>508.07</ele></rtept><rtept lat="35.953556" lon="127.226494"><ele>505.5</ele></rtept><rtept lat="35.953484" lon="127.22648"><ele>503.73</ele></rtept><rtept lat="35.95339" lon="127.22638"><ele>500.67</ele></rtept><rtept lat="35.953365" lon="127.22638"><ele>500.03</ele></rtept><rtept lat="35.953354" lon="127.2264"><ele>499.55</ele></rtept><rtept lat="35.953197" lon="127.226425"><ele>495.65</ele></rtept><rtept lat="35.95314" lon="127.2264"><ele>494.22</ele></rtept><rtept lat="35.95309" lon="127.226425"><ele>492.9</ele></rtept><rtept lat="35.953033" lon="127.2264"><ele>491.41</ele></rtept><rtept lat="35.95289" lon="127.22641"><ele>487.86</ele></rtept><rtept lat="35.952785" lon="127.22636"><ele>485.14</ele></rtept><rtept lat="35.95262" lon="127.22633"><ele>481.08</ele></rtept><rtept lat="35.952393" lon="127.22625"><ele>478.2</ele></rtept><rtept lat="35.95236" lon="127.22621"><ele>477.3</ele></rtept><rtept lat="35.95228" lon="127.22623"><ele>475.52</ele></rtept><rtept lat="35.952206" lon="127.22619"><ele>473.82</ele></rtept><rtept lat="35.952103" lon="127.226166"><ele>471.56</ele></rtept><rtept lat="35.951878" lon="127.22619"><ele>466.71</ele></rtept><rtept lat="35.951836" lon="127.22617"><ele>465.77</ele></rtept><rtept lat="35.951748" lon="127.22621"><ele>463.8</ele></rtept><rtept lat="35.951714" lon="127.2262"><ele>463.02</ele></rtept><rtept lat="35.951572" lon="127.226265"><ele>459.78</ele></rtept><rtept lat="35.951466" lon="127.22637"><ele>456.78</ele></rtept><rtept lat="35.951393" lon="127.22642"><ele>455.02</ele></rtept><rtept lat="35.951336" lon="127.22641"><ele>453.8</ele></rtept><rtept lat="35.95128" lon="127.226456"><ele>452.36</ele></rtept><rtept lat="35.95125" lon="127.22645"><ele>451.71</ele></rtept><rtept lat="35.951187" lon="127.22646"><ele>450.37</ele></rtept><rtept lat="35.950977" lon="127.2264"><ele>445.72</ele></rtept><rtept lat="35.950466" lon="127.22652"><ele>440.44</ele></rtept><rtept lat="35.95039" lon="127.22649"><ele>439.56</ele></rtept><rtept lat="35.95034" lon="127.22649"><ele>439.02</ele></rtept><rtept lat="35.950317" lon="127.2265"><ele>438.74</ele></rtept><rtept lat="35.950222" lon="127.22642"><ele>437.46</ele></rtept><rtept lat="35.950108" lon="127.22641"><ele>436.17</ele></rtept><rtept lat="35.949974" lon="127.22645"><ele>437.31</ele></rtept><rtept lat="35.94986" lon="127.22651"><ele>439.41</ele></rtept><rtept lat="35.94981" lon="127.2265"><ele>440.27</ele></rtept><rtept lat="35.949707" lon="127.22654"><ele>442.04</ele></rtept><rtept lat="35.94965" lon="127.226524"><ele>442.96</ele></rtept><rtept lat="35.94961" lon="127.22654"><ele>443.7</ele></rtept><rtept lat="35.949547" lon="127.22652"><ele>444.77</ele></rtept><rtept lat="35.949524" lon="127.22654"><ele>445.23</ele></rtept><rtept lat="35.94947" lon="127.226524"><ele>446.17</ele></rtept><rtept lat="35.949253" lon="127.22656"><ele>449.79</ele></rtept><rtept lat="35.94909" lon="127.22656"><ele>452.54</ele></rtept><rtept lat="35.949024" lon="127.22654"><ele>453.66</ele></rtept><rtept lat="35.94901" lon="127.2265"><ele>454.19</ele></rtept><rtept lat="35.948914" lon="127.22646"><ele>455.85</ele></rtept><rtept lat="35.94883" lon="127.22649"><ele>457.26</ele></rtept><rtept lat="35.948715" lon="127.22648"><ele>459.16</ele></rtept><rtept lat="35.948654" lon="127.22652"><ele>460.29</ele></rtept><rtept lat="35.948498" lon="127.226524"><ele>462.9</ele></rtept><rtept lat="35.948418" lon="127.22656"><ele>464.29</ele></rtept><rtept lat="35.94825" lon="127.226585"><ele>467.09</ele></rtept><rtept lat="35.948166" lon="127.226616"><ele>468.57</ele></rtept><rtept lat="35.948074" lon="127.22654"><ele>468.33</ele></rtept><rtept lat="35.948032" lon="127.22654"><ele>468.39</ele></rtept><rtept lat="35.947815" lon="127.22656"><ele>468.67</ele></rtept><rtept lat="35.947697" lon="127.22654"><ele>468.83</ele></rtept><rtept lat="35.947655" lon="127.22655"><ele>468.89</ele></rtept><rtept lat="35.947437" lon="127.22667"><ele>469.19</ele></rtept><rtept lat="35.947323" lon="127.22669"><ele>469.35</ele></rtept><rtept lat="35.94721" lon="127.22678"><ele>469.52</ele></rtept><rtept lat="35.94713" lon="127.226814"><ele>469.63</ele></rtept><rtept lat="35.947" lon="127.22683"><ele>469.8</ele></rtept><rtept lat="35.946945" lon="127.2269"><ele>469.9</ele></rtept><rtept lat="35.946835" lon="127.22697"><ele>470.06</ele></rtept><rtept lat="35.946712" lon="127.227165"><ele>470.32</ele></rtept><rtept lat="35.946724" lon="127.22732"><ele>470.49</ele></rtept><rtept lat="35.946636" lon="127.227554"><ele>470.76</ele></rtept><rtept lat="35.946426" lon="127.22768"><ele>471.06</ele></rtept><rtept lat="35.94639" lon="127.22776"><ele>471.16</ele></rtept><rtept lat="35.946316" lon="127.2278"><ele>471.27</ele></rtept><rtept lat="35.946213" lon="127.2279"><ele>471.44</ele></rtept><rtept lat="35.946182" lon="127.22794"><ele>471.5</ele></rtept><rtept lat="35.94606" lon="127.22803"><ele>471.68</ele></rtept><rtept lat="35.94597" lon="127.228035"><ele>471.8</ele></rtept><rtept lat="35.945885" lon="127.22811"><ele>471.94</ele></rtept><rtept lat="35.94584" lon="127.22811"><ele>471.75</ele></rtept><rtept lat="35.94575" lon="127.228165"><ele>472.43</ele></rtept><rtept lat="35.9457" lon="127.22816"><ele>472.78</ele></rtept><rtept lat="35.94562" lon="127.22819"><ele>473.34</ele></rtept><rtept lat="35.94552" lon="127.22828"><ele>474.23</ele></rtept><rtept lat="35.945415" lon="127.22832"><ele>474.96</ele></rtept><rtept lat="35.945282" lon="127.22834"><ele>475.9</ele></rtept><rtept lat="35.94522" lon="127.22837"><ele>476.36</ele></rtept><rtept lat="35.945084" lon="127.22838"><ele>477.3</ele></rtept><rtept lat="35.94505" lon="127.22839"><ele>477.55</ele></rtept><rtept lat="35.94491" lon="127.22838"><ele>478.55</ele></rtept><rtept lat="35.944885" lon="127.22842"><ele>478.83</ele></rtept><rtept lat="35.94484" lon="127.228424"><ele>479.14</ele></rtept><rtept lat="35.944805" lon="127.22841"><ele>479.41</ele></rtept><rtept lat="35.944717" lon="127.22841"><ele>480.01</ele></rtept><rtept lat="35.944656" lon="127.22836"><ele>480.51</ele></rtept><rtept lat="35.944607" lon="127.22835"><ele>480.88</ele></rtept><rtept lat="35.94449" lon="127.22836"><ele>481.71</ele></rtept><rtept lat="35.944386" lon="127.22841"><ele>482.46</ele></rtept><rtept lat="35.94434" lon="127.22837"><ele>481.04</ele></rtept><rtept lat="35.94428" lon="127.22828"><ele>477.01</ele></rtept><rtept lat="35.944122" lon="127.22826"><ele>470.56</ele></rtept><rtept lat="35.944077" lon="127.22832"><ele>471.08</ele></rtept><rtept lat="35.944008" lon="127.22833"><ele>470.28</ele></rtept><rtept lat="35.943954" lon="127.22839"><ele>469.47</ele></rtept><rtept lat="35.943836" lon="127.22844"><ele>468.07</ele></rtept><rtept lat="35.943768" lon="127.22852"><ele>467.0</ele></rtept><rtept lat="35.94374" lon="127.22859"><ele>466.29</ele></rtept><rtept lat="35.943626" lon="127.22866"><ele>464.86</ele></rtept><rtept lat="35.943596" lon="127.2287"><ele>464.35</ele></rtept><rtept lat="35.943565" lon="127.22871"><ele>464.02</ele></rtept><rtept lat="35.943478" lon="127.22879"><ele>462.77</ele></rtept><rtept lat="35.94346" lon="127.228836"><ele>462.26</ele></rtept><rtept lat="35.94335" lon="127.2289"><ele>460.94</ele></rtept><rtept lat="35.943253" lon="127.22892"><ele>459.84</ele></rtept><rtept lat="35.943214" lon="127.22895"><ele>459.31</ele></rtept><rtept lat="35.94317" lon="127.22894"><ele>458.79</ele></rtept><rtept lat="35.943058" lon="127.22902"><ele>457.4</ele></rtept><rtept lat="35.942905" lon="127.22908"><ele>455.55</ele></rtept><rtept lat="35.942856" lon="127.22906"><ele>454.96</ele></rtept><rtept lat="35.942818" lon="127.22907"><ele>454.52</ele></rtept><rtept lat="35.942787" lon="127.2291"><ele>454.06</ele></rtept><rtept lat="35.94278" lon="127.229164"><ele>453.51</ele></rtept><rtept lat="35.942726" lon="127.229164"><ele>452.95</ele></rtept><rtept lat="35.942677" lon="127.229195"><ele>452.33</ele></rtept><rtept lat="35.942585" lon="127.22918"><ele>451.26</ele></rtept><rtept lat="35.94251" lon="127.22927"><ele>449.56</ele></rtept><rtept lat="35.94238" lon="127.22927"><ele>452.45</ele></rtept><rtept lat="35.942356" lon="127.22929"><ele>453.03</ele></rtept><rtept lat="35.942326" lon="127.22936"><ele>454.5</ele></rtept><rtept lat="35.942287" lon="127.22935"><ele>455.4</ele></rtept><rtept lat="35.942226" lon="127.229385"><ele>456.91</ele></rtept><rtept lat="35.942223" lon="127.229355"><ele>457.47</ele></rtept><rtept lat="35.942097" lon="127.229355"><ele>460.32</ele></rtept><rtept lat="35.942036" lon="127.22941"><ele>461.96</ele></rtept><rtept lat="35.9419" lon="127.22947"><ele>465.2</ele></rtept><rtept lat="35.941868" lon="127.22951"><ele>466.19</ele></rtept><rtept lat="35.941826" lon="127.22961"><ele>468.24</ele></rtept><rtept lat="35.941746" lon="127.22965"><ele>470.24</ele></rtept><rtept lat="35.941704" lon="127.229744"><ele>472.15</ele></rtept><rtept lat="35.941692" lon="127.22986"><ele>474.22</ele></rtept><rtept lat="35.941624" lon="127.22997"><ele>476.86</ele></rtept><rtept lat="35.94158" lon="127.23008"><ele>478.96</ele></rtept><rtept lat="35.94138" lon="127.23035"><ele>485.69</ele></rtept><rtept lat="35.94125" lon="127.23042"><ele>486.49</ele></rtept><rtept lat="35.941227" lon="127.23047"><ele>486.76</ele></rtept><rtept lat="35.941116" lon="127.23058"><ele>487.61</ele></rtept><rtept lat="35.941055" lon="127.230675"><ele>488.21</ele></rtept><rtept lat="35.940845" lon="127.230774"><ele>485.15</ele></rtept><rtept lat="35.940758" lon="127.23078"><ele>483.85</ele></rtept><rtept lat="35.940716" lon="127.23081"><ele>483.12</ele></rtept><rtept lat="35.940617" lon="127.230835"><ele>481.66</ele></rtept><rtept lat="35.940536" lon="127.230896"><ele>480.29</ele></rtept><rtept lat="35.940453" lon="127.23101"><ele>480.24</ele></rtept><rtept lat="35.940357" lon="127.23107"><ele>480.19</ele></rtept><rtept lat="35.94034" lon="127.23112"><ele>480.17</ele></rtept><rtept lat="35.94024" lon="127.23124"><ele>480.1</ele></rtept><rtept lat="35.940178" lon="127.231384"><ele>480.04</ele></rtept><rtept lat="35.940155" lon="127.231415"><ele>480.02</ele></rtept><rtept lat="35.940063" lon="127.231674"><ele>479.91</ele></rtept><rtept lat="35.94001" lon="127.23176"><ele>479.87</ele></rtept><rtept lat="35.93998" lon="127.23186"><ele>479.83</ele></rtept><rtept lat="35.939903" lon="127.23197"><ele>479.77</ele></rtept><rtept lat="35.93982" lon="127.232025"><ele>476.88</ele></rtept><rtept lat="35.939754" lon="127.23205"><ele>474.84</ele></rtept><rtept lat="35.93968" lon="127.2321"><ele>472.01</ele></rtept><rtept lat="35.939648" lon="127.23215"><ele>470.57</ele></rtept><rtept lat="35.93953" lon="127.2322"><ele>466.53</ele></rtept><rtept lat="35.939514" lon="127.23226"><ele>467.89</ele></rtept><rtept lat="35.939392" lon="127.23241"><ele>464.66</ele></rtept><rtept lat="35.93929" lon="127.23257"><ele>461.52</ele></rtept><rtept lat="35.939243" lon="127.23259"><ele>460.55</ele></rtept><rtept lat="35.939205" lon="127.232574"><ele>459.82</ele></rtept><rtept lat="35.93903" lon="127.23257"><ele>456.42</ele></rtept><rtept lat="35.9389" lon="127.23261"><ele>453.88</ele></rtept><rtept lat="35.93872" lon="127.23262"><ele>450.44</ele></rtept><rtept lat="35.93865" lon="127.232605"><ele>448.98</ele></rtept><rtept lat="35.93842" lon="127.23263"><ele>444.63</ele></rtept><rtept lat="35.938267" lon="127.23259"><ele>441.65</ele></rtept><rtept lat="35.93822" lon="127.23259"><ele>441.6</ele></rtept><rtept lat="35.93796" lon="127.232635"><ele>440.84</ele></rtept><rtept lat="35.937912" lon="127.23268"><ele>440.67</ele></rtept><rtept lat="35.937866" lon="127.23268"><ele>440.54</ele></rtept><rtept lat="35.9378" lon="127.23273"><ele>440.32</ele></rtept><rtept lat="35.937763" lon="127.23273"><ele>440.21</ele></rtept><rtept lat="35.93765" lon="127.2328"><ele>439.83</ele></rtept><rtept lat="35.9376" lon="127.23282"><ele>439.69</ele></rtept><rtept lat="35.937225" lon="127.23313"><ele>438.37</ele></rtept><rtept lat="35.936916" lon="127.233315"><ele>437.38</ele></rtept><rtept lat="35.93687" lon="127.233315"><ele>437.25</ele></rtept><rtept lat="35.936836" lon="127.23335"><ele>437.48</ele></rtept><rtept lat="35.93672" lon="127.233406"><ele>440.59</ele></rtept><rtept lat="35.936676" lon="127.23345"><ele>442.15</ele></rtept><rtept lat="35.936554" lon="127.23349"><ele>445.4</ele></rtept><rtept lat="35.93645" lon="127.23358"><ele>448.63</ele></rtept><rtept lat="35.936325" lon="127.23364"><ele>452.14</ele></rtept><rtept lat="35.936253" lon="127.23371"><ele>454.46</ele></rtept><rtept lat="35.936092" lon="127.23377"><ele>458.77</ele></rtept><rtept lat="35.936024" lon="127.233765"><ele>460.52</ele></rtept><rtept lat="35.935867" lon="127.2338"><ele>464.58</ele></rtept><rtept lat="35.935795" lon="127.233864"><ele>466.76</ele></rtept><rtept lat="35.935635" lon="127.233864"><ele>470.89</ele></rtept><rtept lat="35.93555" lon="127.234"><ele>474.53</ele></rtept><rtept lat="35.935535" lon="127.234116"><ele>478.72</ele></rtept><rtept lat="35.935474" lon="127.23426"><ele>484.5</ele></rtept><rtept lat="35.9354" lon="127.23431"><ele>488.12</ele></rtept><rtept lat="35.93536" lon="127.23436"><ele>490.75</ele></rtept><rtept lat="35.93527" lon="127.23442"><ele>495.28</ele></rtept><rtept lat="35.935257" lon="127.23444"><ele>496.34</ele></rtept><rtept lat="35.935215" lon="127.234474"><ele>498.37</ele></rtept><rtept lat="35.935177" lon="127.23447"><ele>500.11</ele></rtept><rtept lat="35.935143" lon="127.23442"><ele>500.33</ele></rtept><rtept lat="35.934963" lon="127.23432"><ele>499.66</ele></rtept><rtept lat="35.93486" lon="127.234314"><ele>499.31</ele></rtept><rtept lat="35.934746" lon="127.23428"><ele>498.92</ele></rtept><rtept lat="35.934685" lon="127.23424"><ele>498.67</ele></rtept><rtept lat="35.934643" lon="127.234184"><ele>498.47</ele></rtept><rtept lat="35.934505" lon="127.23414"><ele>497.98</ele></rtept><rtept lat="35.93444" lon="127.23407"><ele>497.71</ele></rtept><rtept lat="35.93444" lon="127.234055"><ele>497.66</ele></rtept><rtept lat="35.934376" lon="127.23404"><ele>497.44</ele></rtept><rtept lat="35.93431" lon="127.234055"><ele>497.22</ele></rtept><rtept lat="35.934265" lon="127.23404"><ele>497.05</ele></rtept><rtept lat="35.934097" lon="127.23406"><ele>496.48</ele></rtept><rtept lat="35.93401" lon="127.23412"><ele>496.14</ele></rtept><rtept lat="35.93397" lon="127.23414"><ele>496.0</ele></rtept><rtept lat="35.933933" lon="127.23412"><ele>495.88</ele></rtept><rtept lat="35.933697" lon="127.2342"><ele>495.05</ele></rtept><rtept lat="35.93368" lon="127.234245"><ele>495.32</ele></rtept><rtept lat="35.933624" lon="127.23432"><ele>496.49</ele></rtept><rtept lat="35.93358" lon="127.23435"><ele>497.3</ele></rtept><rtept lat="35.933506" lon="127.23436"><ele>498.35</ele></rtept><rtept lat="35.93339" lon="127.2344"><ele>500.11</ele></rtept><rtept lat="35.933357" lon="127.23443"><ele>500.76</ele></rtept><rtept lat="35.933064" lon="127.23446"><ele>497.38</ele></rtept><rtept lat="35.932953" lon="127.234436"><ele>496.02</ele></rtept><rtept lat="35.9327" lon="127.23449"><ele>492.9</ele></rtept><rtept lat="35.932495" lon="127.23447"><ele>490.34</ele></rtept><rtept lat="35.93242" lon="127.23441"><ele>489.29</ele></rtept><rtept lat="35.932285" lon="127.234436"><ele>487.62</ele></rtept><rtept lat="35.9321" lon="127.23454"><ele>489.68</ele></rtept><rtept lat="35.93202" lon="127.23464"><ele>491.08</ele></rtept><rtept lat="35.931976" lon="127.23464"><ele>491.63</ele></rtept><rtept lat="35.93167" lon="127.23497"><ele>496.7</ele></rtept><rtept lat="35.931564" lon="127.234985"><ele>498.03</ele></rtept><rtept lat="35.93152" lon="127.23505"><ele>498.87</ele></rtept><rtept lat="35.931484" lon="127.23504"><ele>499.29</ele></rtept><rtept lat="35.931442" lon="127.23506"><ele>499.86</ele></rtept><rtept lat="35.9314" lon="127.23518"><ele>504.81</ele></rtept><rtept lat="35.93133" lon="127.23533"><ele>510.99</ele></rtept><rtept lat="35.93133" lon="127.23539"><ele>513.49</ele></rtept><rtept lat="35.931236" lon="127.23548"><ele>513.78</ele></rtept><rtept lat="35.93114" lon="127.23551"><ele>514.11</ele></rtept><rtept lat="35.930943" lon="127.23549"><ele>514.76</ele></rtept><rtept lat="35.930843" lon="127.2355"><ele>515.08</ele></rtept><rtept lat="35.930748" lon="127.235565"><ele>515.44</ele></rtept><rtept lat="35.9307" lon="127.23557"><ele>515.6</ele></rtept><rtept lat="35.93059" lon="127.235664"><ele>516.65</ele></rtept><rtept lat="35.93044" lon="127.23574"><ele>522.72</ele></rtept><rtept lat="35.930305" lon="127.235855"><ele>528.93</ele></rtept><rtept lat="35.930267" lon="127.23584"><ele>530.39</ele></rtept><rtept lat="35.93012" lon="127.23588"><ele>536.01</ele></rtept><rtept lat="35.930103" lon="127.23593"><ele>537.9</ele></rtept><rtept lat="35.930027" lon="127.236015"><ele>541.6</ele></rtept><rtept lat="35.929897" lon="127.23613"><ele>547.63</ele></rtept><rtept lat="35.929863" lon="127.23614"><ele>548.98</ele></rtept><rtept lat="35.929703" lon="127.23631"><ele>556.86</ele></rtept><rtept lat="35.92969" lon="127.23635"><ele>558.05</ele></rtept><rtept lat="35.929543" lon="127.236435"><ele>564.35</ele></rtept><rtept lat="35.929432" lon="127.23653"><ele>569.34</ele></rtept><rtept lat="35.92932" lon="127.23657"><ele>573.64</ele></rtept><rtept lat="35.92926" lon="127.23657"><ele>575.95</ele></rtept><rtept lat="35.929234" lon="127.2366"><ele>577.33</ele></rtept><rtept lat="35.929173" lon="127.23662"><ele>579.68</ele></rtept><rtept lat="35.929043" lon="127.23657"><ele>584.84</ele></rtept><rtept lat="35.92901" lon="127.23659"><ele>584.83</ele></rtept><rtept lat="35.928837" lon="127.236725"><ele>596.46</ele></rtept><rtept lat="35.928703" lon="127.23674"><ele>604.25</ele></rtept><rtept lat="35.92868" lon="127.23676"><ele>606.06</ele></rtept><rtept lat="35.928547" lon="127.23685"><ele>614.65</ele></rtept><rtept lat="35.92845" lon="127.23686"><ele>620.1</ele></rtept><rtept lat="35.928375" lon="127.23692"><ele>625.19</ele></rtept><rtept lat="35.928352" lon="127.236916"><ele>626.47</ele></rtept><rtept lat="35.928326" lon="127.23698"><ele>629.72</ele></rtept><rtept lat="35.928307" lon="127.237"><ele>631.12</ele></rtept><rtept lat="35.928288" lon="127.236984"><ele>627.53</ele></rtept><rtept lat="35.92822" lon="127.23707"><ele>629.77</ele></rtept><rtept lat="35.92819" lon="127.23708"><ele>630.53</ele></rtept><rtept lat="35.928143" lon="127.237045"><ele>631.82</ele></rtept><rtept lat="35.928085" lon="127.2371"><ele>633.45</ele></rtept><rtept lat="35.928036" lon="127.237114"><ele>634.7</ele></rtept><rtept lat="35.928024" lon="127.23713"><ele>635.02</ele></rtept><rtept lat="35.928047" lon="127.23719"><ele>636.34</ele></rtept><rtept lat="35.928043" lon="127.23721"><ele>636.84</ele></rtept><rtept lat="35.92802" lon="127.23721"><ele>637.39</ele></rtept><rtept lat="35.92797" lon="127.23716"><ele>638.99</ele></rtept><rtept lat="35.927826" lon="127.2371"><ele>642.58</ele></rtept><rtept lat="35.92773" lon="127.23712"><ele>644.85</ele></rtept><rtept lat="35.927795" lon="127.23734"><ele>647.16</ele></rtept><rtept lat="35.927643" lon="127.238045"><ele>654.26</ele></rtept><rtept lat="35.927532" lon="127.23892"><ele>662.59</ele></rtept><rtept lat="35.927372" lon="127.23903"><ele>657.6</ele></rtept><rtept lat="35.926975" lon="127.239296"><ele>652.61</ele></rtept><rtept lat="35.926323" lon="127.2398"><ele>640.56</ele></rtept><rtept lat="35.925224" lon="127.239914"><ele>596.6</ele></rtept><rtept lat="35.92432" lon="127.24043"><ele>597.01</ele></rtept><rtept lat="35.923515" lon="127.24093"><ele>576.2</ele></rtept><rtept lat="35.922974" lon="127.241554"><ele>559.43</ele></rtept><rtept lat="35.922512" lon="127.242"><ele>563.2</ele></rtept><rtept lat="35.92184" lon="127.24158"><ele>524.89</ele></rtept><rtept lat="35.92142" lon="127.24139"><ele>516.5</ele></rtept><rtept lat="35.921013" lon="127.24125"><ele>508.49</ele></rtept><rtept lat="35.920643" lon="127.24111"><ele>501.24</ele></rtept><rtept lat="35.92026" lon="127.24108"><ele>494.01</ele></rtept><rtept lat="35.920105" lon="127.24111"><ele>491.02</ele></rtept><rtept lat="35.919952" lon="127.24126"><ele>489.83</ele></rtept><rtept lat="35.919933" lon="127.24127"><ele>488.63</ele></rtept><rtept lat="35.920113" lon="127.24089"><ele>476.44</ele></rtept><rtept lat="35.92022" lon="127.24054"><ele>466.28</ele></rtept><rtept lat="35.920307" lon="127.24048"><ele>463.49</ele></rtept><rtept lat="35.92038" lon="127.24048"><ele>465.39</ele></rtept><rtept lat="35.92107" lon="127.240776"><ele>484.74</ele></rtept><rtept lat="35.921238" lon="127.240814"><ele>489.27</ele></rtept><rtept lat="35.92139" lon="127.2408"><ele>493.03</ele></rtept><rtept lat="35.921562" lon="127.24076"><ele>492.87</ele></rtept><rtept lat="35.92171" lon="127.24068"><ele>492.72</ele></rtept><rtept lat="35.9218" lon="127.24061"><ele>492.62</ele></rtept><rtept lat="35.921864" lon="127.240524"><ele>492.53</ele></rtept><rtept lat="35.921894" lon="127.2404"><ele>492.43</ele></rtept><rtept lat="35.9219" lon="127.240265"><ele>492.33</ele></rtept><rtept lat="35.92187" lon="127.24016"><ele>492.24</ele></rtept><rtept lat="35.921806" lon="127.24003"><ele>492.32</ele></rtept><rtept lat="35.921444" lon="127.2395"><ele>475.21</ele></rtept><rtept lat="35.921333" lon="127.23933"><ele>469.76</ele></rtept><rtept lat="35.921276" lon="127.23918"><ele>465.71</ele></rtept><rtept lat="35.92125" lon="127.23904"><ele>462.43</ele></rtept><rtept lat="35.921253" lon="127.23889"><ele>465.54</ele></rtept><rtept lat="35.921303" lon="127.23877"><ele>468.36</ele></rtept><rtept lat="35.921497" lon="127.23851"><ele>475.79</ele></rtept><rtept lat="35.92157" lon="127.23838"><ele>478.5</ele></rtept><rtept lat="35.921593" lon="127.23822"><ele>478.71</ele></rtept><rtept lat="35.92158" lon="127.23805"><ele>478.92</ele></rtept><rtept lat="35.921516" lon="127.23785"><ele>479.18</ele></rtept><rtept lat="35.921448" lon="127.2377"><ele>476.56</ele></rtept><rtept lat="35.921356" lon="127.237625"><ele>474.42</ele></rtept><rtept lat="35.92122" lon="127.237564"><ele>471.55</ele></rtept><rtept lat="35.921066" lon="127.23751"><ele>468.52</ele></rtept><rtept lat="35.920635" lon="127.237564"><ele>460.12</ele></rtept><rtept lat="35.920208" lon="127.237465"><ele>454.76</ele></rtept><rtept lat="35.92" lon="127.2373"><ele>453.18</ele></rtept><rtept lat="35.919693" lon="127.23696"><ele>450.66</ele></rtept><rtept lat="35.919647" lon="127.2369"><ele>447.4</ele></rtept><rtept lat="35.919632" lon="127.23683"><ele>444.66</ele></rtept><rtept lat="35.91966" lon="127.23678"><ele>442.35</ele></rtept><rtept lat="35.91973" lon="127.23675"><ele>442.34</ele></rtept><rtept lat="35.91983" lon="127.23675"><ele>442.02</ele></rtept><rtept lat="35.920074" lon="127.236786"><ele>441.27</ele></rtept><rtept lat="35.92016" lon="127.23677"><ele>441.01</ele></rtept><rtept lat="35.92034" lon="127.236626"><ele>440.34</ele></rtept><rtept lat="35.920444" lon="127.23659"><ele>440.1</ele></rtept><rtept lat="35.920708" lon="127.236626"><ele>445.86</ele></rtept><rtept lat="35.920803" lon="127.236595"><ele>447.98</ele></rtept><rtept lat="35.9209" lon="127.23652"><ele>444.36</ele></rtept><rtept lat="35.92095" lon="127.236404"><ele>435.38</ele></rtept><rtept lat="35.921173" lon="127.23592"><ele>426.41</ele></rtept><rtept lat="35.92121" lon="127.23587"><ele>424.62</ele></rtept><rtept lat="35.92128" lon="127.235855"><ele>423.22</ele></rtept><rtept lat="35.921352" lon="127.23593"><ele>426.77</ele></rtept><rtept lat="35.921494" lon="127.23613"><ele>434.65</ele></rtept><rtept lat="35.921593" lon="127.2362"><ele>438.74</ele></rtept><rtept lat="35.921814" lon="127.23626"><ele>442.58</ele></rtept><rtept lat="35.921947" lon="127.23635"><ele>445.17</ele></rtept><rtept lat="35.922184" lon="127.23665"><ele>450.46</ele></rtept><rtept lat="35.9223" lon="127.23668"><ele>448.45</ele></rtept><rtept lat="35.922398" lon="127.23667"><ele>446.76</ele></rtept><rtept lat="35.922466" lon="127.23659"><ele>441.46</ele></rtept><rtept lat="35.92267" lon="127.23626"><ele>422.86</ele></rtept><rtept lat="35.92274" lon="127.23622"><ele>419.07</ele></rtept><rtept lat="35.922844" lon="127.23622"><ele>420.69</ele></rtept><rtept lat="35.923656" lon="127.23663"><ele>434.3</ele></rtept><rtept lat="35.923756" lon="127.23665"><ele>435.85</ele></rtept><rtept lat="35.92384" lon="127.2366"><ele>436.72</ele></rtept><rtept lat="35.9239" lon="127.236496"><ele>433.47</ele></rtept><rtept lat="35.92391" lon="127.23638"><ele>430.66</ele></rtept><rtept lat="35.92385" lon="127.235756"><ele>415.65</ele></rtept><rtept lat="35.923885" lon="127.23564"><ele>416.19</ele></rtept><rtept lat="35.924038" lon="127.23541"><ele>417.52</ele></rtept><rtept lat="35.924072" lon="127.23526"><ele>418.21</ele></rtept><rtept lat="35.924053" lon="127.23513"><ele>418.66</ele></rtept><rtept lat="35.923958" lon="127.23492"><ele>412.82</ele></rtept><rtept lat="35.923813" lon="127.23468"><ele>405.89</ele></rtept><rtept lat="35.923756" lon="127.23452"><ele>401.59</ele></rtept><rtept lat="35.923737" lon="127.234184"><ele>393.63</ele></rtept><rtept lat="35.923695" lon="127.23402"><ele>390.06</ele></rtept><rtept lat="35.923737" lon="127.23389"><ele>393.64</ele></rtept><rtept lat="35.923897" lon="127.2338"><ele>399.48</ele></rtept><rtept lat="35.923996" lon="127.23367"><ele>404.29</ele></rtept><rtept lat="35.924026" lon="127.233505"><ele>407.68</ele></rtept><rtept lat="35.923996" lon="127.23338"><ele>404.23</ele></rtept><rtept lat="35.923534" lon="127.23266"><ele>378.8</ele></rtept><rtept lat="35.92352" lon="127.232544"><ele>378.17</ele></rtept><rtept lat="35.923557" lon="127.232346"><ele>377.1</ele></rtept><rtept lat="35.923534" lon="127.23213"><ele>376.05</ele></rtept><rtept lat="35.92347" lon="127.231995"><ele>368.78</ele></rtept><rtept lat="35.92329" lon="127.23167"><ele>350.77</ele></rtept><rtept lat="35.92327" lon="127.231544"><ele>345.58</ele></rtept><rtept lat="35.92331" lon="127.23146"><ele>346.06</ele></rtept><rtept lat="35.92344" lon="127.231415"><ele>346.89</ele></rtept><rtept lat="35.92355" lon="127.231415"><ele>347.55</ele></rtept><rtept lat="35.923656" lon="127.23136"><ele>348.25</ele></rtept><rtept lat="35.923843" lon="127.23121"><ele>349.61</ele></rtept><rtept lat="35.92397" lon="127.23112"><ele>350.5</ele></rtept><rtept lat="35.924152" lon="127.231064"><ele>351.43</ele></rtept><rtept lat="35.92459" lon="127.2311"><ele>363.03</ele></rtept><rtept lat="35.92471" lon="127.23105"><ele>366.28</ele></rtept><rtept lat="35.924786" lon="127.23096"><ele>368.31</ele></rtept><rtept lat="35.92485" lon="127.230835"><ele>363.12</ele></rtept><rtept lat="35.92487" lon="127.23036"><ele>347.06</ele></rtept><rtept lat="35.924896" lon="127.23025"><ele>347.04</ele></rtept><rtept lat="35.92499" lon="127.2302"><ele>347.02</ele></rtept><rtept lat="35.925056" lon="127.23008"><ele>346.99</ele></rtept><rtept lat="35.925114" lon="127.22991"><ele>346.96</ele></rtept><rtept lat="35.92539" lon="127.22969"><ele>346.9</ele></rtept><rtept lat="35.925453" lon="127.22959"><ele>343.91</ele></rtept><rtept lat="35.925488" lon="127.229454"><ele>340.45</ele></rtept><rtept lat="35.925488" lon="127.22933"><ele>337.49</ele></rtept><rtept lat="35.92551" lon="127.22903"><ele>329.93</ele></rtept><rtept lat="35.925564" lon="127.22893"><ele>327.75</ele></rtept><rtept lat="35.92566" lon="127.22886"><ele>330.72</ele></rtept><rtept lat="35.92576" lon="127.22887"><ele>333.4</ele></rtept><rtept lat="35.926064" lon="127.229126"><ele>343.33</ele></rtept><rtept lat="35.92614" lon="127.22915"><ele>345.48</ele></rtept><rtept lat="35.926296" lon="127.229126"><ele>349.69</ele></rtept><rtept lat="35.92654" lon="127.229034"><ele>356.5</ele></rtept><rtept lat="35.926685" lon="127.228905"><ele>357.76</ele></rtept><rtept lat="35.926735" lon="127.22882"><ele>355.97</ele></rtept><rtept lat="35.92674" lon="127.228714"><ele>354.24</ele></rtept><rtept lat="35.92667" lon="127.22852"><ele>350.85</ele></rtept><rtept lat="35.92664" lon="127.22835"><ele>347.86</ele></rtept><rtept lat="35.926624" lon="127.22821"><ele>345.6</ele></rtept><rtept lat="35.92662" lon="127.22803"><ele>342.56</ele></rtept><rtept lat="35.92659" lon="127.22783"><ele>339.98</ele></rtept><rtept lat="35.926586" lon="127.22771"><ele>341.51</ele></rtept><rtept lat="35.926723" lon="127.22744"><ele>345.22</ele></rtept><rtept lat="35.926777" lon="127.22744"><ele>347.31</ele></rtept><rtept lat="35.926952" lon="127.22745"><ele>354.56</ele></rtept><rtept lat="35.926994" lon="127.22742"><ele>356.25</ele></rtept><rtept lat="35.92709" lon="127.22745"><ele>357.95</ele></rtept><rtept lat="35.92713" lon="127.22742"><ele>358.83</ele></rtept><rtept lat="35.927162" lon="127.227325"><ele>360.22</ele></rtept><rtept lat="35.927177" lon="127.22718"><ele>362.32</ele></rtept><rtept lat="35.927116" lon="127.226814"><ele>367.63</ele></rtept><rtept lat="35.927048" lon="127.22665"><ele>367.28</ele></rtept><rtept lat="35.927032" lon="127.22648"><ele>371.08</ele></rtept><rtept lat="35.927044" lon="127.22638"><ele>373.38</ele></rtept><rtept lat="35.927036" lon="127.22627"><ele>375.76</ele></rtept><rtept lat="35.927013" lon="127.22622"><ele>377.02</ele></rtept><rtept lat="35.926903" lon="127.22611"><ele>379.94</ele></rtept><rtept lat="35.926792" lon="127.2259"><ele>388.86</ele></rtept><rtept lat="35.926678" lon="127.22578"><ele>395.36</ele></rtept><rtept lat="35.92667" lon="127.22571"><ele>397.73</ele></rtept><rtept lat="35.926712" lon="127.22568"><ele>397.2</ele></rtept><rtept lat="35.926796" lon="127.22569"><ele>397.91</ele></rtept><rtept lat="35.926987" lon="127.22582"><ele>392.09</ele></rtept><rtept lat="35.927277" lon="127.22603"><ele>388.58</ele></rtept><rtept lat="35.92907" lon="127.22564"><ele>314.25</ele></rtept><rtept lat="35.929066" lon="127.22564"><ele>314.25</ele></rtept><rtept lat="35.929066" lon="127.22562"><ele>314.68</ele></rtept><rtept lat="35.929142" lon="127.22539"><ele>313.45</ele></rtept><rtept lat="35.929394" lon="127.224915"><ele>310.65</ele></rtept><rtept lat="35.92961" lon="127.22465"><ele>308.8</ele></rtept><rtept lat="35.929955" lon="127.224304"><ele>296.97</ele></rtept><rtept lat="35.930416" lon="127.22407"><ele>283.55</ele></rtept><rtept lat="35.93049" lon="127.22397"><ele>281.06</ele></rtept><rtept lat="35.930515" lon="127.223816"><ele>283.65</ele></rtept><rtept lat="35.930458" lon="127.22371"><ele>285.76</ele></rtept><rtept lat="35.930378" lon="127.22351"><ele>289.39</ele></rtept><rtept lat="35.93037" lon="127.22338"><ele>291.54</ele></rtept><rtept lat="35.930424" lon="127.222946"><ele>298.91</ele></rtept><rtept lat="35.930485" lon="127.22283"><ele>299.92</ele></rtept><rtept lat="35.930557" lon="127.22278"><ele>298.52</ele></rtept><rtept lat="35.930862" lon="127.22273"><ele>293.35</ele></rtept><rtept lat="35.93109" lon="127.2226"><ele>289.12</ele></rtept><rtept lat="35.931217" lon="127.222626"><ele>286.96</ele></rtept><rtept lat="35.931423" lon="127.222626"><ele>283.48</ele></rtept><rtept lat="35.931507" lon="127.222595"><ele>282.46</ele></rtept><rtept lat="35.931717" lon="127.22228"><ele>287.68</ele></rtept><rtept lat="35.931774" lon="127.22226"><ele>288.46</ele></rtept><rtept lat="35.931915" lon="127.22223"><ele>285.39</ele></rtept><rtept lat="35.932133" lon="127.22227"><ele>280.67</ele></rtept><rtept lat="35.932266" lon="127.22233"><ele>277.77</ele></rtept><rtept lat="35.932285" lon="127.222404"><ele>276.34</ele></rtept><rtept lat="35.932266" lon="127.22245"><ele>275.26</ele></rtept><rtept lat="35.93207" lon="127.22256"><ele>271.47</ele></rtept><rtept lat="35.931946" lon="127.22268"><ele>268.4</ele></rtept><rtept lat="35.93179" lon="127.22297"><ele>263.09</ele></rtept><rtept lat="35.93156" lon="127.22331"><ele>256.36</ele></rtept><rtept lat="35.931534" lon="127.22345"><ele>254.48</ele></rtept><rtept lat="35.93158" lon="127.223526"><ele>251.01</ele></rtept><rtept lat="35.931652" lon="127.22358"><ele>247.35</ele></rtept><rtept lat="35.93168" lon="127.223625"><ele>245.26</ele></rtept><rtept lat="35.93171" lon="127.22376"><ele>244.13</ele></rtept><rtept lat="35.93166" lon="127.22394"><ele>242.6</ele></rtept><rtept lat="35.93159" lon="127.224144"><ele>240.75</ele></rtept><rtept lat="35.9316" lon="127.22427"><ele>239.89</ele></rtept><rtept lat="35.931667" lon="127.224335"><ele>237.41</ele></rtept><rtept lat="35.931923" lon="127.2244"><ele>229.59</ele></rtept><rtept lat="35.932144" lon="127.224396"><ele>223.27</ele></rtept><rtept lat="35.93223" lon="127.22443"><ele>220.49</ele></rtept><rtept lat="35.932396" lon="127.22456"><ele>214.3</ele></rtept><rtept lat="35.932564" lon="127.22447"><ele>210.42</ele></rtept><rtept lat="35.932594" lon="127.22434"><ele>211.33</ele></rtept><rtept lat="35.93254" lon="127.22421"><ele>214.49</ele></rtept><rtept lat="35.932465" lon="127.22414"><ele>217.37</ele></rtept><rtept lat="35.93239" lon="127.22402"><ele>220.86</ele></rtept><rtept lat="35.9324" lon="127.22387"><ele>222.46</ele></rtept><rtept lat="35.932472" lon="127.22378"><ele>221.69</ele></rtept><rtept lat="35.932617" lon="127.223724"><ele>218.67</ele></rtept><rtept lat="35.93278" lon="127.223755"><ele>214.84</ele></rtept><rtept lat="35.93296" lon="127.223656"><ele>213.91</ele></rtept><rtept lat="35.933018" lon="127.223595"><ele>214.97</ele></rtept><rtept lat="35.93312" lon="127.22352"><ele>216.03</ele></rtept><rtept lat="35.933308" lon="127.22348"><ele>213.78</ele></rtept><rtept lat="35.93384" lon="127.22334"><ele>207.08</ele></rtept><rtept lat="35.933987" lon="127.223274"><ele>205.17</ele></rtept><rtept lat="35.934204" lon="127.2231"><ele>201.98</ele></rtept><rtept lat="35.93443" lon="127.22296"><ele>198.94</ele></rtept><rtept lat="35.934505" lon="127.222984"><ele>198.26</ele></rtept><rtept lat="35.934685" lon="127.22308"><ele>191.74</ele></rtept><rtept lat="35.934803" lon="127.22325"><ele>185.87</ele></rtept><rtept lat="35.934814" lon="127.223366"><ele>181.82</ele></rtept><rtept lat="35.934845" lon="127.22348"><ele>180.76</ele></rtept><rtept lat="35.935177" lon="127.22333"><ele>179.89</ele></rtept><rtept lat="35.93555" lon="127.22311"><ele>178.62</ele></rtept><rtept lat="35.936337" lon="127.22281"><ele>176.12</ele></rtept><rtept lat="35.93647" lon="127.22276"><ele>175.69</ele></rtept><rtept lat="35.937153" lon="127.22242"><ele>173.45</ele></rtept><rtept lat="35.937634" lon="127.2221"><ele>171.79</ele></rtept><rtept lat="35.93801" lon="127.22189"><ele>170.52</ele></rtept><rtept lat="35.938274" lon="127.221825"><ele>169.69</ele></rtept><rtept lat="35.939655" lon="127.22156"><ele>165.44</ele></rtept><rtept lat="35.940304" lon="127.22084"><ele>168.17</ele></rtept><rtept lat="35.940475" lon="127.22072"><ele>170.02</ele></rtept><rtept lat="35.9411" lon="127.22071"><ele>160.64</ele></rtept><rtept lat="35.941288" lon="127.22067"><ele>157.69</ele></rtept><rtept lat="35.9414" lon="127.22058"><ele>155.63</ele></rtept><rtept lat="35.941704" lon="127.2203"><ele>156.21</ele></rtept><rtept lat="35.942078" lon="127.22018"><ele>157.92</ele></rtept><rtept lat="35.94222" lon="127.22003"><ele>159.76</ele></rtept><rtept lat="35.94236" lon="127.21982"><ele>161.95</ele></rtept><rtept lat="35.94252" lon="127.21962"><ele>164.18</ele></rtept><rtept lat="35.94276" lon="127.21952"><ele>162.37</ele></rtept><rtept lat="35.942844" lon="127.2195"><ele>161.68</ele></rtept><rtept lat="35.943176" lon="127.21923"><ele>158.44</ele></rtept><rtept lat="35.943897" lon="127.218925"><ele>152.21</ele></rtept><rtept lat="35.944744" lon="127.218414"><ele>144.51</ele></rtept><rtept lat="35.94506" lon="127.21829"><ele>141.81</ele></rtept><rtept lat="35.945553" lon="127.21821"><ele>137.75</ele></rtept><rtept lat="35.945717" lon="127.21816"><ele>136.39</ele></rtept><rtept lat="35.94619" lon="127.2179"><ele>132.17</ele></rtept><rtept lat="35.946903" lon="127.21763"><ele>130.28</ele></rtept><rtept lat="35.94735" lon="127.2173"><ele>128.91</ele></rtept><rtept lat="35.947704" lon="127.2171"><ele>127.88</ele></rtept><rtept lat="35.948074" lon="127.21697"><ele>126.85</ele></rtept><rtept lat="35.948418" lon="127.216805"><ele>125.89</ele></rtept><rtept lat="35.948757" lon="127.21642"><ele>124.66</ele></rtept><rtept lat="35.94891" lon="127.21622"><ele>119.82</ele></rtept><rtept lat="35.949036" lon="127.2161"><ele>116.14</ele></rtept><rtept lat="35.949234" lon="127.21604"><ele>111.36</ele></rtept><rtept lat="35.94934" lon="127.215904"><ele>107.78</ele></rtept><rtept lat="35.949654" lon="127.21539"><ele>106.93</ele></rtept><rtept lat="35.94995" lon="127.21478"><ele>105.97</ele></rtept><rtept lat="35.95007" lon="127.214485"><ele>105.53</ele></rtept><rtept lat="35.95007" lon="127.21424"><ele>111.1</ele></rtept><rtept lat="35.950157" lon="127.21394"><ele>118.45</ele></rtept><rtept lat="35.95052" lon="127.2134"><ele>116.03</ele></rtept><rtept lat="35.950645" lon="127.21325"><ele>115.25</ele></rtept><rtept lat="35.950752" lon="127.21314"><ele>114.65</ele></rtept><rtept lat="35.950893" lon="127.213036"><ele>113.93</ele></rtept><rtept lat="35.951088" lon="127.21291"><ele>112.97</ele></rtept><rtept lat="35.95123" lon="127.21287"><ele>111.43</ele></rtept><rtept lat="35.951366" lon="127.21286"><ele>109.97</ele></rtept><rtept lat="35.95195" lon="127.213"><ele>102.12</ele></rtept><rtept lat="35.952084" lon="127.21304"><ele>100.25</ele></rtept><rtept lat="35.952328" lon="127.21309"><ele>96.97</ele></rtept><rtept lat="35.953148" lon="127.213165"><ele>91.18</ele></rtept><rtept lat="35.953476" lon="127.21318"><ele>81.6</ele></rtept><rtept lat="35.954067" lon="127.213165"><ele>77.1</ele></rtept><rtept lat="35.95451" lon="127.21311"><ele>73.72</ele></rtept><rtept lat="35.954803" lon="127.21304"><ele>73.42</ele></rtept><rtept lat="35.955288" lon="127.21293"><ele>72.86</ele></rtept><rtept lat="35.95556" lon="127.212845"><ele>72.56</ele></rtept><rtept lat="35.956028" lon="127.21267"><ele>70.17</ele></rtept><rtept lat="35.956722" lon="127.21236"><ele>66.57</ele></rtept><rtept lat="35.957092" lon="127.21219"><ele>65.41</ele></rtept><rtept lat="35.957172" lon="127.21215"><ele>64.24</ele></rtept><rtept lat="35.957256" lon="127.21274"><ele>66.63</ele></rtept><rtept lat="35.95733" lon="127.21273"><ele>66.48</ele></rtept><rtept lat="35.957375" lon="127.212715"><ele>66.38</ele></rtept><rtept lat="35.957584" lon="127.21258"><ele>65.89</ele></rtept><rtept lat="35.95764" lon="127.21257"><ele>65.76</ele></rtept><rtept lat="35.957737" lon="127.21258"><ele>65.56</ele></rtept><rtept lat="35.957806" lon="127.21259"><ele>65.41</ele></rtept><rtept lat="35.957924" lon="127.21263"><ele>65.15</ele></rtept><rtept lat="35.958008" lon="127.21265"><ele>64.97</ele></rtept><rtept lat="35.958282" lon="127.21267"><ele>64.39</ele></rtept><rtept lat="35.958363" lon="127.21267"><ele>64.22</ele></rtept><rtept lat="35.95844" lon="127.21264"><ele>64.05</ele></rtept><rtept lat="35.958748" lon="127.21249"><ele>63.36</ele></rtept><rtept lat="35.95901" lon="127.212395"><ele>62.77</ele></rtept><rtept lat="35.95909" lon="127.21238"><ele>62.6</ele></rtept><rtept lat="35.959282" lon="127.212425"><ele>62.19</ele></rtept><rtept lat="35.95944" lon="127.21245"><ele>61.86</ele></rtept><rtept lat="35.95958" lon="127.21245"><ele>61.56</ele></rtept><rtept lat="35.960136" lon="127.21239"><ele>60.38</ele></rtept><rtept lat="35.960484" lon="127.21233"><ele>59.64</ele></rtept><rtept lat="35.960964" lon="127.21234"><ele>58.86</ele></rtept><rtept lat="35.961224" lon="127.21235"><ele>58.07</ele></rtept><rtept lat="35.961304" lon="127.212364"><ele>57.91</ele></rtept><rtept lat="35.961376" lon="127.2124"><ele>57.73</ele></rtept><rtept lat="35.96147" lon="127.212425"><ele>57.38</ele></rtept><rtept lat="35.961872" lon="127.212456"><ele>55.9</ele></rtept><rtept lat="35.96242" lon="127.21248"><ele>54.68</ele></rtept><rtept lat="35.962475" lon="127.21248"><ele>54.72</ele></rtept><rtept lat="35.962658" lon="127.21247"><ele>54.76</ele></rtept><rtept lat="35.96302" lon="127.21243"><ele>54.11</ele></rtept><rtept lat="35.96391" lon="127.21221"><ele>52.48</ele></rtept><rtept lat="35.96403" lon="127.2122"><ele>52.26</ele></rtept><rtept lat="35.964314" lon="127.21219"><ele>51.75</ele></rtept><rtept lat="35.964417" lon="127.2122"><ele>51.57</ele></rtept><rtept lat="35.96452" lon="127.21223"><ele>51.38</ele></rtept><rtept lat="35.964638" lon="127.21227"><ele>51.16</ele></rtept><rtept lat="35.964733" lon="127.21233"><ele>50.97</ele></rtept><rtept lat="35.964825" lon="127.212395"><ele>50.78</ele></rtept><rtept lat="35.96519" lon="127.21271"><ele>49.98</ele></rtept><rtept lat="35.965405" lon="127.21284"><ele>49.55</ele></rtept><rtept lat="35.96549" lon="127.21287"><ele>49.39</ele></rtept><rtept lat="35.965904" lon="127.21296"><ele>48.63</ele></rtept><rtept lat="35.96599" lon="127.21299"><ele>48.47</ele></rtept><rtept lat="35.96605" lon="127.21303"><ele>48.35</ele></rtept><rtept lat="35.96665" lon="127.21361"><ele>46.98</ele></rtept><rtept lat="35.967148" lon="127.21401"><ele>46.08</ele></rtept><rtept lat="35.967278" lon="127.21411"><ele>45.64</ele></rtept><rtept lat="35.96721" lon="127.21434"><ele>46.32</ele></rtept><rtept lat="35.96718" lon="127.21441"><ele>46.54</ele></rtept><rtept lat="35.967136" lon="127.21448"><ele>46.76</ele></rtept><rtept lat="35.96677" lon="127.214775"><ele>48.56</ele></rtept><rtept lat="35.966415" lon="127.215034"><ele>50.24</ele></rtept><rtept lat="35.965816" lon="127.21541"><ele>52.98</ele></rtept><rtept lat="35.96563" lon="127.215485"><ele>53.8</ele></rtept><rtept lat="35.965218" lon="127.215614"><ele>55.54</ele></rtept><rtept lat="35.965107" lon="127.21566"><ele>55.93</ele></rtept><rtept lat="35.9649" lon="127.21571"><ele>58.33</ele></rtept><rtept lat="35.96457" lon="127.21576"><ele>62.14</ele></rtept><rtept lat="35.964508" lon="127.215775"><ele>62.84</ele></rtept><rtept lat="35.964474" lon="127.215805"><ele>63.32</ele></rtept><rtept lat="35.96432" lon="127.21605"><ele>66.13</ele></rtept><rtept lat="35.964203" lon="127.21621"><ele>68.14</ele></rtept><rtept lat="35.96378" lon="127.216644"><ele>74.43</ele></rtept><rtept lat="35.963673" lon="127.216835"><ele>76.53</ele></rtept><rtept lat="35.963585" lon="127.21697"><ele>78.15</ele></rtept><rtept lat="35.96348" lon="127.217094"><ele>78.67</ele></rtept><rtept lat="35.96341" lon="127.21718"><ele>80.72</ele></rtept><rtept lat="35.96322" lon="127.217316"><ele>85.37</ele></rtept><rtept lat="35.963173" lon="127.21736"><ele>86.61</ele></rtept><rtept lat="35.963135" lon="127.21743"><ele>87.99</ele></rtept><rtept lat="35.963036" lon="127.21765"><ele>92.39</ele></rtept><rtept lat="35.96299" lon="127.21772"><ele>93.8</ele></rtept><rtept lat="35.96293" lon="127.21777"><ele>95.4</ele></rtept><rtept lat="35.962845" lon="127.217804"><ele>97.23</ele></rtept><rtept lat="35.96226" lon="127.21789"><ele>109.55</ele></rtept><rtept lat="35.961945" lon="127.21797"><ele>116.38</ele></rtept><rtept lat="35.96179" lon="127.218025"><ele>119.78</ele></rtept><rtept lat="35.961582" lon="127.21813"><ele>124.53</ele></rtept><rtept lat="35.961475" lon="127.21821"><ele>127.13</ele></rtept><rtept lat="35.961323" lon="127.21835"><ele>131.17</ele></rtept><rtept lat="35.96127" lon="127.2184"><ele>132.52</ele></rtept><rtept lat="35.961193" lon="127.218414"><ele>134.19</ele></rtept><rtept lat="35.961067" lon="127.218414"><ele>136.84</ele></rtept><rtept lat="35.961006" lon="127.21842"><ele>138.07</ele></rtept><rtept lat="35.960953" lon="127.21846"><ele>136.77</ele></rtept><rtept lat="35.960682" lon="127.21876"><ele>147.14</ele></rtept><rtept lat="35.960533" lon="127.21897"><ele>150.42</ele></rtept><rtept lat="35.960533" lon="127.21898"><ele>153.7</ele></rtept><rtept lat="35.960533" lon="127.21914"><ele>158.44</ele></rtept><rtept lat="35.960518" lon="127.21919"><ele>160.17</ele></rtept><rtept lat="35.960354" lon="127.21947"><ele>170.14</ele></rtept><rtept lat="35.960323" lon="127.219536"><ele>172.29</ele></rtept><rtept lat="35.96032" lon="127.21961"><ele>174.49</ele></rtept><rtept lat="35.960255" lon="127.21969"><ele>177.75</ele></rtept><rtept lat="35.960224" lon="127.21969"><ele>178.84</ele></rtept><rtept lat="35.960197" lon="127.21989"><ele>184.62</ele></rtept><rtept lat="35.96017" lon="127.219925"><ele>186.12</ele></rtept><rtept lat="35.960236" lon="127.220055"><ele>183.93</ele></rtept><rtept lat="35.96029" lon="127.22004"><ele>183.25</ele></rtept><rtept lat="35.96031" lon="127.220055"><ele>182.94</ele></rtept><rtept lat="35.96036" lon="127.22002"><ele>182.2</ele></rtept><rtept lat="35.96039" lon="127.220024"><ele>181.87</ele></rtept><rtept lat="35.960438" lon="127.22"><ele>181.25</ele></rtept><rtept lat="35.960453" lon="127.22003"><ele>180.87</ele></rtept><rtept lat="35.960518" lon="127.22004"><ele>180.06</ele></rtept><rtept lat="35.960537" lon="127.220085"><ele>179.54</ele></rtept><rtept lat="35.960583" lon="127.220085"><ele>178.98</ele></rtept><rtept lat="35.96061" lon="127.2201"><ele>178.6</ele></rtept><rtept lat="35.96062" lon="127.220085"><ele>178.37</ele></rtept><rtept lat="35.960686" lon="127.220116"><ele>178.7</ele></rtept><rtept lat="35.960693" lon="127.22029"><ele>184.15</ele></rtept><rtept lat="35.960712" lon="127.220345"><ele>185.84</ele></rtept><rtept lat="35.960766" lon="127.22038"><ele>187.35</ele></rtept><rtept lat="35.96077" lon="127.22044"><ele>189.66</ele></rtept><rtept lat="35.960712" lon="127.220474"><ele>192.65</ele></rtept><rtept lat="35.960617" lon="127.220634"><ele>200.19</ele></rtept><rtept lat="35.960545" lon="127.22072"><ele>204.61</ele></rtept><rtept lat="35.96054" lon="127.22079"><ele>207.11</ele></rtept><rtept lat="35.96051" lon="127.22079"><ele>208.45</ele></rtept><rtept lat="35.960518" lon="127.220825"><ele>209.99</ele></rtept><rtept lat="35.960472" lon="127.220825"><ele>212.0</ele></rtept><rtept lat="35.960464" lon="127.22092"><ele>215.25</ele></rtept><rtept lat="35.960392" lon="127.22091"><ele>213.79</ele></rtept><rtept lat="35.960396" lon="127.22098"><ele>216.68</ele></rtept><rtept lat="35.96035" lon="127.22102"><ele>219.65</ele></rtept><rtept lat="35.96037" lon="127.22109"><ele>222.81</ele></rtept><rtept lat="35.960323" lon="127.22109"><ele>222.49</ele></rtept><rtept lat="35.960293" lon="127.22112"><ele>224.16</ele></rtept><rtept lat="35.960346" lon="127.22125"><ele>228.48</ele></rtept><rtept lat="35.96033" lon="127.2213"><ele>230.49</ele></rtept><rtept lat="35.960346" lon="127.221344"><ele>232.6</ele></rtept><rtept lat="35.960297" lon="127.22137"><ele>235.33</ele></rtept><rtept lat="35.96032" lon="127.22143"><ele>236.02</ele></rtept><rtept lat="35.96028" lon="127.22144"><ele>237.19</ele></rtept><rtept lat="35.96023" lon="127.22143"><ele>238.52</ele></rtept><rtept lat="35.96024" lon="127.221436"><ele>238.67</ele></rtept><rtept lat="35.960224" lon="127.22146"><ele>239.99</ele></rtept><rtept lat="35.96024" lon="127.2215"><ele>241.42</ele></rtept><rtept lat="35.9602" lon="127.22152"><ele>243.89</ele></rtept><rtept lat="35.96021" lon="127.22158"><ele>246.57</ele></rtept><rtept lat="35.96015" lon="127.22165"><ele>251.1</ele></rtept><rtept lat="35.96011" lon="127.22166"><ele>253.59</ele></rtept><rtept lat="35.960087" lon="127.22175"><ele>257.96</ele></rtept><rtept lat="35.960007" lon="127.22181"><ele>260.82</ele></rtept><rtept lat="35.960003" lon="127.22184"><ele>262.03</ele></rtept><rtept lat="35.959927" lon="127.221924"><ele>266.88</ele></rtept><rtept lat="35.959915" lon="127.22199"><ele>269.74</ele></rtept><rtept lat="35.95989" lon="127.22201"><ele>271.06</ele></rtept><rtept lat="35.95985" lon="127.2221"><ele>274.26</ele></rtept><rtept lat="35.95985" lon="127.22214"><ele>275.34</ele></rtept><rtept lat="35.959686" lon="127.22218"><ele>279.28</ele></rtept><rtept lat="35.959656" lon="127.222244"><ele>282.03</ele></rtept><rtept lat="35.95965" lon="127.22231"><ele>284.72</ele></rtept><rtept lat="35.959618" lon="127.222374"><ele>287.71</ele></rtept><rtept lat="35.959583" lon="127.22243"><ele>290.75</ele></rtept><rtept lat="35.959496" lon="127.222496"><ele>296.24</ele></rtept><rtept lat="35.95948" lon="127.22254"><ele>298.86</ele></rtept><rtept lat="35.95942" lon="127.22261"><ele>304.14</ele></rtept><rtept lat="35.95937" lon="127.22275"><ele>312.22</ele></rtept><rtept lat="35.959343" lon="127.22276"><ele>314.27</ele></rtept><rtept lat="35.959248" lon="127.222755"><ele>320.63</ele></rtept><rtept lat="35.959183" lon="127.22282"><ele>326.37</ele></rtept><rtept lat="35.95917" lon="127.22286"><ele>328.96</ele></rtept><rtept lat="35.959133" lon="127.22289"><ele>328.41</ele></rtept><rtept lat="35.959133" lon="127.22292"><ele>329.69</ele></rtept><rtept lat="35.95911" lon="127.222946"><ele>331.15</ele></rtept><rtept lat="35.95909" lon="127.22294"><ele>332.17</ele></rtept><rtept lat="35.95904" lon="127.22301"><ele>335.79</ele></rtept><rtept lat="35.95898" lon="127.22299"><ele>338.89</ele></rtept><rtept lat="35.95896" lon="127.22304"><ele>340.93</ele></rtept><rtept lat="35.958923" lon="127.223015"><ele>343.01</ele></rtept><rtept lat="35.958927" lon="127.22309"><ele>346.28</ele></rtept><rtept lat="35.95892" lon="127.22311"><ele>346.97</ele></rtept><rtept lat="35.95891" lon="127.22312"><ele>347.66</ele></rtept><rtept lat="35.95889" lon="127.22313"><ele>348.87</ele></rtept><rtept lat="35.9588" lon="127.22305"><ele>346.42</ele></rtept><rtept lat="35.958717" lon="127.223015"><ele>348.07</ele></rtept><rtept lat="35.958557" lon="127.22301"><ele>353.78</ele></rtept><rtept lat="35.958538" lon="127.22304"><ele>354.5</ele></rtept><rtept lat="35.95861" lon="127.22311"><ele>355.98</ele></rtept><rtept lat="35.95862" lon="127.22323"><ele>360.95</ele></rtept><rtept lat="35.958538" lon="127.223236"><ele>364.61</ele></rtept><rtept lat="35.958443" lon="127.22327"><ele>369.17</ele></rtept><rtept lat="35.958485" lon="127.223274"><ele>371.59</ele></rtept><rtept lat="35.958515" lon="127.22334"><ele>375.07</ele></rtept><rtept lat="35.958504" lon="127.22342"><ele>378.63</ele></rtept><rtept lat="35.95844" lon="127.22354"><ele>385.28</ele></rtept><rtept lat="35.95844" lon="127.223724"><ele>389.77</ele></rtept><rtept lat="35.95846" lon="127.22379"><ele>388.84</ele></rtept><rtept lat="35.95867" lon="127.22392"><ele>385.24</ele></rtept><rtept lat="35.9587" lon="127.22397"><ele>384.55</ele></rtept><rtept lat="35.9587" lon="127.224045"><ele>384.05</ele></rtept><rtept lat="35.9587" lon="127.224106"><ele>383.56</ele></rtept><rtept lat="35.958813" lon="127.22405"><ele>380.2</ele></rtept><rtept lat="35.958836" lon="127.224075"><ele>379.42</ele></rtept><rtept lat="35.95887" lon="127.22421"><ele>376.11</ele></rtept><rtept lat="35.958927" lon="127.2243"><ele>373.66</ele></rtept><rtept lat="35.959152" lon="127.22446"><ele>366.35</ele></rtept><rtept lat="35.95919" lon="127.22459"><ele>363.21</ele></rtept><rtept lat="35.9593" lon="127.22469"><ele>359.21</ele></rtept><rtept lat="35.95934" lon="127.22479"><ele>356.74</ele></rtept><rtept lat="35.95933" lon="127.22482"><ele>359.44</ele></rtept><rtept lat="35.959373" lon="127.22485"><ele>356.01</ele></rtept><rtept lat="35.959538" lon="127.225"><ele>352.58</ele></rtept><rtept lat="35.959866" lon="127.225006"><ele>342.63</ele></rtept><rtept lat="35.960033" lon="127.225044"><ele>337.49</ele></rtept><rtept lat="35.96008" lon="127.22509"><ele>337.74</ele></rtept><rtept lat="35.9601" lon="127.22515"><ele>338.17</ele></rtept><rtept lat="35.960125" lon="127.22516"><ele>338.39</ele></rtept><rtept lat="35.960144" lon="127.22522"><ele>338.8</ele></rtept><rtept lat="35.960167" lon="127.22523"><ele>338.99</ele></rtept><rtept lat="35.960175" lon="127.22527"><ele>339.27</ele></rtept><rtept lat="35.960205" lon="127.22528"><ele>339.52</ele></rtept><rtept lat="35.96023" lon="127.22538"><ele>340.19</ele></rtept><rtept lat="35.960346" lon="127.22551"><ele>335.25</ele></rtept><rtept lat="35.960415" lon="127.22556"><ele>332.61</ele></rtept><rtept lat="35.960453" lon="127.22556"><ele>331.32</ele></rtept><rtept lat="35.960632" lon="127.22566"><ele>324.76</ele></rtept><rtept lat="35.96069" lon="127.22571"><ele>324.62</ele></rtept><rtept lat="35.96075" lon="127.2258"><ele>323.06</ele></rtept><rtept lat="35.960888" lon="127.22592"><ele>320.4</ele></rtept><rtept lat="35.960995" lon="127.22594"><ele>318.7</ele></rtept><rtept lat="35.961033" lon="127.22596"><ele>317.97</ele></rtept><rtept lat="35.961067" lon="127.22603"><ele>316.96</ele></rtept><rtept lat="35.961063" lon="127.22606"><ele>316.57</ele></rtept><rtept lat="35.961086" lon="127.226074"><ele>316.16</ele></rtept><rtept lat="35.961082" lon="127.226105"><ele>315.78</ele></rtept><rtept lat="35.96112" lon="127.22614"><ele>315.02</ele></rtept><rtept lat="35.96112" lon="127.22617"><ele>314.64</ele></rtept><rtept lat="35.96116" lon="127.22623"><ele>313.77</ele></rtept><rtept lat="35.961166" lon="127.22627"><ele>312.64</ele></rtept><rtept lat="35.961273" lon="127.22633"><ele>308.44</ele></rtept><rtept lat="35.961422" lon="127.226364"><ele>303.09</ele></rtept><rtept lat="35.961494" lon="127.2264"><ele>300.22</ele></rtept><rtept lat="35.961662" lon="127.22644"><ele>294.23</ele></rtept><rtept lat="35.961716" lon="127.22648"><ele>292.11</ele></rtept><rtept lat="35.961887" lon="127.2265"><ele>286.03</ele></rtept><rtept lat="35.962086" lon="127.22667"><ele>283.68</ele></rtept><rtept lat="35.962147" lon="127.22668"><ele>282.87</ele></rtept><rtept lat="35.962166" lon="127.22669"><ele>282.52</ele></rtept><rtept lat="35.962162" lon="127.22673"><ele>282.18</ele></rtept><rtept lat="35.96219" lon="127.22678"><ele>281.47</ele></rtept><rtept lat="35.96219" lon="127.226814"><ele>281.11</ele></rtept><rtept lat="35.96221" lon="127.22684"><ele>280.77</ele></rtept><rtept lat="35.96224" lon="127.226906"><ele>279.95</ele></rtept><rtept lat="35.962307" lon="127.22697"><ele>278.79</ele></rtept><rtept lat="35.96239" lon="127.22709"><ele>277.12</ele></rtept><rtept lat="35.962505" lon="127.22718"><ele>275.3</ele></rtept><rtept lat="35.96259" lon="127.22723"><ele>274.11</ele></rtept><rtept lat="35.962723" lon="127.22735"><ele>271.92</ele></rtept><rtept lat="35.962784" lon="127.227455"><ele>270.53</ele></rtept><rtept lat="35.962807" lon="127.22753"><ele>269.65</ele></rtept><rtept lat="35.96283" lon="127.227554"><ele>269.58</ele></rtept><rtept lat="35.96286" lon="127.227554"><ele>268.61</ele></rtept><rtept lat="35.96292" lon="127.2276"><ele>266.44</ele></rtept><rtept lat="35.96295" lon="127.2276"><ele>265.54</ele></rtept><rtept lat="35.96299" lon="127.227646"><ele>263.87</ele></rtept><rtept lat="35.963055" lon="127.22765"><ele>261.88</ele></rtept><rtept lat="35.963303" lon="127.22777"><ele>253.83</ele></rtept><rtept lat="35.96344" lon="127.22786"><ele>249.0</ele></rtept><rtept lat="35.963642" lon="127.22794"><ele>242.47</ele></rtept><rtept lat="35.963722" lon="127.22799"><ele>239.72</ele></rtept><rtept lat="35.96377" lon="127.22807"><ele>237.24</ele></rtept><rtept lat="35.963837" lon="127.22825"><ele>236.73</ele></rtept><rtept lat="35.96389" lon="127.22827"><ele>236.52</ele></rtept><rtept lat="35.96392" lon="127.22839"><ele>236.11</ele></rtept><rtept lat="35.963966" lon="127.22845"><ele>235.84</ele></rtept><rtept lat="35.963955" lon="127.2285"><ele>235.67</ele></rtept><rtept lat="35.96406" lon="127.22866"><ele>236.18</ele></rtept><rtept lat="35.96417" lon="127.228775"><ele>236.31</ele></rtept><rtept lat="35.9642" lon="127.228836"><ele>236.74</ele></rtept><rtept lat="35.964275" lon="127.228874"><ele>237.13</ele></rtept><rtept lat="35.96435" lon="127.228966"><ele>238.19</ele></rtept><rtept lat="35.964397" lon="127.229065"><ele>239.37</ele></rtept><rtept lat="35.964386" lon="127.22911"><ele>240.37</ele></rtept><rtept lat="35.964317" lon="127.22917"><ele>242.29</ele></rtept><rtept lat="35.96426" lon="127.2293"><ele>243.24</ele></rtept><rtept lat="35.964134" lon="127.22937"><ele>240.69</ele></rtept><rtept lat="35.964085" lon="127.22943"><ele>239.51</ele></rtept><rtept lat="35.964073" lon="127.22949"><ele>239.4</ele></rtept><rtept lat="35.964027" lon="127.22961"><ele>236.14</ele></rtept><rtept lat="35.96395" lon="127.2297"><ele>232.67</ele></rtept><rtept lat="35.96395" lon="127.22974"><ele>231.86</ele></rtept><rtept lat="35.963905" lon="127.229774"><ele>230.02</ele></rtept><rtept lat="35.963783" lon="127.22998"><ele>223.41</ele></rtept><rtept lat="35.963596" lon="127.23039"><ele>213.55</ele></rtept><rtept lat="35.96358" lon="127.23048"><ele>212.35</ele></rtept><rtept lat="35.963547" lon="127.230545"><ele>211.15</ele></rtept><rtept lat="35.963577" lon="127.230606"><ele>211.19</ele></rtept><rtept lat="35.96357" lon="127.23063"><ele>210.84</ele></rtept><rtept lat="35.963608" lon="127.230675"><ele>210.96</ele></rtept><rtept lat="35.9636" lon="127.230736"><ele>210.34</ele></rtept><rtept lat="35.963623" lon="127.23075"><ele>210.41</ele></rtept><rtept lat="35.96362" lon="127.23081"><ele>209.73</ele></rtept><rtept lat="35.963634" lon="127.23084"><ele>209.51</ele></rtept><rtept lat="35.963608" lon="127.23094"><ele>208.4</ele></rtept><rtept lat="35.963566" lon="127.23097"><ele>208.12</ele></rtept><rtept lat="35.963566" lon="127.231064"><ele>211.89</ele></rtept><rtept lat="35.963585" lon="127.23112"><ele>210.25</ele></rtept><rtept lat="35.963593" lon="127.23114"><ele>208.61</ele></rtept><rtept lat="35.96354" lon="127.23129"><ele>201.62</ele></rtept><rtept lat="35.963493" lon="127.23133"><ele>198.87</ele></rtept><rtept lat="35.963467" lon="127.2314"><ele>195.74</ele></rtept><rtept lat="35.96349" lon="127.23147"><ele>192.74</ele></rtept><rtept lat="35.963463" lon="127.23148"><ele>191.31</ele></rtept><rtept lat="35.96342" lon="127.23157"><ele>187.23</ele></rtept><rtept lat="35.96339" lon="127.23157"><ele>185.7</ele></rtept><rtept lat="35.963326" lon="127.23162"><ele>181.72</ele></rtept><rtept lat="35.963337" lon="127.23165"><ele>180.22</ele></rtept><rtept lat="35.96331" lon="127.23166"><ele>178.95</ele></rtept><rtept lat="35.963306" lon="127.231705"><ele>176.87</ele></rtept><rtept lat="35.963287" lon="127.23173"><ele>175.63</ele></rtept><rtept lat="35.96326" lon="127.23173"><ele>174.2</ele></rtept><rtept lat="35.963264" lon="127.23175"><ele>173.09</ele></rtept><rtept lat="35.963215" lon="127.231766"><ele>170.5</ele></rtept><rtept lat="35.963234" lon="127.23185"><ele>170.66</ele></rtept><rtept lat="35.96315" lon="127.231834"><ele>165.17</ele></rtept><rtept lat="35.96313" lon="127.23188"><ele>162.44</ele></rtept><rtept lat="35.963097" lon="127.231865"><ele>161.24</ele></rtept><rtept lat="35.963024" lon="127.23174"><ele>161.04</ele></rtept><rtept lat="35.962994" lon="127.2318"><ele>158.18</ele></rtept><rtept lat="35.962933" lon="127.23177"><ele>155.12</ele></rtept><rtept lat="35.962894" lon="127.23179"><ele>153.06</ele></rtept><rtept lat="35.96285" lon="127.231865"><ele>149.38</ele></rtept><rtept lat="35.96279" lon="127.23189"><ele>146.37</ele></rtept><rtept lat="35.962757" lon="127.23181"><ele>146.61</ele></rtept><rtept lat="35.962708" lon="127.23177"><ele>144.55</ele></rtept><rtept lat="35.962673" lon="127.2318"><ele>143.02</ele></rtept><rtept lat="35.962643" lon="127.23186"><ele>140.91</ele></rtept><rtept lat="35.96261" lon="127.23186"><ele>143.94</ele></rtept><rtept lat="35.962593" lon="127.23183"><ele>143.42</ele></rtept><rtept lat="35.96256" lon="127.231865"><ele>142.66</ele></rtept><rtept lat="35.962543" lon="127.23196"><ele>141.43</ele></rtept><rtept lat="35.962505" lon="127.23193"><ele>140.73</ele></rtept><rtept lat="35.96243" lon="127.23193"><ele>139.49</ele></rtept><rtept lat="35.962433" lon="127.231964"><ele>139.08</ele></rtept><rtept lat="35.962395" lon="127.23195"><ele>138.41</ele></rtept><rtept lat="35.962364" lon="127.23198"><ele>137.73</ele></rtept><rtept lat="35.962364" lon="127.23196"><ele>137.41</ele></rtept><rtept lat="35.962322" lon="127.231964"><ele>136.69</ele></rtept><rtept lat="35.962303" lon="127.231995"><ele>136.13</ele></rtept><rtept lat="35.96224" lon="127.231964"><ele>134.96</ele></rtept><rtept lat="35.962196" lon="127.23203"><ele>133.79</ele></rtept><rtept lat="35.962185" lon="127.23207"><ele>132.68</ele></rtept><rtept lat="35.962154" lon="127.232185"><ele>131.57</ele></rtept><rtept lat="35.962234" lon="127.23225"><ele>130.13</ele></rtept><rtept lat="35.962334" lon="127.23245"><ele>126.46</ele></rtept><rtept lat="35.962395" lon="127.23263"><ele>123.6</ele></rtept><rtept lat="35.962517" lon="127.23274"><ele>120.73</ele></rtept><rtept lat="35.962757" lon="127.232834"><ele>122.77</ele></rtept><rtept lat="35.963436" lon="127.23287"><ele>128.38</ele></rtept><rtept lat="35.963795" lon="127.23286"><ele>127.66</ele></rtept><rtept lat="35.964375" lon="127.232765"><ele>126.34</ele></rtept><rtept lat="35.96501" lon="127.23259"><ele>124.86</ele></rtept><rtept lat="35.96561" lon="127.23246"><ele>123.49</ele></rtept><rtept lat="35.965813" lon="127.23246"><ele>123.04</ele></rtept><rtept lat="35.96611" lon="127.23252"><ele>122.36</ele></rtept><rtept lat="35.966244" lon="127.23259"><ele>122.03</ele></rtept><rtept lat="35.966316" lon="127.23268"><ele>121.14</ele></rtept><rtept lat="35.966488" lon="127.23293"><ele>118.74</ele></rtept><rtept lat="35.966614" lon="127.23304"><ele>117.33</ele></rtept><rtept lat="35.96738" lon="127.23398"><ele>107.58</ele></rtept><rtept lat="35.967625" lon="127.23431"><ele>104.34</ele></rtept><rtept lat="35.967567" lon="127.23431"><ele>103.88</ele></rtept><rtept lat="35.96721" lon="127.23435"><ele>100.45</ele></rtept><rtept lat="35.96708" lon="127.23436"><ele>100.52</ele></rtept><rtept lat="35.96697" lon="127.2349"><ele>111.07</ele></rtept><rtept lat="35.966965" lon="127.23492"><ele>111.07</ele></rtept><rtept lat="35.96701" lon="127.234924"><ele>109.88</ele></rtept><rtept lat="35.96715" lon="127.23501"><ele>108.6</ele></rtept><rtept lat="35.967503" lon="127.23509"><ele>105.7</ele></rtept><rtept lat="35.968018" lon="127.23531"><ele>101.26</ele></rtept><rtept lat="35.968338" lon="127.235405"><ele>98.6</ele></rtept><rtept lat="35.968605" lon="127.23541"><ele>96.43</ele></rtept><rtept lat="35.969074" lon="127.23537"><ele>95.47</ele></rtept><rtept lat="35.96989" lon="127.23518"><ele>92.14</ele></rtept><rtept lat="35.970196" lon="127.23493"><ele>90.67</ele></rtept><rtept lat="35.970314" lon="127.2349"><ele>90.18</ele></rtept><rtept lat="35.97051" lon="127.234856"><ele>89.38</ele></rtept><rtept lat="35.970627" lon="127.23479"><ele>88.86</ele></rtept><rtept lat="35.97075" lon="127.23471"><ele>88.42</ele></rtept><rtept lat="35.973557" lon="127.23445"><ele>80.83</ele></rtept></rte></gpx>