<?xml version="1.0" encoding="UTF-8"?>
<gpx version="1.1" creator="HTML GPX Creator" xmlns="http://www.topografix.com/GPX/1/1">
  <trk>
    <name>yd_korea_18k</name>
    <trkseg>
      <trkpt lat="36.5655643904537" lon="129.4258385896683">
        <ele>7.8</ele>
      </trkpt>
      <trkpt lat="36.56716716188238" lon="129.42395567893985">
        <ele>8.1</ele>
      </trkpt>
      <trkpt lat="36.567171" lon="129.423958">
        <ele>8.3</ele>
      </trkpt>
      <trkpt lat="36.567837" lon="129.423349">
        <ele>8.6</ele>
      </trkpt>
      <trkpt lat="36.567815" lon="129.423315">
        <ele>8.9</ele>
      </trkpt>
      <trkpt lat="36.56780912283089" lon="129.42332267761233">
        <ele>9.3</ele>
      </trkpt>
      <trkpt lat="36.567815" lon="129.423315">
        <ele>9.6</ele>
      </trkpt>
      <trkpt lat="36.567529" lon="129.422869">
        <ele>10.0</ele>
      </trkpt>
      <trkpt lat="36.567507" lon="129.422835">
        <ele>10.3</ele>
      </trkpt>
      <trkpt lat="36.567242" lon="129.422428">
        <ele>10.7</ele>
      </trkpt>
      <trkpt lat="36.567188" lon="129.422344">
        <ele>11.1</ele>
      </trkpt>
      <trkpt lat="36.567175" lon="129.422357">
        <ele>11.5</ele>
      </trkpt>
      <trkpt lat="36.56716716188238" lon="129.4223463535309">
        <ele>11.9</ele>
      </trkpt>
      <trkpt lat="36.567175" lon="129.422357">
        <ele>12.3</ele>
      </trkpt>
      <trkpt lat="36.566556" lon="129.423024">
        <ele>12.7</ele>
      </trkpt>
      <trkpt lat="36.564524" lon="129.425266">
        <ele>13.1</ele>
      </trkpt>
      <trkpt lat="36.564085" lon="129.425771">
        <ele>13.9</ele>
      </trkpt>
      <trkpt lat="36.563985" lon="129.425914">
        <ele>14.6</ele>
      </trkpt>
      <trkpt lat="36.56397882040428" lon="129.4259083271027">
        <ele>15.4</ele>
      </trkpt>
      <trkpt lat="36.563985" lon="129.425914">
        <ele>16.2</ele>
      </trkpt>
      <trkpt lat="36.563929" lon="129.425997">
        <ele>17.1</ele>
      </trkpt>
      <trkpt lat="36.56397" lon="129.426355">
        <ele>18.0</ele>
      </trkpt>
      <trkpt lat="36.563977" lon="129.426428">
        <ele>18.9</ele>
      </trkpt>
      <trkpt lat="36.56394" lon="129.426427">
        <ele>19.9</ele>
      </trkpt>
      <trkpt lat="36.563771" lon="129.426428">
        <ele>21.0</ele>
      </trkpt>
      <trkpt lat="36.563731" lon="129.426437">
        <ele>22.1</ele>
      </trkpt>
      <trkpt lat="36.563696" lon="129.426461">
        <ele>23.2</ele>
      </trkpt>
      <trkpt lat="36.563649" lon="129.426508">
        <ele>24.4</ele>
      </trkpt>
      <trkpt lat="36.56362" lon="129.42656">
        <ele>25.6</ele>
      </trkpt>
      <trkpt lat="36.563501" lon="129.426865">
        <ele>26.9</ele>
      </trkpt>
      <trkpt lat="36.563377" lon="129.427105">
        <ele>28.2</ele>
      </trkpt>
      <trkpt lat="36.56334" lon="129.427207">
        <ele>29.6</ele>
      </trkpt>
      <trkpt lat="36.563241" lon="129.427857">
        <ele>31.0</ele>
      </trkpt>
      <trkpt lat="36.563219" lon="129.427922">
        <ele>32.5</ele>
      </trkpt>
      <trkpt lat="36.563172" lon="129.428005">
        <ele>33.9</ele>
      </trkpt>
      <trkpt lat="36.563081" lon="129.428124">
        <ele>35.5</ele>
      </trkpt>
      <trkpt lat="36.562997" lon="129.42813">
        <ele>37.0</ele>
      </trkpt>
      <trkpt lat="36.562973" lon="129.428125">
        <ele>38.6</ele>
      </trkpt>
      <trkpt lat="36.56297058773982" lon="129.42815065383914">
        <ele>40.3</ele>
      </trkpt>
      <trkpt lat="36.562973" lon="129.428125">
        <ele>42.0</ele>
      </trkpt>
      <trkpt lat="36.562894" lon="129.428109">
        <ele>43.8</ele>
      </trkpt>
      <trkpt lat="36.562895" lon="129.428064">
        <ele>45.7</ele>
      </trkpt>
      <trkpt lat="36.56287" lon="129.427907">
        <ele>47.6</ele>
      </trkpt>
      <trkpt lat="36.56285" lon="129.42766">
        <ele>49.6</ele>
      </trkpt>
      <trkpt lat="36.56281" lon="129.427566">
        <ele>51.7</ele>
      </trkpt>
      <trkpt lat="36.5628" lon="129.42752">
        <ele>53.9</ele>
      </trkpt>
      <trkpt lat="36.562761" lon="129.427465">
        <ele>56.0</ele>
      </trkpt>
      <trkpt lat="36.562698" lon="129.427481">
        <ele>58.3</ele>
      </trkpt>
      <trkpt lat="36.562679" lon="129.427441">
        <ele>60.6</ele>
      </trkpt>
      <trkpt lat="36.562551" lon="129.427408">
        <ele>62.9</ele>
      </trkpt>
      <trkpt lat="36.562408" lon="129.427419">
        <ele>65.3</ele>
      </trkpt>
      <trkpt lat="36.562376" lon="129.427461">
        <ele>67.7</ele>
      </trkpt>
      <trkpt lat="36.562318" lon="129.42752">
        <ele>70.1</ele>
      </trkpt>
      <trkpt lat="36.56222" lon="129.427524">
        <ele>72.6</ele>
      </trkpt>
      <trkpt lat="36.562147" lon="129.42754">
        <ele>75.1</ele>
      </trkpt>
      <trkpt lat="36.562112" lon="129.427562">
        <ele>77.6</ele>
      </trkpt>
      <trkpt lat="36.561977" lon="129.427567">
        <ele>80.2</ele>
      </trkpt>
      <trkpt lat="36.561916" lon="129.42755">
        <ele>82.8</ele>
      </trkpt>
      <trkpt lat="36.561811" lon="129.427456">
        <ele>85.4</ele>
      </trkpt>
      <trkpt lat="36.561683" lon="129.427444">
        <ele>88.0</ele>
      </trkpt>
      <trkpt lat="36.561594" lon="129.427486">
        <ele>90.6</ele>
      </trkpt>
      <trkpt lat="36.561531" lon="129.427484">
        <ele>93.3</ele>
      </trkpt>
      <trkpt lat="36.561326" lon="129.427566">
        <ele>95.9</ele>
      </trkpt>
      <trkpt lat="36.561289" lon="129.427559">
        <ele>98.5</ele>
      </trkpt>
      <trkpt lat="36.56124" lon="129.427529">
        <ele>101.2</ele>
      </trkpt>
      <trkpt lat="36.561174" lon="129.427523">
        <ele>103.8</ele>
      </trkpt>
      <trkpt lat="36.56107" lon="129.427486">
        <ele>106.5</ele>
      </trkpt>
      <trkpt lat="36.561023" lon="129.427429">
        <ele>109.0</ele>
      </trkpt>
      <trkpt lat="36.560936" lon="129.427062">
        <ele>111.6</ele>
      </trkpt>
      <trkpt lat="36.560774" lon="129.426723">
        <ele>114.1</ele>
      </trkpt>
      <trkpt lat="36.560699" lon="129.426491">
        <ele>116.6</ele>
      </trkpt>
      <trkpt lat="36.560678" lon="129.426352">
        <ele>118.9</ele>
      </trkpt>
      <trkpt lat="36.560606" lon="129.426367">
        <ele>121.2</ele>
      </trkpt>
      <trkpt lat="36.560599" lon="129.426331">
        <ele>123.3</ele>
      </trkpt>
      <trkpt lat="36.560567" lon="129.426257">
        <ele>125.3</ele>
      </trkpt>
      <trkpt lat="36.560486" lon="129.426226">
        <ele>127.3</ele>
      </trkpt>
      <trkpt lat="36.560409" lon="129.426131">
        <ele>129.1</ele>
      </trkpt>
      <trkpt lat="36.560449" lon="129.426103">
        <ele>130.8</ele>
      </trkpt>
      <trkpt lat="36.560427" lon="129.426053">
        <ele>132.4</ele>
      </trkpt>
      <trkpt lat="36.56041978651692" lon="129.42605853080752">
        <ele>133.9</ele>
      </trkpt>
      <trkpt lat="36.560427" lon="129.426053">
        <ele>135.2</ele>
      </trkpt>
      <trkpt lat="36.560384" lon="129.425956">
        <ele>136.5</ele>
      </trkpt>
      <trkpt lat="36.560473" lon="129.42597">
        <ele>137.7</ele>
      </trkpt>
      <trkpt lat="36.560463" lon="129.425883">
        <ele>138.7</ele>
      </trkpt>
      <trkpt lat="36.560479" lon="129.425808">
        <ele>139.7</ele>
      </trkpt>
      <trkpt lat="36.560532" lon="129.425841">
        <ele>140.5</ele>
      </trkpt>
      <trkpt lat="36.560532" lon="129.425736">
        <ele>141.2</ele>
      </trkpt>
      <trkpt lat="36.560627" lon="129.425699">
        <ele>141.8</ele>
      </trkpt>
      <trkpt lat="36.560687" lon="129.425646">
        <ele>142.3</ele>
      </trkpt>
      <trkpt lat="36.560719" lon="129.425609">
        <ele>142.7</ele>
      </trkpt>
      <trkpt lat="36.56072" lon="129.425562">
        <ele>143.0</ele>
      </trkpt>
      <trkpt lat="36.560762" lon="129.425532">
        <ele>143.2</ele>
      </trkpt>
      <trkpt lat="36.560751" lon="129.425479">
        <ele>143.2</ele>
      </trkpt>
      <trkpt lat="36.560805" lon="129.425428">
        <ele>143.1</ele>
      </trkpt>
      <trkpt lat="36.560947" lon="129.425328">
        <ele>142.9</ele>
      </trkpt>
      <trkpt lat="36.560945" lon="129.425155">
        <ele>142.6</ele>
      </trkpt>
      <trkpt lat="36.561091" lon="129.425042">
        <ele>142.2</ele>
      </trkpt>
      <trkpt lat="36.561117" lon="129.424941">
        <ele>141.6</ele>
      </trkpt>
      <trkpt lat="36.561108" lon="129.424809">
        <ele>140.9</ele>
      </trkpt>
      <trkpt lat="36.561188" lon="129.424755">
        <ele>140.2</ele>
      </trkpt>
      <trkpt lat="36.561254" lon="129.424822">
        <ele>139.3</ele>
      </trkpt>
      <trkpt lat="36.561291" lon="129.424712">
        <ele>138.3</ele>
      </trkpt>
      <trkpt lat="36.561353" lon="129.424608">
        <ele>137.3</ele>
      </trkpt>
      <trkpt lat="36.561433" lon="129.424506">
        <ele>136.2</ele>
      </trkpt>
      <trkpt lat="36.561483" lon="129.424458">
        <ele>135.0</ele>
      </trkpt>
      <trkpt lat="36.561506" lon="129.424416">
        <ele>133.8</ele>
      </trkpt>
      <trkpt lat="36.56153" lon="129.424328">
        <ele>132.5</ele>
      </trkpt>
      <trkpt lat="36.561598" lon="129.424221">
        <ele>131.2</ele>
      </trkpt>
      <trkpt lat="36.561548" lon="129.424214">
        <ele>129.8</ele>
      </trkpt>
      <trkpt lat="36.56151" lon="129.424193">
        <ele>128.4</ele>
      </trkpt>
      <trkpt lat="36.561482" lon="129.42416">
        <ele>127.0</ele>
      </trkpt>
      <trkpt lat="36.561348" lon="129.424149">
        <ele>125.5</ele>
      </trkpt>
      <trkpt lat="36.561268" lon="129.424166">
        <ele>124.0</ele>
      </trkpt>
      <trkpt lat="36.56093" lon="129.424203">
        <ele>122.4</ele>
      </trkpt>
      <trkpt lat="36.560773" lon="129.424186">
        <ele>120.8</ele>
      </trkpt>
      <trkpt lat="36.560659" lon="129.424197">
        <ele>119.1</ele>
      </trkpt>
      <trkpt lat="36.560436" lon="129.424318">
        <ele>117.4</ele>
      </trkpt>
      <trkpt lat="36.560377" lon="129.424335">
        <ele>115.6</ele>
      </trkpt>
      <trkpt lat="36.560368080215824" lon="129.4242882728577">
        <ele>113.8</ele>
      </trkpt>
      <trkpt lat="36.560377" lon="129.424335">
        <ele>111.9</ele>
      </trkpt>
      <trkpt lat="36.560262" lon="129.42437">
        <ele>110.0</ele>
      </trkpt>
      <trkpt lat="36.56008" lon="129.424381">
        <ele>108.0</ele>
      </trkpt>
      <trkpt lat="36.559984" lon="129.424378">
        <ele>106.0</ele>
      </trkpt>
      <trkpt lat="36.559875" lon="129.424336">
        <ele>104.0</ele>
      </trkpt>
      <trkpt lat="36.559716" lon="129.424237">
        <ele>101.9</ele>
      </trkpt>
      <trkpt lat="36.559519" lon="129.424152">
        <ele>99.8</ele>
      </trkpt>
      <trkpt lat="36.559228" lon="129.424118">
        <ele>97.6</ele>
      </trkpt>
      <trkpt lat="36.558923" lon="129.424156">
        <ele>95.5</ele>
      </trkpt>
      <trkpt lat="36.558776" lon="129.424209">
        <ele>93.3</ele>
      </trkpt>
      <trkpt lat="36.558609" lon="129.424322">
        <ele>91.1</ele>
      </trkpt>
      <trkpt lat="36.558443" lon="129.424399">
        <ele>88.9</ele>
      </trkpt>
      <trkpt lat="36.558347" lon="129.424604">
        <ele>86.7</ele>
      </trkpt>
      <trkpt lat="36.558235" lon="129.424715">
        <ele>84.5</ele>
      </trkpt>
      <trkpt lat="36.558149" lon="129.42479">
        <ele>82.3</ele>
      </trkpt>
      <trkpt lat="36.557967" lon="129.425049">
        <ele>80.1</ele>
      </trkpt>
      <trkpt lat="36.557872" lon="129.425223">
        <ele>77.9</ele>
      </trkpt>
      <trkpt lat="36.557775" lon="129.425341">
        <ele>75.7</ele>
      </trkpt>
      <trkpt lat="36.557747" lon="129.42541">
        <ele>73.5</ele>
      </trkpt>
      <trkpt lat="36.557628" lon="129.425464">
        <ele>71.3</ele>
      </trkpt>
      <trkpt lat="36.557561" lon="129.425408">
        <ele>69.1</ele>
      </trkpt>
      <trkpt lat="36.557509" lon="129.425345">
        <ele>66.9</ele>
      </trkpt>
      <trkpt lat="36.557354" lon="129.425337">
        <ele>64.7</ele>
      </trkpt>
      <trkpt lat="36.557319" lon="129.425384">
        <ele>62.5</ele>
      </trkpt>
      <trkpt lat="36.557239" lon="129.425409">
        <ele>60.4</ele>
      </trkpt>
      <trkpt lat="36.557183" lon="129.425369">
        <ele>58.3</ele>
      </trkpt>
      <trkpt lat="36.557116" lon="129.425304">
        <ele>56.2</ele>
      </trkpt>
      <trkpt lat="36.557055" lon="129.425303">
        <ele>54.1</ele>
      </trkpt>
      <trkpt lat="36.556985" lon="129.425307">
        <ele>52.1</ele>
      </trkpt>
      <trkpt lat="36.556893" lon="129.425237">
        <ele>50.2</ele>
      </trkpt>
      <trkpt lat="36.556833" lon="129.425276">
        <ele>48.3</ele>
      </trkpt>
      <trkpt lat="36.556767" lon="129.425259">
        <ele>46.4</ele>
      </trkpt>
      <trkpt lat="36.556712" lon="129.425251">
        <ele>44.6</ele>
      </trkpt>
      <trkpt lat="36.55655" lon="129.42513">
        <ele>42.9</ele>
      </trkpt>
      <trkpt lat="36.55648" lon="129.425179">
        <ele>41.3</ele>
      </trkpt>
      <trkpt lat="36.556337" lon="129.425144">
        <ele>39.8</ele>
      </trkpt>
      <trkpt lat="36.556224" lon="129.425012">
        <ele>38.4</ele>
      </trkpt>
      <trkpt lat="36.556226" lon="129.424963">
        <ele>37.0</ele>
      </trkpt>
      <trkpt lat="36.55622" lon="129.424896">
        <ele>35.7</ele>
      </trkpt>
      <trkpt lat="36.556187" lon="129.424801">
        <ele>34.6</ele>
      </trkpt>
      <trkpt lat="36.556157" lon="129.424792">
        <ele>33.5</ele>
      </trkpt>
      <trkpt lat="36.555707" lon="129.424274">
        <ele>32.5</ele>
      </trkpt>
      <trkpt lat="36.555637" lon="129.424203">
        <ele>31.6</ele>
      </trkpt>
      <trkpt lat="36.55557" lon="129.424139">
        <ele>30.9</ele>
      </trkpt>
      <trkpt lat="36.555344" lon="129.423954">
        <ele>30.2</ele>
      </trkpt>
      <trkpt lat="36.55517" lon="129.423811">
        <ele>29.7</ele>
      </trkpt>
      <trkpt lat="36.555137" lon="129.423784">
        <ele>29.2</ele>
      </trkpt>
      <trkpt lat="36.555068" lon="129.423989">
        <ele>28.9</ele>
      </trkpt>
      <trkpt lat="36.554915" lon="129.424651">
        <ele>28.6</ele>
      </trkpt>
      <trkpt lat="36.554979" lon="129.424831">
        <ele>28.5</ele>
      </trkpt>
      <trkpt lat="36.555032" lon="129.425014">
        <ele>28.4</ele>
      </trkpt>
      <trkpt lat="36.55502" lon="129.425126">
        <ele>28.5</ele>
      </trkpt>
      <trkpt lat="36.555011" lon="129.425145">
        <ele>28.6</ele>
      </trkpt>
      <trkpt lat="36.554988" lon="129.425251">
        <ele>28.8</ele>
      </trkpt>
      <trkpt lat="36.554934" lon="129.425394">
        <ele>29.2</ele>
      </trkpt>
      <trkpt lat="36.554898" lon="129.425442">
        <ele>29.6</ele>
      </trkpt>
      <trkpt lat="36.554844" lon="129.425479">
        <ele>30.1</ele>
      </trkpt>
      <trkpt lat="36.554785" lon="129.425605">
        <ele>30.6</ele>
      </trkpt>
      <trkpt lat="36.554705" lon="129.425666">
        <ele>31.3</ele>
      </trkpt>
      <trkpt lat="36.554661" lon="129.425716">
        <ele>32.0</ele>
      </trkpt>
      <trkpt lat="36.554634" lon="129.425769">
        <ele>32.8</ele>
      </trkpt>
      <trkpt lat="36.554567" lon="129.42586">
        <ele>33.6</ele>
      </trkpt>
      <trkpt lat="36.554502" lon="129.425931">
        <ele>34.5</ele>
      </trkpt>
      <trkpt lat="36.554254" lon="129.426138">
        <ele>35.5</ele>
      </trkpt>
      <trkpt lat="36.554234" lon="129.426144">
        <ele>36.6</ele>
      </trkpt>
      <trkpt lat="36.554223401723775" lon="129.4260907173157">
        <ele>37.6</ele>
      </trkpt>
      <trkpt lat="36.554234" lon="129.426144">
        <ele>38.7</ele>
      </trkpt>
      <trkpt lat="36.554149" lon="129.426173">
        <ele>39.9</ele>
      </trkpt>
      <trkpt lat="36.553997" lon="129.426278">
        <ele>41.1</ele>
      </trkpt>
      <trkpt lat="36.553843" lon="129.426434">
        <ele>42.3</ele>
      </trkpt>
      <trkpt lat="36.553793" lon="129.426502">
        <ele>43.5</ele>
      </trkpt>
      <trkpt lat="36.553781" lon="129.426563">
        <ele>44.8</ele>
      </trkpt>
      <trkpt lat="36.553734" lon="129.426705">
        <ele>46.1</ele>
      </trkpt>
      <trkpt lat="36.553712" lon="129.426868">
        <ele>47.4</ele>
      </trkpt>
      <trkpt lat="36.55365" lon="129.427056">
        <ele>48.8</ele>
      </trkpt>
      <trkpt lat="36.553644" lon="129.427109">
        <ele>50.1</ele>
      </trkpt>
      <trkpt lat="36.553632" lon="129.427134">
        <ele>51.5</ele>
      </trkpt>
      <trkpt lat="36.553637" lon="129.427208">
        <ele>52.9</ele>
      </trkpt>
      <trkpt lat="36.553603" lon="129.427321">
        <ele>54.3</ele>
      </trkpt>
      <trkpt lat="36.55359" lon="129.427414">
        <ele>55.7</ele>
      </trkpt>
      <trkpt lat="36.55359" lon="129.427479">
        <ele>57.2</ele>
      </trkpt>
      <trkpt lat="36.553574" lon="129.42751">
        <ele>58.6</ele>
      </trkpt>
      <trkpt lat="36.553569" lon="129.427548">
        <ele>60.1</ele>
      </trkpt>
      <trkpt lat="36.553547" lon="129.427608">
        <ele>61.6</ele>
      </trkpt>
      <trkpt lat="36.553536" lon="129.427685">
        <ele>63.1</ele>
      </trkpt>
      <trkpt lat="36.553519" lon="129.42773">
        <ele>64.7</ele>
      </trkpt>
      <trkpt lat="36.553515" lon="129.427785">
        <ele>66.3</ele>
      </trkpt>
      <trkpt lat="36.553484" lon="129.427867">
        <ele>67.8</ele>
      </trkpt>
      <trkpt lat="36.553463" lon="129.427895">
        <ele>69.5</ele>
      </trkpt>
      <trkpt lat="36.553434" lon="129.427975">
        <ele>71.1</ele>
      </trkpt>
      <trkpt lat="36.553367" lon="129.428088">
        <ele>72.8</ele>
      </trkpt>
      <trkpt lat="36.553324" lon="129.428193">
        <ele>74.4</ele>
      </trkpt>
      <trkpt lat="36.55326" lon="129.428322">
        <ele>76.1</ele>
      </trkpt>
      <trkpt lat="36.553194" lon="129.428435">
        <ele>77.8</ele>
      </trkpt>
      <trkpt lat="36.553178" lon="129.428481">
        <ele>79.5</ele>
      </trkpt>
      <trkpt lat="36.553012" lon="129.428706">
        <ele>81.3</ele>
      </trkpt>
      <trkpt lat="36.552968" lon="129.428797">
        <ele>83.0</ele>
      </trkpt>
      <trkpt lat="36.552947" lon="129.428886">
        <ele>84.8</ele>
      </trkpt>
      <trkpt lat="36.552916" lon="129.428955">
        <ele>86.5</ele>
      </trkpt>
      <trkpt lat="36.552823" lon="129.429072">
        <ele>88.3</ele>
      </trkpt>
      <trkpt lat="36.552784" lon="129.429141">
        <ele>90.2</ele>
      </trkpt>
      <trkpt lat="36.552727" lon="129.429315">
        <ele>92.0</ele>
      </trkpt>
      <trkpt lat="36.552648" lon="129.429513">
        <ele>93.8</ele>
      </trkpt>
      <trkpt lat="36.552583" lon="129.429623">
        <ele>95.7</ele>
      </trkpt>
      <trkpt lat="36.552527" lon="129.429684">
        <ele>97.5</ele>
      </trkpt>
      <trkpt lat="36.552495" lon="129.429745">
        <ele>99.2</ele>
      </trkpt>
      <trkpt lat="36.552438" lon="129.429819">
        <ele>101.0</ele>
      </trkpt>
      <trkpt lat="36.552408" lon="129.429916">
        <ele>102.7</ele>
      </trkpt>
      <trkpt lat="36.552349" lon="129.430015">
        <ele>104.4</ele>
      </trkpt>
      <trkpt lat="36.552238" lon="129.430236">
        <ele>106.1</ele>
      </trkpt>
      <trkpt lat="36.552171" lon="129.430421">
        <ele>107.7</ele>
      </trkpt>
      <trkpt lat="36.552122" lon="129.430468">
        <ele>109.2</ele>
      </trkpt>
      <trkpt lat="36.552096" lon="129.430513">
        <ele>110.7</ele>
      </trkpt>
      <trkpt lat="36.552026" lon="129.430535">
        <ele>112.2</ele>
      </trkpt>
      <trkpt lat="36.552" lon="129.430557">
        <ele>113.6</ele>
      </trkpt>
      <trkpt lat="36.551993" lon="129.430595">
        <ele>114.9</ele>
      </trkpt>
      <trkpt lat="36.55198" lon="129.430604">
        <ele>116.2</ele>
      </trkpt>
      <trkpt lat="36.551961" lon="129.430645">
        <ele>117.4</ele>
      </trkpt>
      <trkpt lat="36.551894" lon="129.430716">
        <ele>118.6</ele>
      </trkpt>
      <trkpt lat="36.551845" lon="129.430798">
        <ele>119.7</ele>
      </trkpt>
      <trkpt lat="36.551842" lon="129.430816">
        <ele>120.7</ele>
      </trkpt>
      <trkpt lat="36.55179" lon="129.430889">
        <ele>121.7</ele>
      </trkpt>
      <trkpt lat="36.551752" lon="129.430968">
        <ele>122.6</ele>
      </trkpt>
      <trkpt lat="36.551724" lon="129.431007">
        <ele>123.5</ele>
      </trkpt>
      <trkpt lat="36.551675" lon="129.431044">
        <ele>124.2</ele>
      </trkpt>
      <trkpt lat="36.551592" lon="129.431051">
        <ele>125.0</ele>
      </trkpt>
      <trkpt lat="36.551561" lon="129.431065">
        <ele>125.6</ele>
      </trkpt>
      <trkpt lat="36.55142" lon="129.431238">
        <ele>126.3</ele>
      </trkpt>
      <trkpt lat="36.551183" lon="129.431394">
        <ele>126.8</ele>
      </trkpt>
      <trkpt lat="36.55104" lon="129.431538">
        <ele>127.3</ele>
      </trkpt>
      <trkpt lat="36.550821" lon="129.431705">
        <ele>127.8</ele>
      </trkpt>
      <trkpt lat="36.550798" lon="129.431736">
        <ele>128.1</ele>
      </trkpt>
      <trkpt lat="36.550726" lon="129.431878">
        <ele>128.5</ele>
      </trkpt>
      <trkpt lat="36.550644" lon="129.431999">
        <ele>128.7</ele>
      </trkpt>
      <trkpt lat="36.550567" lon="129.432069">
        <ele>129.0</ele>
      </trkpt>
      <trkpt lat="36.550479" lon="129.432179">
        <ele>129.2</ele>
      </trkpt>
      <trkpt lat="36.550452" lon="129.432195">
        <ele>129.4</ele>
      </trkpt>
      <trkpt lat="36.550272" lon="129.432202">
        <ele>129.6</ele>
      </trkpt>
      <trkpt lat="36.550158" lon="129.432233">
        <ele>129.8</ele>
      </trkpt>
      <trkpt lat="36.550095" lon="129.432232">
        <ele>130.0</ele>
      </trkpt>
      <trkpt lat="36.549951" lon="129.432166">
        <ele>130.1</ele>
      </trkpt>
      <trkpt lat="36.549863" lon="129.432113">
        <ele>130.3</ele>
      </trkpt>
      <trkpt lat="36.549733" lon="129.432063">
        <ele>130.5</ele>
      </trkpt>
      <trkpt lat="36.549705" lon="129.432043">
        <ele>130.7</ele>
      </trkpt>
      <trkpt lat="36.549667" lon="129.431994">
        <ele>130.9</ele>
      </trkpt>
      <trkpt lat="36.549597" lon="129.431937">
        <ele>131.2</ele>
      </trkpt>
      <trkpt lat="36.54944" lon="129.431868">
        <ele>131.4</ele>
      </trkpt>
      <trkpt lat="36.549321" lon="129.431749">
        <ele>131.7</ele>
      </trkpt>
      <trkpt lat="36.549287" lon="129.431686">
        <ele>132.0</ele>
      </trkpt>
      <trkpt lat="36.549229" lon="129.431602">
        <ele>132.3</ele>
      </trkpt>
      <trkpt lat="36.549144" lon="129.431507">
        <ele>132.6</ele>
      </trkpt>
      <trkpt lat="36.549109" lon="129.431481">
        <ele>132.9</ele>
      </trkpt>
      <trkpt lat="36.549008" lon="129.431434">
        <ele>133.2</ele>
      </trkpt>
      <trkpt lat="36.548975" lon="129.431397">
        <ele>133.6</ele>
      </trkpt>
      <trkpt lat="36.548918" lon="129.431304">
        <ele>134.0</ele>
      </trkpt>
      <trkpt lat="36.548833" lon="129.431077">
        <ele>134.4</ele>
      </trkpt>
      <trkpt lat="36.54879" lon="129.430994">
        <ele>134.8</ele>
      </trkpt>
      <trkpt lat="36.548787" lon="129.430953">
        <ele>135.2</ele>
      </trkpt>
      <trkpt lat="36.548756" lon="129.430837">
        <ele>135.7</ele>
      </trkpt>
      <trkpt lat="36.548763" lon="129.430775">
        <ele>136.1</ele>
      </trkpt>
      <trkpt lat="36.548727" lon="129.430727">
        <ele>136.6</ele>
      </trkpt>
      <trkpt lat="36.548699" lon="129.43071">
        <ele>137.1</ele>
      </trkpt>
      <trkpt lat="36.548551" lon="129.43066">
        <ele>137.5</ele>
      </trkpt>
      <trkpt lat="36.548479" lon="129.430652">
        <ele>138.1</ele>
      </trkpt>
      <trkpt lat="36.548375" lon="129.430665">
        <ele>138.6</ele>
      </trkpt>
      <trkpt lat="36.548324" lon="129.430655">
        <ele>139.1</ele>
      </trkpt>
      <trkpt lat="36.548269" lon="129.430684">
        <ele>139.6</ele>
      </trkpt>
      <trkpt lat="36.548222" lon="129.430742">
        <ele>140.2</ele>
      </trkpt>
      <trkpt lat="36.548212" lon="129.430745">
        <ele>140.7</ele>
      </trkpt>
      <trkpt lat="36.548184" lon="129.430731">
        <ele>141.2</ele>
      </trkpt>
      <trkpt lat="36.548161" lon="129.430735">
        <ele>141.7</ele>
      </trkpt>
      <trkpt lat="36.547973" lon="129.430843">
        <ele>142.2</ele>
      </trkpt>
      <trkpt lat="36.547882" lon="129.431005">
        <ele>142.7</ele>
      </trkpt>
      <trkpt lat="36.547871" lon="129.431066">
        <ele>143.2</ele>
      </trkpt>
      <trkpt lat="36.547826" lon="129.431164">
        <ele>143.7</ele>
      </trkpt>
      <trkpt lat="36.547824" lon="129.431192">
        <ele>144.2</ele>
      </trkpt>
      <trkpt lat="36.547778" lon="129.431347">
        <ele>144.7</ele>
      </trkpt>
      <trkpt lat="36.547729" lon="129.431402">
        <ele>145.2</ele>
      </trkpt>
      <trkpt lat="36.54765" lon="129.431448">
        <ele>145.7</ele>
      </trkpt>
      <trkpt lat="36.547588" lon="129.431471">
        <ele>146.1</ele>
      </trkpt>
      <trkpt lat="36.547538" lon="129.431507">
        <ele>146.6</ele>
      </trkpt>
      <trkpt lat="36.547492" lon="129.431553">
        <ele>147.0</ele>
      </trkpt>
      <trkpt lat="36.547401" lon="129.43167">
        <ele>147.4</ele>
      </trkpt>
      <trkpt lat="36.547381" lon="129.431708">
        <ele>147.9</ele>
      </trkpt>
      <trkpt lat="36.547342" lon="129.431853">
        <ele>148.3</ele>
      </trkpt>
      <trkpt lat="36.547278" lon="129.432004">
        <ele>148.7</ele>
      </trkpt>
      <trkpt lat="36.54724" lon="129.432065">
        <ele>149.0</ele>
      </trkpt>
      <trkpt lat="36.547228" lon="129.432118">
        <ele>149.4</ele>
      </trkpt>
      <trkpt lat="36.547156" lon="129.432225">
        <ele>149.7</ele>
      </trkpt>
      <trkpt lat="36.547108" lon="129.432282">
        <ele>150.1</ele>
      </trkpt>
      <trkpt lat="36.547027" lon="129.432443">
        <ele>150.4</ele>
      </trkpt>
      <trkpt lat="36.547009" lon="129.432509">
        <ele>150.7</ele>
      </trkpt>
      <trkpt lat="36.546941" lon="129.432591">
        <ele>151.0</ele>
      </trkpt>
      <trkpt lat="36.546878" lon="129.432623">
        <ele>151.2</ele>
      </trkpt>
      <trkpt lat="36.546791" lon="129.432636">
        <ele>151.5</ele>
      </trkpt>
      <trkpt lat="36.546734" lon="129.432632">
        <ele>151.7</ele>
      </trkpt>
      <trkpt lat="36.546643" lon="129.432645">
        <ele>151.9</ele>
      </trkpt>
      <trkpt lat="36.546403" lon="129.432652">
        <ele>152.1</ele>
      </trkpt>
      <trkpt lat="36.546198" lon="129.432669">
        <ele>152.2</ele>
      </trkpt>
      <trkpt lat="36.546162" lon="129.432679">
        <ele>152.3</ele>
      </trkpt>
      <trkpt lat="36.546128" lon="129.432648">
        <ele>152.5</ele>
      </trkpt>
      <trkpt lat="36.546088" lon="129.432661">
        <ele>152.6</ele>
      </trkpt>
      <trkpt lat="36.546069" lon="129.432653">
        <ele>152.7</ele>
      </trkpt>
      <trkpt lat="36.546055" lon="129.432635">
        <ele>152.8</ele>
      </trkpt>
      <trkpt lat="36.546045" lon="129.432637">
        <ele>152.8</ele>
      </trkpt>
      <trkpt lat="36.54599" lon="129.43267">
        <ele>152.9</ele>
      </trkpt>
      <trkpt lat="36.545982" lon="129.432728">
        <ele>153.0</ele>
      </trkpt>
      <trkpt lat="36.545965" lon="129.432733">
        <ele>153.1</ele>
      </trkpt>
      <trkpt lat="36.545963" lon="129.432756">
        <ele>153.1</ele>
      </trkpt>
      <trkpt lat="36.545889" lon="129.432809">
        <ele>153.2</ele>
      </trkpt>
      <trkpt lat="36.545857" lon="129.432818">
        <ele>153.2</ele>
      </trkpt>
      <trkpt lat="36.545835" lon="129.432846">
        <ele>153.3</ele>
      </trkpt>
      <trkpt lat="36.545736" lon="129.432885">
        <ele>153.3</ele>
      </trkpt>
      <trkpt lat="36.545701" lon="129.432911">
        <ele>153.4</ele>
      </trkpt>
      <trkpt lat="36.545561" lon="129.432977">
        <ele>153.4</ele>
      </trkpt>
      <trkpt lat="36.545449" lon="129.432988">
        <ele>153.5</ele>
      </trkpt>
      <trkpt lat="36.545392" lon="129.433023">
        <ele>153.6</ele>
      </trkpt>
      <trkpt lat="36.545362" lon="129.433024">
        <ele>153.7</ele>
      </trkpt>
      <trkpt lat="36.54529" lon="129.432952">
        <ele>153.8</ele>
      </trkpt>
      <trkpt lat="36.545246" lon="129.432888">
        <ele>153.8</ele>
      </trkpt>
      <trkpt lat="36.545172" lon="129.432815">
        <ele>153.9</ele>
      </trkpt>
      <trkpt lat="36.545149" lon="129.432757">
        <ele>154.0</ele>
      </trkpt>
      <trkpt lat="36.545003" lon="129.432682">
        <ele>154.1</ele>
      </trkpt>
      <trkpt lat="36.544911" lon="129.432583">
        <ele>154.2</ele>
      </trkpt>
      <trkpt lat="36.544808" lon="129.432499">
        <ele>154.3</ele>
      </trkpt>
      <trkpt lat="36.544753" lon="129.432431">
        <ele>154.4</ele>
      </trkpt>
      <trkpt lat="36.544698" lon="129.432379">
        <ele>154.5</ele>
      </trkpt>
      <trkpt lat="36.544589" lon="129.432358">
        <ele>154.6</ele>
      </trkpt>
      <trkpt lat="36.544459" lon="129.432314">
        <ele>154.8</ele>
      </trkpt>
      <trkpt lat="36.544392" lon="129.432263">
        <ele>154.9</ele>
      </trkpt>
      <trkpt lat="36.544324" lon="129.432179">
        <ele>155.1</ele>
      </trkpt>
      <trkpt lat="36.544127" lon="129.431886">
        <ele>155.3</ele>
      </trkpt>
      <trkpt lat="36.54403" lon="129.431581">
        <ele>155.4</ele>
      </trkpt>
      <trkpt lat="36.544015" lon="129.43155">
        <ele>155.6</ele>
      </trkpt>
      <trkpt lat="36.543982" lon="129.431515">
        <ele>155.7</ele>
      </trkpt>
      <trkpt lat="36.543963" lon="129.431452">
        <ele>155.8</ele>
      </trkpt>
      <trkpt lat="36.543904" lon="129.431427">
        <ele>155.9</ele>
      </trkpt>
      <trkpt lat="36.54384" lon="129.43145">
        <ele>156.0</ele>
      </trkpt>
      <trkpt lat="36.543809" lon="129.431445">
        <ele>156.1</ele>
      </trkpt>
      <trkpt lat="36.54381166713188" lon="129.43143367767337">
        <ele>156.1</ele>
      </trkpt>
      <trkpt lat="36.543809" lon="129.431445">
        <ele>156.1</ele>
      </trkpt>
      <trkpt lat="36.543789" lon="129.431442">
        <ele>156.1</ele>
      </trkpt>
      <trkpt lat="36.54368" lon="129.4314">
        <ele>156.1</ele>
      </trkpt>
      <trkpt lat="36.543566" lon="129.431642">
        <ele>156.0</ele>
      </trkpt>
      <trkpt lat="36.5435" lon="129.431737">
        <ele>155.9</ele>
      </trkpt>
      <trkpt lat="36.543376" lon="129.431835">
        <ele>155.8</ele>
      </trkpt>
      <trkpt lat="36.543303" lon="129.432012">
        <ele>155.6</ele>
      </trkpt>
      <trkpt lat="36.543246" lon="129.432095">
        <ele>155.4</ele>
      </trkpt>
      <trkpt lat="36.543101" lon="129.432424">
        <ele>155.2</ele>
      </trkpt>
      <trkpt lat="36.543002" lon="129.432824">
        <ele>155.0</ele>
      </trkpt>
      <trkpt lat="36.543008" lon="129.432902">
        <ele>154.7</ele>
      </trkpt>
      <trkpt lat="36.542996" lon="129.432973">
        <ele>154.4</ele>
      </trkpt>
      <trkpt lat="36.542959" lon="129.43304">
        <ele>154.1</ele>
      </trkpt>
      <trkpt lat="36.542884" lon="129.433074">
        <ele>153.8</ele>
      </trkpt>
      <trkpt lat="36.542787" lon="129.433101">
        <ele>153.5</ele>
      </trkpt>
      <trkpt lat="36.542678" lon="129.433234">
        <ele>153.1</ele>
      </trkpt>
      <trkpt lat="36.542611" lon="129.433277">
        <ele>152.8</ele>
      </trkpt>
      <trkpt lat="36.542532" lon="129.433369">
        <ele>152.4</ele>
      </trkpt>
      <trkpt lat="36.54251" lon="129.433385">
        <ele>152.0</ele>
      </trkpt>
      <trkpt lat="36.54248" lon="129.433431">
        <ele>151.5</ele>
      </trkpt>
      <trkpt lat="36.542443" lon="129.433446">
        <ele>151.1</ele>
      </trkpt>
      <trkpt lat="36.542379" lon="129.433468">
        <ele>150.6</ele>
      </trkpt>
      <trkpt lat="36.542356" lon="129.433496">
        <ele>150.1</ele>
      </trkpt>
      <trkpt lat="36.542317" lon="129.433505">
        <ele>149.6</ele>
      </trkpt>
      <trkpt lat="36.542257" lon="129.433539">
        <ele>149.1</ele>
      </trkpt>
      <trkpt lat="36.54221" lon="129.433533">
        <ele>148.5</ele>
      </trkpt>
      <trkpt lat="36.542109" lon="129.433576">
        <ele>148.0</ele>
      </trkpt>
      <trkpt lat="36.542049" lon="129.43357">
        <ele>147.5</ele>
      </trkpt>
      <trkpt lat="36.542017" lon="129.433594">
        <ele>147.0</ele>
      </trkpt>
      <trkpt lat="36.54195" lon="129.433601">
        <ele>146.5</ele>
      </trkpt>
      <trkpt lat="36.541908" lon="129.433628">
        <ele>146.1</ele>
      </trkpt>
      <trkpt lat="36.541849" lon="129.433625">
        <ele>145.6</ele>
      </trkpt>
      <trkpt lat="36.541799" lon="129.433634">
        <ele>145.1</ele>
      </trkpt>
      <trkpt lat="36.541722" lon="129.433628">
        <ele>144.7</ele>
      </trkpt>
      <trkpt lat="36.541507" lon="129.433486">
        <ele>144.2</ele>
      </trkpt>
      <trkpt lat="36.54143" lon="129.433416">
        <ele>143.8</ele>
      </trkpt>
      <trkpt lat="36.541309" lon="129.433351">
        <ele>143.4</ele>
      </trkpt>
      <trkpt lat="36.541235" lon="129.433258">
        <ele>143.0</ele>
      </trkpt>
      <trkpt lat="36.541141" lon="129.433218">
        <ele>142.6</ele>
      </trkpt>
      <trkpt lat="36.541057" lon="129.433132">
        <ele>142.3</ele>
      </trkpt>
      <trkpt lat="36.541002" lon="129.433098">
        <ele>142.0</ele>
      </trkpt>
      <trkpt lat="36.54095" lon="129.433098">
        <ele>141.6</ele>
      </trkpt>
      <trkpt lat="36.540906" lon="129.433071">
        <ele>141.3</ele>
      </trkpt>
      <trkpt lat="36.540822" lon="129.432954">
        <ele>141.0</ele>
      </trkpt>
      <trkpt lat="36.540755" lon="129.432889">
        <ele>140.8</ele>
      </trkpt>
      <trkpt lat="36.540663" lon="129.43291">
        <ele>140.5</ele>
      </trkpt>
      <trkpt lat="36.540594" lon="129.432861">
        <ele>140.2</ele>
      </trkpt>
      <trkpt lat="36.540477" lon="129.432799">
        <ele>140.0</ele>
      </trkpt>
      <trkpt lat="36.540302" lon="129.432756">
        <ele>139.8</ele>
      </trkpt>
      <trkpt lat="36.54023" lon="129.432707">
        <ele>139.6</ele>
      </trkpt>
      <trkpt lat="36.540151" lon="129.432704">
        <ele>139.4</ele>
      </trkpt>
      <trkpt lat="36.540044" lon="129.432738">
        <ele>139.2</ele>
      </trkpt>
      <trkpt lat="36.53999" lon="129.432765">
        <ele>139.0</ele>
      </trkpt>
      <trkpt lat="36.53996" lon="129.432759">
        <ele>138.8</ele>
      </trkpt>
      <trkpt lat="36.539898" lon="129.432704">
        <ele>138.7</ele>
      </trkpt>
      <trkpt lat="36.539725" lon="129.432605">
        <ele>138.5</ele>
      </trkpt>
      <trkpt lat="36.539653" lon="129.432608">
        <ele>138.4</ele>
      </trkpt>
      <trkpt lat="36.539589" lon="129.432639">
        <ele>138.3</ele>
      </trkpt>
      <trkpt lat="36.539495" lon="129.432732">
        <ele>138.1</ele>
      </trkpt>
      <trkpt lat="36.539435" lon="129.43283">
        <ele>138.0</ele>
      </trkpt>
      <trkpt lat="36.539351" lon="129.432898">
        <ele>137.8</ele>
      </trkpt>
      <trkpt lat="36.539312" lon="129.432944">
        <ele>137.7</ele>
      </trkpt>
      <trkpt lat="36.539195" lon="129.433049">
        <ele>137.6</ele>
      </trkpt>
      <trkpt lat="36.539168" lon="129.433095">
        <ele>137.4</ele>
      </trkpt>
      <trkpt lat="36.539052" lon="129.433132">
        <ele>137.3</ele>
      </trkpt>
      <trkpt lat="36.538992" lon="129.433129">
        <ele>137.2</ele>
      </trkpt>
      <trkpt lat="36.538809" lon="129.433249">
        <ele>137.0</ele>
      </trkpt>
      <trkpt lat="36.538611" lon="129.433468">
        <ele>136.9</ele>
      </trkpt>
      <trkpt lat="36.538542" lon="129.433514">
        <ele>136.7</ele>
      </trkpt>
      <trkpt lat="36.538509" lon="129.433573">
        <ele>136.6</ele>
      </trkpt>
      <trkpt lat="36.538378" lon="129.433634">
        <ele>136.4</ele>
      </trkpt>
      <trkpt lat="36.538321" lon="129.433693">
        <ele>136.3</ele>
      </trkpt>
      <trkpt lat="36.538282" lon="129.433711">
        <ele>136.2</ele>
      </trkpt>
      <trkpt lat="36.538017" lon="129.433973">
        <ele>136.1</ele>
      </trkpt>
      <trkpt lat="36.537849" lon="129.43406">
        <ele>136.0</ele>
      </trkpt>
      <trkpt lat="36.537777" lon="129.434081">
        <ele>136.0</ele>
      </trkpt>
      <trkpt lat="36.537665" lon="129.434223">
        <ele>135.9</ele>
      </trkpt>
      <trkpt lat="36.537616" lon="129.434303">
        <ele>135.9</ele>
      </trkpt>
      <trkpt lat="36.537539" lon="129.434451">
        <ele>135.8</ele>
      </trkpt>
      <trkpt lat="36.537445" lon="129.434556">
        <ele>135.8</ele>
      </trkpt>
      <trkpt lat="36.537412" lon="129.434584">
        <ele>135.8</ele>
      </trkpt>
      <trkpt lat="36.537394" lon="129.434566">
        <ele>135.8</ele>
      </trkpt>
      <trkpt lat="36.537363" lon="129.43451">
        <ele>135.9</ele>
      </trkpt>
      <trkpt lat="36.537347" lon="129.434447">
        <ele>135.9</ele>
      </trkpt>
      <trkpt lat="36.537304" lon="129.434355">
        <ele>136.0</ele>
      </trkpt>
      <trkpt lat="36.537284" lon="129.43434">
        <ele>136.1</ele>
      </trkpt>
      <trkpt lat="36.537174" lon="129.434324">
        <ele>136.1</ele>
      </trkpt>
      <trkpt lat="36.537136" lon="129.434328">
        <ele>136.3</ele>
      </trkpt>
      <trkpt lat="36.537108" lon="129.434343">
        <ele>136.4</ele>
      </trkpt>
      <trkpt lat="36.537076" lon="129.434374">
        <ele>136.6</ele>
      </trkpt>
      <trkpt lat="36.537051" lon="129.43438">
        <ele>136.7</ele>
      </trkpt>
      <trkpt lat="36.537042" lon="129.434275">
        <ele>136.9</ele>
      </trkpt>
      <trkpt lat="36.537069" lon="129.43415">
        <ele>137.1</ele>
      </trkpt>
      <trkpt lat="36.537098" lon="129.434106">
        <ele>137.4</ele>
      </trkpt>
      <trkpt lat="36.537106" lon="129.434043">
        <ele>137.6</ele>
      </trkpt>
      <trkpt lat="36.537086" lon="129.434046">
        <ele>137.9</ele>
      </trkpt>
      <trkpt lat="36.537037" lon="129.434081">
        <ele>138.3</ele>
      </trkpt>
      <trkpt lat="36.537009" lon="129.43413">
        <ele>138.6</ele>
      </trkpt>
      <trkpt lat="36.536984" lon="129.434273">
        <ele>139.0</ele>
      </trkpt>
      <trkpt lat="36.536976" lon="129.434373">
        <ele>139.4</ele>
      </trkpt>
      <trkpt lat="36.536977" lon="129.43446">
        <ele>139.8</ele>
      </trkpt>
      <trkpt lat="36.536991" lon="129.434537">
        <ele>140.2</ele>
      </trkpt>
      <trkpt lat="36.536923" lon="129.434546">
        <ele>140.7</ele>
      </trkpt>
      <trkpt lat="36.536837" lon="129.43432">
        <ele>141.2</ele>
      </trkpt>
      <trkpt lat="36.536795" lon="129.434375">
        <ele>141.7</ele>
      </trkpt>
      <trkpt lat="36.536769" lon="129.434531">
        <ele>142.2</ele>
      </trkpt>
      <trkpt lat="36.536747" lon="129.434593">
        <ele>142.8</ele>
      </trkpt>
      <trkpt lat="36.536747" lon="129.434645">
        <ele>143.3</ele>
      </trkpt>
      <trkpt lat="36.536759" lon="129.434734">
        <ele>143.9</ele>
      </trkpt>
      <trkpt lat="36.536737" lon="129.434845">
        <ele>144.5</ele>
      </trkpt>
      <trkpt lat="36.536747" lon="129.434965">
        <ele>145.1</ele>
      </trkpt>
      <trkpt lat="36.53665" lon="129.435046">
        <ele>145.7</ele>
      </trkpt>
      <trkpt lat="36.536618" lon="129.435098">
        <ele>146.3</ele>
      </trkpt>
      <trkpt lat="36.536576" lon="129.435119">
        <ele>146.9</ele>
      </trkpt>
      <trkpt lat="36.536519" lon="129.435113">
        <ele>147.5</ele>
      </trkpt>
      <trkpt lat="36.536418" lon="129.435046">
        <ele>148.1</ele>
      </trkpt>
      <trkpt lat="36.536247" lon="129.435005">
        <ele>148.7</ele>
      </trkpt>
      <trkpt lat="36.53608" lon="129.434952">
        <ele>149.3</ele>
      </trkpt>
      <trkpt lat="36.53604" lon="129.434928">
        <ele>149.9</ele>
      </trkpt>
      <trkpt lat="36.535981" lon="129.434811">
        <ele>150.5</ele>
      </trkpt>
      <trkpt lat="36.535899" lon="129.434684">
        <ele>151.0</ele>
      </trkpt>
      <trkpt lat="36.535731" lon="129.4345">
        <ele>151.6</ele>
      </trkpt>
      <trkpt lat="36.535649" lon="129.43437">
        <ele>152.1</ele>
      </trkpt>
      <trkpt lat="36.535632" lon="129.434167">
        <ele>152.6</ele>
      </trkpt>
      <trkpt lat="36.535602" lon="129.434034">
        <ele>153.0</ele>
      </trkpt>
      <trkpt lat="36.535597" lon="129.433936">
        <ele>153.4</ele>
      </trkpt>
      <trkpt lat="36.535575" lon="129.433849">
        <ele>153.8</ele>
      </trkpt>
      <trkpt lat="36.535468" lon="129.433677">
        <ele>154.2</ele>
      </trkpt>
      <trkpt lat="36.535382" lon="129.433301">
        <ele>154.6</ele>
      </trkpt>
      <trkpt lat="36.535278" lon="129.433095">
        <ele>154.9</ele>
      </trkpt>
      <trkpt lat="36.535256" lon="129.432879">
        <ele>155.1</ele>
      </trkpt>
      <trkpt lat="36.535228" lon="129.432827">
        <ele>155.3</ele>
      </trkpt>
      <trkpt lat="36.535165" lon="129.432759">
        <ele>155.4</ele>
      </trkpt>
      <trkpt lat="36.535133" lon="129.432698">
        <ele>155.5</ele>
      </trkpt>
      <trkpt lat="36.535108" lon="129.432615">
        <ele>155.6</ele>
      </trkpt>
      <trkpt lat="36.535135" lon="129.432534">
        <ele>155.6</ele>
      </trkpt>
      <trkpt lat="36.535138" lon="129.432476">
        <ele>155.5</ele>
      </trkpt>
      <trkpt lat="36.535192" lon="129.432339">
        <ele>155.3</ele>
      </trkpt>
      <trkpt lat="36.535172" lon="129.432268">
        <ele>155.1</ele>
      </trkpt>
      <trkpt lat="36.535097" lon="129.432262">
        <ele>154.9</ele>
      </trkpt>
      <trkpt lat="36.53496" lon="129.432319">
        <ele>154.6</ele>
      </trkpt>
      <trkpt lat="36.53492" lon="129.432368">
        <ele>154.3</ele>
      </trkpt>
      <trkpt lat="36.534692" lon="129.432479">
        <ele>153.9</ele>
      </trkpt>
      <trkpt lat="36.534526" lon="129.43263">
        <ele>153.5</ele>
      </trkpt>
      <trkpt lat="36.5344" lon="129.432784">
        <ele>153.0</ele>
      </trkpt>
      <trkpt lat="36.534301" lon="129.432886">
        <ele>152.5</ele>
      </trkpt>
      <trkpt lat="36.53416" lon="129.433071">
        <ele>151.9</ele>
      </trkpt>
      <trkpt lat="36.533984" lon="129.433366">
        <ele>151.3</ele>
      </trkpt>
      <trkpt lat="36.5339" lon="129.433548">
        <ele>150.6</ele>
      </trkpt>
      <trkpt lat="36.533831" lon="129.433739">
        <ele>149.9</ele>
      </trkpt>
      <trkpt lat="36.533794" lon="129.433902">
        <ele>149.2</ele>
      </trkpt>
      <trkpt lat="36.533761" lon="129.433979">
        <ele>148.5</ele>
      </trkpt>
      <trkpt lat="36.533719" lon="129.434041">
        <ele>147.7</ele>
      </trkpt>
      <trkpt lat="36.533618" lon="129.434124">
        <ele>146.9</ele>
      </trkpt>
      <trkpt lat="36.533462" lon="129.434278">
        <ele>146.1</ele>
      </trkpt>
      <trkpt lat="36.533323" lon="129.434358">
        <ele>145.2</ele>
      </trkpt>
      <trkpt lat="36.533204" lon="129.434442">
        <ele>144.3</ele>
      </trkpt>
      <trkpt lat="36.533053" lon="129.434599">
        <ele>143.4</ele>
      </trkpt>
      <trkpt lat="36.532989" lon="129.434645">
        <ele>142.5</ele>
      </trkpt>
      <trkpt lat="36.532873" lon="129.43466">
        <ele>141.5</ele>
      </trkpt>
      <trkpt lat="36.532722" lon="129.434691">
        <ele>140.6</ele>
      </trkpt>
      <trkpt lat="36.53265" lon="129.434741">
        <ele>139.6</ele>
      </trkpt>
      <trkpt lat="36.532556" lon="129.434737">
        <ele>138.6</ele>
      </trkpt>
      <trkpt lat="36.532417" lon="129.434778">
        <ele>137.6</ele>
      </trkpt>
      <trkpt lat="36.532375" lon="129.434833">
        <ele>136.7</ele>
      </trkpt>
      <trkpt lat="36.532308" lon="129.434882">
        <ele>135.7</ele>
      </trkpt>
      <trkpt lat="36.532254" lon="129.43491">
        <ele>134.7</ele>
      </trkpt>
      <trkpt lat="36.532197" lon="129.434898">
        <ele>133.7</ele>
      </trkpt>
      <trkpt lat="36.532151" lon="129.434842">
        <ele>132.7</ele>
      </trkpt>
      <trkpt lat="36.532046" lon="129.434756">
        <ele>131.6</ele>
      </trkpt>
      <trkpt lat="36.532045064116026" lon="129.43475961685184">
        <ele>130.6</ele>
      </trkpt>
      <trkpt lat="36.533062321013375" lon="129.4334399700165">
        <ele>129.5</ele>
      </trkpt>
      <trkpt lat="36.533072" lon="129.433454">
        <ele>128.4</ele>
      </trkpt>
      <trkpt lat="36.533118" lon="129.433406">
        <ele>127.3</ele>
      </trkpt>
      <trkpt lat="36.533157" lon="129.433325">
        <ele>126.2</ele>
      </trkpt>
      <trkpt lat="36.533195" lon="129.433212">
        <ele>125.2</ele>
      </trkpt>
      <trkpt lat="36.533221" lon="129.433093">
        <ele>124.0</ele>
      </trkpt>
      <trkpt lat="36.533271" lon="129.432699">
        <ele>123.0</ele>
      </trkpt>
      <trkpt lat="36.533293" lon="129.432593">
        <ele>121.9</ele>
      </trkpt>
      <trkpt lat="36.533327" lon="129.432494">
        <ele>120.8</ele>
      </trkpt>
      <trkpt lat="36.533372" lon="129.432398">
        <ele>119.7</ele>
      </trkpt>
      <trkpt lat="36.533417" lon="129.432322">
        <ele>118.7</ele>
      </trkpt>
      <trkpt lat="36.533631" lon="129.432033">
        <ele>117.6</ele>
      </trkpt>
      <trkpt lat="36.533679" lon="129.431942">
        <ele>116.5</ele>
      </trkpt>
      <trkpt lat="36.533718" lon="129.431836">
        <ele>115.5</ele>
      </trkpt>
      <trkpt lat="36.533745" lon="129.431725">
        <ele>114.4</ele>
      </trkpt>
      <trkpt lat="36.533791" lon="129.431422">
        <ele>113.3</ele>
      </trkpt>
      <trkpt lat="36.53381" lon="129.431334">
        <ele>112.2</ele>
      </trkpt>
      <trkpt lat="36.533835" lon="129.431265">
        <ele>111.1</ele>
      </trkpt>
      <trkpt lat="36.533871" lon="129.431217">
        <ele>110.0</ele>
      </trkpt>
      <trkpt lat="36.533938" lon="129.431152">
        <ele>108.9</ele>
      </trkpt>
      <trkpt lat="36.534038" lon="129.431096">
        <ele>107.8</ele>
      </trkpt>
      <trkpt lat="36.534074" lon="129.431058">
        <ele>106.7</ele>
      </trkpt>
      <trkpt lat="36.534098" lon="129.431005">
        <ele>105.6</ele>
      </trkpt>
      <trkpt lat="36.534103" lon="129.430942">
        <ele>104.5</ele>
      </trkpt>
      <trkpt lat="36.534101" lon="129.43083">
        <ele>103.4</ele>
      </trkpt>
      <trkpt lat="36.533988" lon="129.430668">
        <ele>102.2</ele>
      </trkpt>
      <trkpt lat="36.5339" lon="129.430556">
        <ele>101.1</ele>
      </trkpt>
      <trkpt lat="36.533875" lon="129.430499">
        <ele>99.9</ele>
      </trkpt>
      <trkpt lat="36.533868" lon="129.430452">
        <ele>98.8</ele>
      </trkpt>
      <trkpt lat="36.53385542727767" lon="129.43045735359195">
        <ele>97.7</ele>
      </trkpt>
      <trkpt lat="36.533868" lon="129.430452">
        <ele>96.5</ele>
      </trkpt>
      <trkpt lat="36.533865" lon="129.430431">
        <ele>95.4</ele>
      </trkpt>
      <trkpt lat="36.533875" lon="129.430342">
        <ele>94.3</ele>
      </trkpt>
      <trkpt lat="36.533929" lon="129.430109">
        <ele>93.1</ele>
      </trkpt>
      <trkpt lat="36.533952" lon="129.429971">
        <ele>92.0</ele>
      </trkpt>
      <trkpt lat="36.533996" lon="129.429618">
        <ele>90.8</ele>
      </trkpt>
      <trkpt lat="36.534019" lon="129.42948">
        <ele>89.6</ele>
      </trkpt>
      <trkpt lat="36.534047" lon="129.429358">
        <ele>88.5</ele>
      </trkpt>
      <trkpt lat="36.534079" lon="129.429251">
        <ele>87.3</ele>
      </trkpt>
      <trkpt lat="36.534226" lon="129.428909">
        <ele>86.1</ele>
      </trkpt>
      <trkpt lat="36.534278" lon="129.428774">
        <ele>84.9</ele>
      </trkpt>
      <trkpt lat="36.534385" lon="129.428453">
        <ele>83.7</ele>
      </trkpt>
      <trkpt lat="36.534473" lon="129.428239">
        <ele>82.5</ele>
      </trkpt>
      <trkpt lat="36.53464" lon="129.427933">
        <ele>81.3</ele>
      </trkpt>
      <trkpt lat="36.534785" lon="129.427708">
        <ele>80.1</ele>
      </trkpt>
      <trkpt lat="36.535141" lon="129.427126">
        <ele>79.0</ele>
      </trkpt>
      <trkpt lat="36.535182" lon="129.427041">
        <ele>77.8</ele>
      </trkpt>
      <trkpt lat="36.535215" lon="129.426951">
        <ele>76.7</ele>
      </trkpt>
      <trkpt lat="36.535274" lon="129.426757">
        <ele>75.5</ele>
      </trkpt>
      <trkpt lat="36.535309" lon="129.4267">
        <ele>74.4</ele>
      </trkpt>
      <trkpt lat="36.535356" lon="129.426653">
        <ele>73.3</ele>
      </trkpt>
      <trkpt lat="36.535422" lon="129.426614">
        <ele>72.2</ele>
      </trkpt>
      <trkpt lat="36.535493" lon="129.426589">
        <ele>71.1</ele>
      </trkpt>
      <trkpt lat="36.535594" lon="129.426571">
        <ele>70.0</ele>
      </trkpt>
      <trkpt lat="36.535952" lon="129.426528">
        <ele>68.9</ele>
      </trkpt>
      <trkpt lat="36.536029" lon="129.42651">
        <ele>67.8</ele>
      </trkpt>
      <trkpt lat="36.536176" lon="129.426447">
        <ele>66.7</ele>
      </trkpt>
      <trkpt lat="36.53633" lon="129.42633">
        <ele>65.7</ele>
      </trkpt>
      <trkpt lat="36.536535" lon="129.426128">
        <ele>64.6</ele>
      </trkpt>
      <trkpt lat="36.536596" lon="129.426083">
        <ele>63.6</ele>
      </trkpt>
      <trkpt lat="36.536837" lon="129.425829">
        <ele>62.5</ele>
      </trkpt>
      <trkpt lat="36.536994" lon="129.425694">
        <ele>61.5</ele>
      </trkpt>
      <trkpt lat="36.537043" lon="129.425639">
        <ele>60.5</ele>
      </trkpt>
      <trkpt lat="36.537139" lon="129.425538">
        <ele>59.5</ele>
      </trkpt>
      <trkpt lat="36.537191" lon="129.425483">
        <ele>58.5</ele>
      </trkpt>
      <trkpt lat="36.537297" lon="129.425346">
        <ele>57.5</ele>
      </trkpt>
      <trkpt lat="36.537438" lon="129.425143">
        <ele>56.5</ele>
      </trkpt>
      <trkpt lat="36.53744154536763" lon="129.42514657974246">
        <ele>55.5</ele>
      </trkpt>
      <trkpt lat="36.537438" lon="129.425143">
        <ele>54.5</ele>
      </trkpt>
      <trkpt lat="36.537463" lon="129.425109">
        <ele>53.5</ele>
      </trkpt>
      <trkpt lat="36.537774" lon="129.424691">
        <ele>52.6</ele>
      </trkpt>
      <trkpt lat="36.53782" lon="129.42462">
        <ele>51.6</ele>
      </trkpt>
      <trkpt lat="36.537855" lon="129.424546">
        <ele>50.6</ele>
      </trkpt>
      <trkpt lat="36.537885" lon="129.42445">
        <ele>49.6</ele>
      </trkpt>
      <trkpt lat="36.538134" lon="129.423482">
        <ele>48.5</ele>
      </trkpt>
      <trkpt lat="36.538178" lon="129.423338">
        <ele>47.5</ele>
      </trkpt>
      <trkpt lat="36.538236" lon="129.423185">
        <ele>46.4</ele>
      </trkpt>
      <trkpt lat="36.538307" lon="129.423032">
        <ele>45.4</ele>
      </trkpt>
      <trkpt lat="36.53848" lon="129.422703">
        <ele>44.3</ele>
      </trkpt>
      <trkpt lat="36.538673" lon="129.42237">
        <ele>43.2</ele>
      </trkpt>
      <trkpt lat="36.538778" lon="129.422176">
        <ele>42.1</ele>
      </trkpt>
      <trkpt lat="36.538858" lon="129.422013">
        <ele>41.0</ele>
      </trkpt>
      <trkpt lat="36.538934" lon="129.421837">
        <ele>39.9</ele>
      </trkpt>
      <trkpt lat="36.539009" lon="129.421628">
        <ele>38.7</ele>
      </trkpt>
      <trkpt lat="36.539083" lon="129.421397">
        <ele>37.6</ele>
      </trkpt>
      <trkpt lat="36.539219" lon="129.420905">
        <ele>36.5</ele>
      </trkpt>
      <trkpt lat="36.539291" lon="129.420682">
        <ele>35.3</ele>
      </trkpt>
      <trkpt lat="36.539539" lon="129.420019">
        <ele>34.2</ele>
      </trkpt>
      <trkpt lat="36.539617" lon="129.419825">
        <ele>33.1</ele>
      </trkpt>
      <trkpt lat="36.539877" lon="129.419235">
        <ele>32.0</ele>
      </trkpt>
      <trkpt lat="36.540368" lon="129.418041">
        <ele>30.9</ele>
      </trkpt>
      <trkpt lat="36.5403896236582" lon="129.41805481910708">
        <ele>29.8</ele>
      </trkpt>
      <trkpt lat="36.540368" lon="129.418041">
        <ele>28.8</ele>
      </trkpt>
      <trkpt lat="36.540411" lon="129.417937">
        <ele>27.8</ele>
      </trkpt>
      <trkpt lat="36.540594" lon="129.417459">
        <ele>26.7</ele>
      </trkpt>
      <trkpt lat="36.540688" lon="129.417192">
        <ele>25.8</ele>
      </trkpt>
      <trkpt lat="36.541026" lon="129.416176">
        <ele>24.8</ele>
      </trkpt>
      <trkpt lat="36.54106" lon="129.416084">
        <ele>23.9</ele>
      </trkpt>
      <trkpt lat="36.54123" lon="129.415534">
        <ele>23.0</ele>
      </trkpt>
      <trkpt lat="36.541233" lon="129.415534">
        <ele>22.2</ele>
      </trkpt>
      <trkpt lat="36.541234373910775" lon="129.41553354263309">
        <ele>21.4</ele>
      </trkpt>
      <trkpt lat="36.541233" lon="129.415534">
        <ele>20.7</ele>
      </trkpt>
      <trkpt lat="36.54144" lon="129.415598">
        <ele>20.0</ele>
      </trkpt>
      <trkpt lat="36.541713" lon="129.415665">
        <ele>19.3</ele>
      </trkpt>
      <trkpt lat="36.541783" lon="129.415664">
        <ele>18.7</ele>
      </trkpt>
      <trkpt lat="36.541902" lon="129.415685">
        <ele>18.2</ele>
      </trkpt>
      <trkpt lat="36.542266" lon="129.415827">
        <ele>17.7</ele>
      </trkpt>
      <trkpt lat="36.542845" lon="129.416084">
        <ele>17.3</ele>
      </trkpt>
      <trkpt lat="36.54293" lon="129.416128">
        <ele>16.9</ele>
      </trkpt>
      <trkpt lat="36.543129" lon="129.416262">
        <ele>16.6</ele>
      </trkpt>
      <trkpt lat="36.543236" lon="129.416308">
        <ele>16.3</ele>
      </trkpt>
      <trkpt lat="36.543288" lon="129.416318">
        <ele>16.1</ele>
      </trkpt>
      <trkpt lat="36.543419" lon="129.416311">
        <ele>15.9</ele>
      </trkpt>
      <trkpt lat="36.543568" lon="129.416345">
        <ele>15.8</ele>
      </trkpt>
      <trkpt lat="36.543632" lon="129.416379">
        <ele>15.8</ele>
      </trkpt>
      <trkpt lat="36.543704" lon="129.416435">
        <ele>15.8</ele>
      </trkpt>
      <trkpt lat="36.543831" lon="129.416551">
        <ele>15.8</ele>
      </trkpt>
      <trkpt lat="36.543837525825836" lon="129.41654205322268">
        <ele>15.9</ele>
      </trkpt>
      <trkpt lat="36.543831" lon="129.416551">
        <ele>16.1</ele>
      </trkpt>
      <trkpt lat="36.543851" lon="129.416569">
        <ele>16.3</ele>
      </trkpt>
      <trkpt lat="36.543734" lon="129.416898">
        <ele>16.6</ele>
      </trkpt>
      <trkpt lat="36.543672" lon="129.417132">
        <ele>16.9</ele>
      </trkpt>
      <trkpt lat="36.543646" lon="129.417167">
        <ele>17.3</ele>
      </trkpt>
      <trkpt lat="36.543598" lon="129.417192">
        <ele>17.7</ele>
      </trkpt>
      <trkpt lat="36.543497" lon="129.417221">
        <ele>18.1</ele>
      </trkpt>
      <trkpt lat="36.54345" lon="129.417235">
        <ele>18.6</ele>
      </trkpt>
      <trkpt lat="36.543344" lon="129.417323">
        <ele>19.1</ele>
      </trkpt>
      <trkpt lat="36.543312" lon="129.417393">
        <ele>19.7</ele>
      </trkpt>
      <trkpt lat="36.543274" lon="129.417522">
        <ele>20.3</ele>
      </trkpt>
      <trkpt lat="36.54327" lon="129.417367">
        <ele>20.9</ele>
      </trkpt>
      <trkpt lat="36.54327725218702" lon="129.41736817359927">
        <ele>21.5</ele>
      </trkpt>
      <trkpt lat="36.54327" lon="129.417367">
        <ele>22.1</ele>
      </trkpt>
      <trkpt lat="36.543268" lon="129.417242">
        <ele>22.8</ele>
      </trkpt>
      <trkpt lat="36.543242" lon="129.417178">
        <ele>23.6</ele>
      </trkpt>
      <trkpt lat="36.543191" lon="129.417132">
        <ele>24.3</ele>
      </trkpt>
      <trkpt lat="36.542924" lon="129.417012">
        <ele>25.1</ele>
      </trkpt>
      <trkpt lat="36.542546" lon="129.416948">
        <ele>25.9</ele>
      </trkpt>
      <trkpt lat="36.542375" lon="129.416902">
        <ele>26.8</ele>
      </trkpt>
      <trkpt lat="36.542304" lon="129.416902">
        <ele>27.7</ele>
      </trkpt>
      <trkpt lat="36.542215" lon="129.416965">
        <ele>28.6</ele>
      </trkpt>
      <trkpt lat="36.5422" lon="129.416991">
        <ele>29.6</ele>
      </trkpt>
      <trkpt lat="36.542213" lon="129.417014">
        <ele>30.6</ele>
      </trkpt>
      <trkpt lat="36.542247" lon="129.417017">
        <ele>31.6</ele>
      </trkpt>
      <trkpt lat="36.542277" lon="129.417042">
        <ele>32.6</ele>
      </trkpt>
      <trkpt lat="36.542314" lon="129.417138">
        <ele>33.7</ele>
      </trkpt>
      <trkpt lat="36.54232" lon="129.417196">
        <ele>34.8</ele>
      </trkpt>
      <trkpt lat="36.54234" lon="129.417259">
        <ele>35.9</ele>
      </trkpt>
      <trkpt lat="36.542337" lon="129.417332">
        <ele>37.1</ele>
      </trkpt>
      <trkpt lat="36.542353" lon="129.417444">
        <ele>38.3</ele>
      </trkpt>
      <trkpt lat="36.542335" lon="129.417526">
        <ele>39.5</ele>
      </trkpt>
      <trkpt lat="36.542335" lon="129.417582">
        <ele>40.7</ele>
      </trkpt>
      <trkpt lat="36.542346327008936" lon="129.41758275032046">
        <ele>41.9</ele>
      </trkpt>
      <trkpt lat="36.542335" lon="129.417582">
        <ele>43.1</ele>
      </trkpt>
      <trkpt lat="36.542337" lon="129.417668">
        <ele>44.4</ele>
      </trkpt>
      <trkpt lat="36.542331" lon="129.417759">
        <ele>45.7</ele>
      </trkpt>
      <trkpt lat="36.542297" lon="129.417927">
        <ele>47.0</ele>
      </trkpt>
      <trkpt lat="36.542183" lon="129.418174">
        <ele>48.4</ele>
      </trkpt>
      <trkpt lat="36.542148" lon="129.418265">
        <ele>49.8</ele>
      </trkpt>
      <trkpt lat="36.542098" lon="129.418465">
        <ele>51.2</ele>
      </trkpt>
      <trkpt lat="36.542076" lon="129.418654">
        <ele>52.6</ele>
      </trkpt>
      <trkpt lat="36.542094" lon="129.418889">
        <ele>54.1</ele>
      </trkpt>
      <trkpt lat="36.542094" lon="129.419013">
        <ele>55.6</ele>
      </trkpt>
      <trkpt lat="36.542174" lon="129.419211">
        <ele>57.2</ele>
      </trkpt>
      <trkpt lat="36.542218" lon="129.419449">
        <ele>58.7</ele>
      </trkpt>
      <trkpt lat="36.542227" lon="129.419564">
        <ele>60.3</ele>
      </trkpt>
      <trkpt lat="36.542285" lon="129.419772">
        <ele>61.9</ele>
      </trkpt>
      <trkpt lat="36.542306" lon="129.419925">
        <ele>63.4</ele>
      </trkpt>
      <trkpt lat="36.542288" lon="129.420096">
        <ele>65.0</ele>
      </trkpt>
      <trkpt lat="36.54231" lon="129.420157">
        <ele>66.6</ele>
      </trkpt>
      <trkpt lat="36.542329" lon="129.420297">
        <ele>68.2</ele>
      </trkpt>
      <trkpt lat="36.542333" lon="129.420458">
        <ele>69.8</ele>
      </trkpt>
      <trkpt lat="36.542284" lon="129.421019">
        <ele>71.3</ele>
      </trkpt>
      <trkpt lat="36.542254" lon="129.421203">
        <ele>72.9</ele>
      </trkpt>
      <trkpt lat="36.542252" lon="129.421276">
        <ele>74.5</ele>
      </trkpt>
      <trkpt lat="36.542262" lon="129.421399">
        <ele>76.1</ele>
      </trkpt>
      <trkpt lat="36.54222" lon="129.421708">
        <ele>77.7</ele>
      </trkpt>
      <trkpt lat="36.54219" lon="129.421831">
        <ele>79.3</ele>
      </trkpt>
      <trkpt lat="36.542147" lon="129.421936">
        <ele>80.9</ele>
      </trkpt>
      <trkpt lat="36.542091" lon="129.422048">
        <ele>82.5</ele>
      </trkpt>
      <trkpt lat="36.54204" lon="129.422086">
        <ele>84.0</ele>
      </trkpt>
      <trkpt lat="36.542018" lon="129.422177">
        <ele>85.6</ele>
      </trkpt>
      <trkpt lat="36.541984" lon="129.422212">
        <ele>87.1</ele>
      </trkpt>
      <trkpt lat="36.541907" lon="129.422231">
        <ele>88.7</ele>
      </trkpt>
      <trkpt lat="36.541856" lon="129.422256">
        <ele>90.2</ele>
      </trkpt>
      <trkpt lat="36.541776" lon="129.422368">
        <ele>91.7</ele>
      </trkpt>
      <trkpt lat="36.54174" lon="129.422407">
        <ele>93.2</ele>
      </trkpt>
      <trkpt lat="36.541733" lon="129.422507">
        <ele>94.6</ele>
      </trkpt>
      <trkpt lat="36.541716" lon="129.422575">
        <ele>96.0</ele>
      </trkpt>
      <trkpt lat="36.541597" lon="129.422755">
        <ele>97.5</ele>
      </trkpt>
      <trkpt lat="36.541569" lon="129.422853">
        <ele>98.8</ele>
      </trkpt>
      <trkpt lat="36.541571" lon="129.423094">
        <ele>100.2</ele>
      </trkpt>
      <trkpt lat="36.541549" lon="129.423192">
        <ele>101.5</ele>
      </trkpt>
      <trkpt lat="36.541507" lon="129.423269">
        <ele>102.8</ele>
      </trkpt>
      <trkpt lat="36.541444" lon="129.423348">
        <ele>104.0</ele>
      </trkpt>
      <trkpt lat="36.54141" lon="129.423432">
        <ele>105.3</ele>
      </trkpt>
      <trkpt lat="36.54140677078748" lon="129.42342996597293">
        <ele>106.5</ele>
      </trkpt>
      <trkpt lat="36.54141" lon="129.423432">
        <ele>107.6</ele>
      </trkpt>
      <trkpt lat="36.541382" lon="129.423505">
        <ele>108.8</ele>
      </trkpt>
      <trkpt lat="36.541378" lon="129.423563">
        <ele>109.9</ele>
      </trkpt>
      <trkpt lat="36.541434" lon="129.423874">
        <ele>111.0</ele>
      </trkpt>
      <trkpt lat="36.541438" lon="129.423923">
        <ele>112.1</ele>
      </trkpt>
      <trkpt lat="36.541494" lon="129.424067">
        <ele>113.2</ele>
      </trkpt>
      <trkpt lat="36.541492" lon="129.424163">
        <ele>114.2</ele>
      </trkpt>
      <trkpt lat="36.541502" lon="129.424196">
        <ele>115.2</ele>
      </trkpt>
      <trkpt lat="36.541491" lon="129.424345">
        <ele>116.2</ele>
      </trkpt>
      <trkpt lat="36.541522" lon="129.424439">
        <ele>117.2</ele>
      </trkpt>
      <trkpt lat="36.54152" lon="129.424516">
        <ele>118.1</ele>
      </trkpt>
      <trkpt lat="36.541504" lon="129.424663">
        <ele>119.0</ele>
      </trkpt>
      <trkpt lat="36.54147" lon="129.424731">
        <ele>119.9</ele>
      </trkpt>
      <trkpt lat="36.541429" lon="129.424784">
        <ele>120.8</ele>
      </trkpt>
      <trkpt lat="36.541402" lon="129.424857">
        <ele>121.6</ele>
      </trkpt>
      <trkpt lat="36.541393" lon="129.424984">
        <ele>122.5</ele>
      </trkpt>
      <trkpt lat="36.541265" lon="129.425441">
        <ele>123.3</ele>
      </trkpt>
      <trkpt lat="36.541175" lon="129.425588">
        <ele>124.2</ele>
      </trkpt>
      <trkpt lat="36.541136" lon="129.425649">
        <ele>125.0</ele>
      </trkpt>
      <trkpt lat="36.541074" lon="129.4257">
        <ele>125.9</ele>
      </trkpt>
      <trkpt lat="36.540982" lon="129.425864">
        <ele>126.7</ele>
      </trkpt>
      <trkpt lat="36.540941" lon="129.425925">
        <ele>127.5</ele>
      </trkpt>
      <trkpt lat="36.540875" lon="129.425985">
        <ele>128.3</ele>
      </trkpt>
      <trkpt lat="36.540787" lon="129.426039">
        <ele>129.1</ele>
      </trkpt>
      <trkpt lat="36.540641" lon="129.4261">
        <ele>129.9</ele>
      </trkpt>
      <trkpt lat="36.540579" lon="129.426137">
        <ele>130.6</ele>
      </trkpt>
      <trkpt lat="36.540301" lon="129.426422">
        <ele>131.4</ele>
      </trkpt>
      <trkpt lat="36.540192" lon="129.42649">
        <ele>132.2</ele>
      </trkpt>
      <trkpt lat="36.540155" lon="129.426529">
        <ele>132.9</ele>
      </trkpt>
      <trkpt lat="36.54013" lon="129.426604">
        <ele>133.6</ele>
      </trkpt>
      <trkpt lat="36.540068" lon="129.426672">
        <ele>134.4</ele>
      </trkpt>
      <trkpt lat="36.540039" lon="129.426755">
        <ele>135.1</ele>
      </trkpt>
      <trkpt lat="36.540024" lon="129.426837">
        <ele>135.8</ele>
      </trkpt>
      <trkpt lat="36.540024" lon="129.426991">
        <ele>136.5</ele>
      </trkpt>
      <trkpt lat="36.54023" lon="129.427469">
        <ele>137.2</ele>
      </trkpt>
      <trkpt lat="36.540279" lon="129.427549">
        <ele>137.9</ele>
      </trkpt>
      <trkpt lat="36.540339" lon="129.427626">
        <ele>138.6</ele>
      </trkpt>
      <trkpt lat="36.540351" lon="129.427719">
        <ele>139.3</ele>
      </trkpt>
      <trkpt lat="36.540418" lon="129.427787">
        <ele>140.0</ele>
      </trkpt>
      <trkpt lat="36.540512" lon="129.427842">
        <ele>140.7</ele>
      </trkpt>
      <trkpt lat="36.540656" lon="129.427968">
        <ele>141.4</ele>
      </trkpt>
      <trkpt lat="36.540705" lon="129.428101">
        <ele>142.1</ele>
      </trkpt>
      <trkpt lat="36.540742" lon="129.428119">
        <ele>142.8</ele>
      </trkpt>
      <trkpt lat="36.54098" lon="129.428082">
        <ele>143.6</ele>
      </trkpt>
      <trkpt lat="36.541032" lon="129.428089">
        <ele>144.2</ele>
      </trkpt>
      <trkpt lat="36.541168" lon="129.428067">
        <ele>144.9</ele>
      </trkpt>
      <trkpt lat="36.541373" lon="129.428126">
        <ele>145.6</ele>
      </trkpt>
      <trkpt lat="36.541372291442876" lon="129.42813992500308">
        <ele>146.2</ele>
      </trkpt>
      <trkpt lat="36.541373" lon="129.428126">
        <ele>146.9</ele>
      </trkpt>
      <trkpt lat="36.541433" lon="129.428144">
        <ele>147.5</ele>
      </trkpt>
      <trkpt lat="36.54151" lon="129.42823">
        <ele>148.1</ele>
      </trkpt>
      <trkpt lat="36.541661" lon="129.42832">
        <ele>148.7</ele>
      </trkpt>
      <trkpt lat="36.541752" lon="129.428412">
        <ele>149.3</ele>
      </trkpt>
      <trkpt lat="36.541829" lon="129.428511">
        <ele>149.8</ele>
      </trkpt>
      <trkpt lat="36.541879" lon="129.428541">
        <ele>150.3</ele>
      </trkpt>
      <trkpt lat="36.542" lon="129.428585">
        <ele>150.8</ele>
      </trkpt>
      <trkpt lat="36.542299" lon="129.428736">
        <ele>151.3</ele>
      </trkpt>
      <trkpt lat="36.542379" lon="129.428736">
        <ele>151.8</ele>
      </trkpt>
      <trkpt lat="36.54244" lon="129.428723">
        <ele>152.3</ele>
      </trkpt>
      <trkpt lat="36.54251" lon="129.42868">
        <ele>152.8</ele>
      </trkpt>
      <trkpt lat="36.542604" lon="129.428711">
        <ele>153.2</ele>
      </trkpt>
      <trkpt lat="36.542718" lon="129.428776">
        <ele>153.7</ele>
      </trkpt>
      <trkpt lat="36.542854" lon="129.428868">
        <ele>154.1</ele>
      </trkpt>
      <trkpt lat="36.542928" lon="129.42888">
        <ele>154.5</ele>
      </trkpt>
      <trkpt lat="36.543007" lon="129.428871">
        <ele>154.9</ele>
      </trkpt>
      <trkpt lat="36.543074" lon="129.428822">
        <ele>155.3</ele>
      </trkpt>
      <trkpt lat="36.543213" lon="129.428692">
        <ele>155.7</ele>
      </trkpt>
      <trkpt lat="36.54329" lon="129.428655">
        <ele>156.1</ele>
      </trkpt>
      <trkpt lat="36.543406" lon="129.428631">
        <ele>156.4</ele>
      </trkpt>
      <trkpt lat="36.543725" lon="129.428618">
        <ele>156.8</ele>
      </trkpt>
      <trkpt lat="36.543802" lon="129.428637">
        <ele>157.1</ele>
      </trkpt>
      <trkpt lat="36.543898" lon="129.428674">
        <ele>157.3</ele>
      </trkpt>
      <trkpt lat="36.544002" lon="129.428748">
        <ele>157.6</ele>
      </trkpt>
      <trkpt lat="36.544062" lon="129.428834">
        <ele>157.8</ele>
      </trkpt>
      <trkpt lat="36.544101" lon="129.428936">
        <ele>158.0</ele>
      </trkpt>
      <trkpt lat="36.544109" lon="129.429161">
        <ele>158.2</ele>
      </trkpt>
      <trkpt lat="36.544096" lon="129.429275">
        <ele>158.3</ele>
      </trkpt>
      <trkpt lat="36.544092" lon="129.429413">
        <ele>158.4</ele>
      </trkpt>
      <trkpt lat="36.544059" lon="129.42954">
        <ele>158.4</ele>
      </trkpt>
      <trkpt lat="36.54394" lon="129.429811">
        <ele>158.5</ele>
      </trkpt>
      <trkpt lat="36.543911" lon="129.429925">
        <ele>158.5</ele>
      </trkpt>
      <trkpt lat="36.543859" lon="129.430063">
        <ele>158.5</ele>
      </trkpt>
      <trkpt lat="36.543824" lon="129.430147">
        <ele>158.5</ele>
      </trkpt>
      <trkpt lat="36.543767" lon="129.430224">
        <ele>158.5</ele>
      </trkpt>
      <trkpt lat="36.543715" lon="129.430325">
        <ele>158.5</ele>
      </trkpt>
      <trkpt lat="36.543678" lon="129.430473">
        <ele>158.5</ele>
      </trkpt>
      <trkpt lat="36.543655" lon="129.430739">
        <ele>158.4</ele>
      </trkpt>
      <trkpt lat="36.543630656032015" lon="129.4307363033295">
        <ele>158.4</ele>
      </trkpt>
      <trkpt lat="36.543655" lon="129.430739">
        <ele>158.3</ele>
      </trkpt>
      <trkpt lat="36.543653" lon="129.430775">
        <ele>158.2</ele>
      </trkpt>
      <trkpt lat="36.543648" lon="129.431052">
        <ele>158.1</ele>
      </trkpt>
      <trkpt lat="36.543681" lon="129.431117">
        <ele>158.0</ele>
      </trkpt>
      <trkpt lat="36.543711" lon="129.431218">
        <ele>157.9</ele>
      </trkpt>
      <trkpt lat="36.54371" lon="129.431333">
        <ele>157.7</ele>
      </trkpt>
      <trkpt lat="36.54368" lon="129.4314">
        <ele>157.6</ele>
      </trkpt>
      <trkpt lat="36.543789" lon="129.431442">
        <ele>157.4</ele>
      </trkpt>
      <trkpt lat="36.54384" lon="129.43145">
        <ele>157.2</ele>
      </trkpt>
      <trkpt lat="36.543904" lon="129.431427">
        <ele>157.0</ele>
      </trkpt>
      <trkpt lat="36.543963" lon="129.431452">
        <ele>156.8</ele>
      </trkpt>
      <trkpt lat="36.543982" lon="129.431515">
        <ele>156.5</ele>
      </trkpt>
      <trkpt lat="36.544015" lon="129.43155">
        <ele>156.3</ele>
      </trkpt>
      <trkpt lat="36.54403" lon="129.431581">
        <ele>156.0</ele>
      </trkpt>
      <trkpt lat="36.544127" lon="129.431886">
        <ele>155.8</ele>
      </trkpt>
      <trkpt lat="36.544324" lon="129.432179">
        <ele>155.5</ele>
      </trkpt>
      <trkpt lat="36.544392" lon="129.432263">
        <ele>155.3</ele>
      </trkpt>
      <trkpt lat="36.544459" lon="129.432314">
        <ele>155.0</ele>
      </trkpt>
      <trkpt lat="36.544589" lon="129.432358">
        <ele>154.8</ele>
      </trkpt>
      <trkpt lat="36.544698" lon="129.432379">
        <ele>154.6</ele>
      </trkpt>
      <trkpt lat="36.544753" lon="129.432431">
        <ele>154.5</ele>
      </trkpt>
      <trkpt lat="36.544808" lon="129.432499">
        <ele>154.3</ele>
      </trkpt>
      <trkpt lat="36.544911" lon="129.432583">
        <ele>154.2</ele>
      </trkpt>
      <trkpt lat="36.545003" lon="129.432682">
        <ele>154.1</ele>
      </trkpt>
      <trkpt lat="36.545149" lon="129.432757">
        <ele>154.0</ele>
      </trkpt>
      <trkpt lat="36.545172" lon="129.432815">
        <ele>153.9</ele>
      </trkpt>
      <trkpt lat="36.545246" lon="129.432888">
        <ele>153.8</ele>
      </trkpt>
      <trkpt lat="36.54529" lon="129.432952">
        <ele>153.7</ele>
      </trkpt>
      <trkpt lat="36.545362" lon="129.433024">
        <ele>153.7</ele>
      </trkpt>
      <trkpt lat="36.545392" lon="129.433023">
        <ele>153.6</ele>
      </trkpt>
      <trkpt lat="36.545449" lon="129.432988">
        <ele>153.5</ele>
      </trkpt>
      <trkpt lat="36.545561" lon="129.432977">
        <ele>153.4</ele>
      </trkpt>
      <trkpt lat="36.545701" lon="129.432911">
        <ele>153.4</ele>
      </trkpt>
      <trkpt lat="36.545736" lon="129.432885">
        <ele>153.3</ele>
      </trkpt>
      <trkpt lat="36.545835" lon="129.432846">
        <ele>153.3</ele>
      </trkpt>
      <trkpt lat="36.545857" lon="129.432818">
        <ele>153.2</ele>
      </trkpt>
      <trkpt lat="36.545889" lon="129.432809">
        <ele>153.2</ele>
      </trkpt>
      <trkpt lat="36.545963" lon="129.432756">
        <ele>153.1</ele>
      </trkpt>
      <trkpt lat="36.545965" lon="129.432733">
        <ele>153.1</ele>
      </trkpt>
      <trkpt lat="36.545982" lon="129.432728">
        <ele>153.0</ele>
      </trkpt>
      <trkpt lat="36.54599" lon="129.43267">
        <ele>153.0</ele>
      </trkpt>
      <trkpt lat="36.546045" lon="129.432637">
        <ele>152.9</ele>
      </trkpt>
      <trkpt lat="36.546055" lon="129.432635">
        <ele>152.8</ele>
      </trkpt>
      <trkpt lat="36.546069" lon="129.432653">
        <ele>152.8</ele>
      </trkpt>
      <trkpt lat="36.546088" lon="129.432661">
        <ele>152.7</ele>
      </trkpt>
      <trkpt lat="36.546128" lon="129.432648">
        <ele>152.6</ele>
      </trkpt>
      <trkpt lat="36.546162" lon="129.432679">
        <ele>152.5</ele>
      </trkpt>
      <trkpt lat="36.546198" lon="129.432669">
        <ele>152.4</ele>
      </trkpt>
      <trkpt lat="36.546403" lon="129.432652">
        <ele>152.2</ele>
      </trkpt>
      <trkpt lat="36.546643" lon="129.432645">
        <ele>152.1</ele>
      </trkpt>
      <trkpt lat="36.546734" lon="129.432632">
        <ele>151.9</ele>
      </trkpt>
      <trkpt lat="36.546791" lon="129.432636">
        <ele>151.7</ele>
      </trkpt>
      <trkpt lat="36.546878" lon="129.432623">
        <ele>151.5</ele>
      </trkpt>
      <trkpt lat="36.546941" lon="129.432591">
        <ele>151.2</ele>
      </trkpt>
      <trkpt lat="36.547009" lon="129.432509">
        <ele>151.0</ele>
      </trkpt>
      <trkpt lat="36.547027" lon="129.432443">
        <ele>150.7</ele>
      </trkpt>
      <trkpt lat="36.547108" lon="129.432282">
        <ele>150.4</ele>
      </trkpt>
      <trkpt lat="36.547156" lon="129.432225">
        <ele>150.1</ele>
      </trkpt>
      <trkpt lat="36.547228" lon="129.432118">
        <ele>149.8</ele>
      </trkpt>
      <trkpt lat="36.54724" lon="129.432065">
        <ele>149.5</ele>
      </trkpt>
      <trkpt lat="36.547278" lon="129.432004">
        <ele>149.1</ele>
      </trkpt>
      <trkpt lat="36.547342" lon="129.431853">
        <ele>148.8</ele>
      </trkpt>
      <trkpt lat="36.547381" lon="129.431708">
        <ele>148.4</ele>
      </trkpt>
      <trkpt lat="36.547401" lon="129.43167">
        <ele>148.1</ele>
      </trkpt>
      <trkpt lat="36.547411" lon="129.431656">
        <ele>147.7</ele>
      </trkpt>
      <trkpt lat="36.5474231809609" lon="129.43166971206668">
        <ele>147.3</ele>
      </trkpt>
      <trkpt lat="36.547411" lon="129.431656">
        <ele>146.9</ele>
      </trkpt>
      <trkpt lat="36.547492" lon="129.431553">
        <ele>146.5</ele>
      </trkpt>
      <trkpt lat="36.547538" lon="129.431507">
        <ele>146.1</ele>
      </trkpt>
      <trkpt lat="36.547588" lon="129.431471">
        <ele>145.6</ele>
      </trkpt>
      <trkpt lat="36.54765" lon="129.431448">
        <ele>145.2</ele>
      </trkpt>
      <trkpt lat="36.547729" lon="129.431402">
        <ele>144.7</ele>
      </trkpt>
      <trkpt lat="36.547778" lon="129.431347">
        <ele>144.3</ele>
      </trkpt>
      <trkpt lat="36.547824" lon="129.431192">
        <ele>143.8</ele>
      </trkpt>
      <trkpt lat="36.547826" lon="129.431164">
        <ele>143.4</ele>
      </trkpt>
      <trkpt lat="36.547871" lon="129.431066">
        <ele>142.9</ele>
      </trkpt>
      <trkpt lat="36.547882" lon="129.431005">
        <ele>142.4</ele>
      </trkpt>
      <trkpt lat="36.547973" lon="129.430843">
        <ele>141.9</ele>
      </trkpt>
      <trkpt lat="36.548161" lon="129.430735">
        <ele>141.4</ele>
      </trkpt>
      <trkpt lat="36.548184" lon="129.430731">
        <ele>141.0</ele>
      </trkpt>
      <trkpt lat="36.548212" lon="129.430745">
        <ele>140.5</ele>
      </trkpt>
      <trkpt lat="36.548222" lon="129.430742">
        <ele>140.0</ele>
      </trkpt>
      <trkpt lat="36.548269" lon="129.430684">
        <ele>139.5</ele>
      </trkpt>
      <trkpt lat="36.548324" lon="129.430655">
        <ele>139.0</ele>
      </trkpt>
      <trkpt lat="36.548375" lon="129.430665">
        <ele>138.5</ele>
      </trkpt>
      <trkpt lat="36.548479" lon="129.430652">
        <ele>138.0</ele>
      </trkpt>
      <trkpt lat="36.548551" lon="129.43066">
        <ele>137.5</ele>
      </trkpt>
      <trkpt lat="36.548699" lon="129.43071">
        <ele>137.0</ele>
      </trkpt>
      <trkpt lat="36.548727" lon="129.430727">
        <ele>136.5</ele>
      </trkpt>
      <trkpt lat="36.548763" lon="129.430775">
        <ele>136.1</ele>
      </trkpt>
      <trkpt lat="36.548756" lon="129.430837">
        <ele>135.7</ele>
      </trkpt>
      <trkpt lat="36.548787" lon="129.430953">
        <ele>135.2</ele>
      </trkpt>
      <trkpt lat="36.54879" lon="129.430994">
        <ele>134.8</ele>
      </trkpt>
      <trkpt lat="36.548833" lon="129.431077">
        <ele>134.4</ele>
      </trkpt>
      <trkpt lat="36.548918" lon="129.431304">
        <ele>134.0</ele>
      </trkpt>
      <trkpt lat="36.548975" lon="129.431397">
        <ele>133.6</ele>
      </trkpt>
      <trkpt lat="36.549008" lon="129.431434">
        <ele>133.2</ele>
      </trkpt>
      <trkpt lat="36.549109" lon="129.431481">
        <ele>132.9</ele>
      </trkpt>
      <trkpt lat="36.549144" lon="129.431507">
        <ele>132.6</ele>
      </trkpt>
      <trkpt lat="36.549229" lon="129.431602">
        <ele>132.3</ele>
      </trkpt>
      <trkpt lat="36.549287" lon="129.431686">
        <ele>132.0</ele>
      </trkpt>
      <trkpt lat="36.549321" lon="129.431749">
        <ele>131.7</ele>
      </trkpt>
      <trkpt lat="36.54944" lon="129.431868">
        <ele>131.4</ele>
      </trkpt>
      <trkpt lat="36.549597" lon="129.431937">
        <ele>131.2</ele>
      </trkpt>
      <trkpt lat="36.549667" lon="129.431994">
        <ele>130.9</ele>
      </trkpt>
      <trkpt lat="36.549705" lon="129.432043">
        <ele>130.7</ele>
      </trkpt>
      <trkpt lat="36.549733" lon="129.432063">
        <ele>130.5</ele>
      </trkpt>
      <trkpt lat="36.549863" lon="129.432113">
        <ele>130.3</ele>
      </trkpt>
      <trkpt lat="36.549951" lon="129.432166">
        <ele>130.1</ele>
      </trkpt>
      <trkpt lat="36.550095" lon="129.432232">
        <ele>130.0</ele>
      </trkpt>
      <trkpt lat="36.550158" lon="129.432233">
        <ele>129.8</ele>
      </trkpt>
      <trkpt lat="36.550272" lon="129.432202">
        <ele>129.6</ele>
      </trkpt>
      <trkpt lat="36.550452" lon="129.432195">
        <ele>129.4</ele>
      </trkpt>
      <trkpt lat="36.550479" lon="129.432179">
        <ele>129.2</ele>
      </trkpt>
      <trkpt lat="36.550567" lon="129.432069">
        <ele>129.0</ele>
      </trkpt>
      <trkpt lat="36.550644" lon="129.431999">
        <ele>128.7</ele>
      </trkpt>
      <trkpt lat="36.550726" lon="129.431878">
        <ele>128.5</ele>
      </trkpt>
      <trkpt lat="36.550798" lon="129.431736">
        <ele>128.1</ele>
      </trkpt>
      <trkpt lat="36.550821" lon="129.431705">
        <ele>127.8</ele>
      </trkpt>
      <trkpt lat="36.55104" lon="129.431538">
        <ele>127.3</ele>
      </trkpt>
      <trkpt lat="36.551183" lon="129.431394">
        <ele>126.8</ele>
      </trkpt>
      <trkpt lat="36.55142" lon="129.431238">
        <ele>126.3</ele>
      </trkpt>
      <trkpt lat="36.551561" lon="129.431065">
        <ele>125.6</ele>
      </trkpt>
      <trkpt lat="36.551592" lon="129.431051">
        <ele>125.0</ele>
      </trkpt>
      <trkpt lat="36.551675" lon="129.431044">
        <ele>124.2</ele>
      </trkpt>
      <trkpt lat="36.551724" lon="129.431007">
        <ele>123.5</ele>
      </trkpt>
      <trkpt lat="36.551752" lon="129.430968">
        <ele>122.6</ele>
      </trkpt>
      <trkpt lat="36.55179" lon="129.430889">
        <ele>121.7</ele>
      </trkpt>
      <trkpt lat="36.551842" lon="129.430816">
        <ele>120.7</ele>
      </trkpt>
      <trkpt lat="36.551845" lon="129.430798">
        <ele>119.7</ele>
      </trkpt>
      <trkpt lat="36.551894" lon="129.430716">
        <ele>118.6</ele>
      </trkpt>
      <trkpt lat="36.551961" lon="129.430645">
        <ele>117.4</ele>
      </trkpt>
      <trkpt lat="36.55198" lon="129.430604">
        <ele>116.2</ele>
      </trkpt>
      <trkpt lat="36.551993" lon="129.430595">
        <ele>114.9</ele>
      </trkpt>
      <trkpt lat="36.552" lon="129.430557">
        <ele>113.6</ele>
      </trkpt>
      <trkpt lat="36.552026" lon="129.430535">
        <ele>112.2</ele>
      </trkpt>
      <trkpt lat="36.552096" lon="129.430513">
        <ele>110.7</ele>
      </trkpt>
      <trkpt lat="36.552122" lon="129.430468">
        <ele>109.2</ele>
      </trkpt>
      <trkpt lat="36.552171" lon="129.430421">
        <ele>107.7</ele>
      </trkpt>
      <trkpt lat="36.552238" lon="129.430236">
        <ele>106.1</ele>
      </trkpt>
      <trkpt lat="36.552349" lon="129.430015">
        <ele>104.4</ele>
      </trkpt>
      <trkpt lat="36.552408" lon="129.429916">
        <ele>102.7</ele>
      </trkpt>
      <trkpt lat="36.552438" lon="129.429819">
        <ele>101.0</ele>
      </trkpt>
      <trkpt lat="36.552495" lon="129.429745">
        <ele>99.2</ele>
      </trkpt>
      <trkpt lat="36.552527" lon="129.429684">
        <ele>97.5</ele>
      </trkpt>
      <trkpt lat="36.552583" lon="129.429623">
        <ele>95.7</ele>
      </trkpt>
      <trkpt lat="36.552648" lon="129.429513">
        <ele>93.8</ele>
      </trkpt>
      <trkpt lat="36.552727" lon="129.429315">
        <ele>92.0</ele>
      </trkpt>
      <trkpt lat="36.552784" lon="129.429141">
        <ele>90.2</ele>
      </trkpt>
      <trkpt lat="36.552823" lon="129.429072">
        <ele>88.3</ele>
      </trkpt>
      <trkpt lat="36.552916" lon="129.428955">
        <ele>86.6</ele>
      </trkpt>
      <trkpt lat="36.552947" lon="129.428886">
        <ele>84.8</ele>
      </trkpt>
      <trkpt lat="36.552968" lon="129.428797">
        <ele>83.0</ele>
      </trkpt>
      <trkpt lat="36.553012" lon="129.428706">
        <ele>81.3</ele>
      </trkpt>
      <trkpt lat="36.553178" lon="129.428481">
        <ele>79.6</ele>
      </trkpt>
      <trkpt lat="36.553194" lon="129.428435">
        <ele>77.9</ele>
      </trkpt>
      <trkpt lat="36.55326" lon="129.428322">
        <ele>76.2</ele>
      </trkpt>
      <trkpt lat="36.553324" lon="129.428193">
        <ele>74.5</ele>
      </trkpt>
      <trkpt lat="36.553367" lon="129.428088">
        <ele>72.9</ele>
      </trkpt>
      <trkpt lat="36.553434" lon="129.427975">
        <ele>71.2</ele>
      </trkpt>
      <trkpt lat="36.553463" lon="129.427895">
        <ele>69.6</ele>
      </trkpt>
      <trkpt lat="36.553484" lon="129.427867">
        <ele>68.0</ele>
      </trkpt>
      <trkpt lat="36.553515" lon="129.427785">
        <ele>66.4</ele>
      </trkpt>
      <trkpt lat="36.553519" lon="129.42773">
        <ele>64.9</ele>
      </trkpt>
      <trkpt lat="36.553536" lon="129.427685">
        <ele>63.4</ele>
      </trkpt>
      <trkpt lat="36.553547" lon="129.427608">
        <ele>61.8</ele>
      </trkpt>
      <trkpt lat="36.553569" lon="129.427548">
        <ele>60.4</ele>
      </trkpt>
      <trkpt lat="36.553574" lon="129.42751">
        <ele>58.9</ele>
      </trkpt>
      <trkpt lat="36.55359" lon="129.427479">
        <ele>57.4</ele>
      </trkpt>
      <trkpt lat="36.55359" lon="129.427414">
        <ele>56.0</ele>
      </trkpt>
      <trkpt lat="36.553603" lon="129.427321">
        <ele>54.6</ele>
      </trkpt>
      <trkpt lat="36.553637" lon="129.427208">
        <ele>53.2</ele>
      </trkpt>
      <trkpt lat="36.553632" lon="129.427134">
        <ele>51.8</ele>
      </trkpt>
      <trkpt lat="36.553644" lon="129.427109">
        <ele>50.5</ele>
      </trkpt>
      <trkpt lat="36.55365" lon="129.427056">
        <ele>49.1</ele>
      </trkpt>
      <trkpt lat="36.553712" lon="129.426868">
        <ele>47.8</ele>
      </trkpt>
      <trkpt lat="36.553734" lon="129.426705">
        <ele>46.5</ele>
      </trkpt>
      <trkpt lat="36.553781" lon="129.426563">
        <ele>45.1</ele>
      </trkpt>
      <trkpt lat="36.55379" lon="129.426516">
        <ele>43.9</ele>
      </trkpt>
      <trkpt lat="36.5538010987217" lon="129.42651987075809">
        <ele>42.6</ele>
      </trkpt>
      <trkpt lat="36.55379" lon="129.426516">
        <ele>41.3</ele>
      </trkpt>
      <trkpt lat="36.553793" lon="129.426502">
        <ele>40.1</ele>
      </trkpt>
      <trkpt lat="36.553843" lon="129.426434">
        <ele>38.8</ele>
      </trkpt>
      <trkpt lat="36.553997" lon="129.426278">
        <ele>37.6</ele>
      </trkpt>
      <trkpt lat="36.554149" lon="129.426173">
        <ele>36.3</ele>
      </trkpt>
      <trkpt lat="36.554254" lon="129.426138">
        <ele>35.1</ele>
      </trkpt>
      <trkpt lat="36.554502" lon="129.425931">
        <ele>33.8</ele>
      </trkpt>
      <trkpt lat="36.554567" lon="129.42586">
        <ele>32.6</ele>
      </trkpt>
      <trkpt lat="36.554634" lon="129.425769">
        <ele>31.4</ele>
      </trkpt>
      <trkpt lat="36.554661" lon="129.425716">
        <ele>30.3</ele>
      </trkpt>
      <trkpt lat="36.554705" lon="129.425666">
        <ele>29.1</ele>
      </trkpt>
      <trkpt lat="36.554785" lon="129.425605">
        <ele>28.0</ele>
      </trkpt>
      <trkpt lat="36.554844" lon="129.425479">
        <ele>26.9</ele>
      </trkpt>
      <trkpt lat="36.554898" lon="129.425442">
        <ele>25.8</ele>
      </trkpt>
      <trkpt lat="36.554934" lon="129.425394">
        <ele>24.7</ele>
      </trkpt>
      <trkpt lat="36.554988" lon="129.425251">
        <ele>23.7</ele>
      </trkpt>
      <trkpt lat="36.555011" lon="129.425145">
        <ele>22.6</ele>
      </trkpt>
      <trkpt lat="36.55502" lon="129.425126">
        <ele>21.6</ele>
      </trkpt>
      <trkpt lat="36.555032" lon="129.425014">
        <ele>20.7</ele>
      </trkpt>
      <trkpt lat="36.554979" lon="129.424831">
        <ele>19.7</ele>
      </trkpt>
      <trkpt lat="36.554915" lon="129.424651">
        <ele>18.8</ele>
      </trkpt>
      <trkpt lat="36.555068" lon="129.423989">
        <ele>17.9</ele>
      </trkpt>
      <trkpt lat="36.555137" lon="129.423784">
        <ele>17.0</ele>
      </trkpt>
      <trkpt lat="36.555187" lon="129.423683">
        <ele>16.2</ele>
      </trkpt>
      <trkpt lat="36.555256" lon="129.423566">
        <ele>15.4</ele>
      </trkpt>
      <trkpt lat="36.555318" lon="129.423436">
        <ele>14.6</ele>
      </trkpt>
      <trkpt lat="36.5554" lon="129.423224">
        <ele>13.9</ele>
      </trkpt>
      <trkpt lat="36.555471" lon="129.422977">
        <ele>13.2</ele>
      </trkpt>
      <trkpt lat="36.555496" lon="129.422888">
        <ele>12.5</ele>
      </trkpt>
      <trkpt lat="36.555516" lon="129.422795">
        <ele>11.8</ele>
      </trkpt>
      <trkpt lat="36.555606" lon="129.4222">
        <ele>11.2</ele>
      </trkpt>
      <trkpt lat="36.55558509772668" lon="129.42219614982608">
        <ele>10.6</ele>
      </trkpt>
      <trkpt lat="36.555606" lon="129.4222">
        <ele>10.1</ele>
      </trkpt>
      <trkpt lat="36.555665" lon="129.421813">
        <ele>9.6</ele>
      </trkpt>
      <trkpt lat="36.555755" lon="129.421845">
        <ele>9.1</ele>
      </trkpt>
      <trkpt lat="36.555778" lon="129.421778">
        <ele>8.7</ele>
      </trkpt>
      <trkpt lat="36.55583" lon="129.421623">
        <ele>8.3</ele>
      </trkpt>
      <trkpt lat="36.555893" lon="129.421366">
        <ele>7.9</ele>
      </trkpt>
      <trkpt lat="36.555851" lon="129.42135">
        <ele>7.5</ele>
      </trkpt>
      <trkpt lat="36.55585226311403" lon="129.42134857177737">
        <ele>7.2</ele>
      </trkpt>
      <trkpt lat="36.55613666396296" lon="129.41929936409">
        <ele>6.9</ele>
      </trkpt>
      <trkpt lat="36.556135" lon="129.419305">
        <ele>6.7</ele>
      </trkpt>
      <trkpt lat="36.556156" lon="129.419312">
        <ele>6.4</ele>
      </trkpt>
      <trkpt lat="36.556529" lon="129.419426">
        <ele>6.2</ele>
      </trkpt>
      <trkpt lat="36.556926" lon="129.419492">
        <ele>6.0</ele>
      </trkpt>
      <trkpt lat="36.557132" lon="129.419516">
        <ele>5.8</ele>
      </trkpt>
      <trkpt lat="36.557393" lon="129.419531">
        <ele>5.7</ele>
      </trkpt>
      <trkpt lat="36.558932" lon="129.419517">
        <ele>5.5</ele>
      </trkpt>
      <trkpt lat="36.559074" lon="129.419511">
        <ele>5.4</ele>
      </trkpt>
      <trkpt lat="36.55907541144256" lon="129.41952466964725">
        <ele>5.4</ele>
      </trkpt>
      <trkpt lat="36.559074" lon="129.419511">
        <ele>5.3</ele>
      </trkpt>
      <trkpt lat="36.559263" lon="129.419505">
        <ele>5.2</ele>
      </trkpt>
      <trkpt lat="36.559441" lon="129.419506">
        <ele>5.2</ele>
      </trkpt>
      <trkpt lat="36.559641" lon="129.419518">
        <ele>5.2</ele>
      </trkpt>
      <trkpt lat="36.561007" lon="129.419639">
        <ele>5.1</ele>
      </trkpt>
      <trkpt lat="36.561824" lon="129.419718">
        <ele>5.1</ele>
      </trkpt>
      <trkpt lat="36.562187" lon="129.419761">
        <ele>5.1</ele>
      </trkpt>
      <trkpt lat="36.562734" lon="129.41985">
        <ele>5.1</ele>
      </trkpt>
      <trkpt lat="36.563099" lon="129.419937">
        <ele>5.1</ele>
      </trkpt>
      <trkpt lat="36.563118" lon="129.419944">
        <ele>5.1</ele>
      </trkpt>
      <trkpt lat="36.563117083901304" lon="129.41995382308963">
        <ele>5.1</ele>
      </trkpt>
      <trkpt lat="36.563118" lon="129.419944">
        <ele>5.1</ele>
      </trkpt>
      <trkpt lat="36.563241" lon="129.419989">
        <ele>5.1</ele>
      </trkpt>
      <trkpt lat="36.56341" lon="129.420062">
        <ele>5.1</ele>
      </trkpt>
      <trkpt lat="36.563566" lon="129.420145">
        <ele>5.1</ele>
      </trkpt>
      <trkpt lat="36.564055" lon="129.420472">
        <ele>5.2</ele>
      </trkpt>
      <trkpt lat="36.564256" lon="129.420627">
        <ele>5.2</ele>
      </trkpt>
      <trkpt lat="36.564445" lon="129.420804">
        <ele>5.2</ele>
      </trkpt>
      <trkpt lat="36.564557" lon="129.420922">
        <ele>5.2</ele>
      </trkpt>
      <trkpt lat="36.564666" lon="129.421011">
        <ele>5.2</ele>
      </trkpt>
      <trkpt lat="36.564711" lon="129.421057">
        <ele>5.3</ele>
      </trkpt>
      <trkpt lat="36.564887" lon="129.421284">
        <ele>5.3</ele>
      </trkpt>
      <trkpt lat="36.564984" lon="129.421433">
        <ele>5.3</ele>
      </trkpt>
      <trkpt lat="36.56509" lon="129.421563">
        <ele>5.3</ele>
      </trkpt>
      <trkpt lat="36.565155" lon="129.421625">
        <ele>5.3</ele>
      </trkpt>
      <trkpt lat="36.565267" lon="129.421708">
        <ele>5.3</ele>
      </trkpt>
      <trkpt lat="36.565653" lon="129.421981">
        <ele>5.3</ele>
      </trkpt>
      <trkpt lat="36.56582" lon="129.422123">
        <ele>5.3</ele>
      </trkpt>
      <trkpt lat="36.566084" lon="129.42238">
        <ele>5.3</ele>
      </trkpt>
      <trkpt lat="36.566116" lon="129.422399">
        <ele>5.3</ele>
      </trkpt>
      <trkpt lat="36.56613" lon="129.4224">
        <ele>5.3</ele>
      </trkpt>
      <trkpt lat="36.56613311960607" lon="129.4223785400391">
        <ele>5.3</ele>
      </trkpt>
      <trkpt lat="36.56613" lon="129.4224">
        <ele>5.2</ele>
      </trkpt>
      <trkpt lat="36.566153" lon="129.422402">
        <ele>5.2</ele>
      </trkpt>
      <trkpt lat="36.566198" lon="129.422393">
        <ele>5.2</ele>
      </trkpt>
      <trkpt lat="36.56624" lon="129.422371">
        <ele>5.2</ele>
      </trkpt>
      <trkpt lat="36.56628" lon="129.42234">
        <ele>5.2</ele>
      </trkpt>
      <trkpt lat="36.566557" lon="129.422078">
        <ele>5.2</ele>
      </trkpt>
      <trkpt lat="36.566575" lon="129.422107">
        <ele>5.2</ele>
      </trkpt>
      <trkpt lat="36.5665725892649" lon="129.4221103191376">
        <ele>5.2</ele>
      </trkpt>
      <trkpt lat="36.566575" lon="129.422107">
        <ele>5.2</ele>
      </trkpt>
      <trkpt lat="36.566606" lon="129.422159">
        <ele>5.2</ele>
      </trkpt>
      <trkpt lat="36.566797" lon="129.422442">
        <ele>5.2</ele>
      </trkpt>
      <trkpt lat="36.56687" lon="129.422555">
        <ele>5.2</ele>
      </trkpt>
      <trkpt lat="36.5669" lon="129.422598">
        <ele>5.2</ele>
      </trkpt>
      <trkpt lat="36.566917269600694" lon="129.42258238792422">
        <ele>5.2</ele>
      </trkpt>
      <trkpt lat="36.5671757788432" lon="129.42233562469485">
        <ele>5.2</ele>
      </trkpt>
      <trkpt lat="36.56782204816432" lon="129.4233334064484">
        <ele>5.2</ele>
      </trkpt>
      <trkpt lat="36.56680524866027" lon="129.42442774772647">
        <ele>5.2</ele>
      </trkpt>
      <trkpt lat="36.56546098470337" lon="129.42595124244693">
        <ele>5.2</ele>
      </trkpt>
    </trkseg>
  </trk>
</gpx>